<?xml version="1.0" encoding="UTF-8"?>
<gpx version="1.1" creator="walkingwithember" xmlns="http://www.topografix.com/GPX/1/1">
  <metadata>
    <name>Sunday lunch escape with the pooch</name>
    <time>2014-11-09T11:49:32.000Z</time>
  </metadata>
  <trk>
    <name>Sunday lunch escape with the pooch</name>
    <trkseg>
      <trkpt lat="52.737063" lon="-1.349659"><ele>0.0</ele><time>2014-11-09T11:49:32.000Z</time></trkpt>
      <trkpt lat="52.736969" lon="-1.349712"><ele>138.0</ele><time>2014-11-09T11:49:41.000Z</time></trkpt>
      <trkpt lat="52.736269" lon="-1.349527"><ele>138.0</ele><time>2014-11-09T11:50:42.000Z</time></trkpt>
      <trkpt lat="52.735805" lon="-1.348403"><ele>138.0</ele><time>2014-11-09T11:51:46.000Z</time></trkpt>
      <trkpt lat="52.735418" lon="-1.347331"><ele>138.6</ele><time>2014-11-09T11:52:51.000Z</time></trkpt>
      <trkpt lat="52.734806" lon="-1.346510"><ele>145.0</ele><time>2014-11-09T11:53:52.000Z</time></trkpt>
      <trkpt lat="52.734334" lon="-1.345434"><ele>147.0</ele><time>2014-11-09T11:54:55.000Z</time></trkpt>
      <trkpt lat="52.734025" lon="-1.344167"><ele>149.0</ele><time>2014-11-09T11:56:03.000Z</time></trkpt>
      <trkpt lat="52.733681" lon="-1.342934"><ele>150.5</ele><time>2014-11-09T11:57:05.000Z</time></trkpt>
      <trkpt lat="52.733963" lon="-1.341599"><ele>154.7</ele><time>2014-11-09T11:58:07.000Z</time></trkpt>
      <trkpt lat="52.734422" lon="-1.340888"><ele>159.7</ele><time>2014-11-09T11:59:07.000Z</time></trkpt>
      <trkpt lat="52.733830" lon="-1.339758"><ele>159.0</ele><time>2014-11-09T12:00:10.000Z</time></trkpt>
      <trkpt lat="52.733286" lon="-1.338708"><ele>159.0</ele><time>2014-11-09T12:01:10.000Z</time></trkpt>
      <trkpt lat="52.732754" lon="-1.337532"><ele>159.0</ele><time>2014-11-09T12:02:15.000Z</time></trkpt>
      <trkpt lat="52.732275" lon="-1.336426"><ele>159.0</ele><time>2014-11-09T12:03:15.000Z</time></trkpt>
      <trkpt lat="52.731851" lon="-1.335650"><ele>161.0</ele><time>2014-11-09T12:03:59.000Z</time></trkpt>
      <trkpt lat="52.731442" lon="-1.334780"><ele>162.8</ele><time>2014-11-09T12:04:43.000Z</time></trkpt>
      <trkpt lat="52.731053" lon="-1.333919"><ele>166.0</ele><time>2014-11-09T12:05:33.000Z</time></trkpt>
      <trkpt lat="52.730485" lon="-1.332870"><ele>168.0</ele><time>2014-11-09T12:06:33.000Z</time></trkpt>
      <trkpt lat="52.730177" lon="-1.332620"><ele>168.0</ele><time>2014-11-09T12:07:33.000Z</time></trkpt>
      <trkpt lat="52.730588" lon="-1.331462"><ele>171.3</ele><time>2014-11-09T12:08:33.000Z</time></trkpt>
      <trkpt lat="52.731079" lon="-1.330234"><ele>176.4</ele><time>2014-11-09T12:09:37.000Z</time></trkpt>
      <trkpt lat="52.731486" lon="-1.329192"><ele>183.3</ele><time>2014-11-09T12:10:33.000Z</time></trkpt>
      <trkpt lat="52.731399" lon="-1.327900"><ele>187.0</ele><time>2014-11-09T12:11:33.000Z</time></trkpt>
      <trkpt lat="52.731067" lon="-1.326506"><ele>190.0</ele><time>2014-11-09T12:12:33.000Z</time></trkpt>
      <trkpt lat="52.730399" lon="-1.325471"><ele>193.0</ele><time>2014-11-09T12:13:35.000Z</time></trkpt>
      <trkpt lat="52.729762" lon="-1.324608"><ele>196.0</ele><time>2014-11-09T12:14:33.000Z</time></trkpt>
      <trkpt lat="52.729166" lon="-1.323521"><ele>198.0</ele><time>2014-11-09T12:15:35.000Z</time></trkpt>
      <trkpt lat="52.728716" lon="-1.322567"><ele>201.4</ele><time>2014-11-09T12:16:34.000Z</time></trkpt>
      <trkpt lat="52.728254" lon="-1.321462"><ele>203.0</ele><time>2014-11-09T12:17:35.000Z</time></trkpt>
      <trkpt lat="52.727904" lon="-1.320124"><ele>206.5</ele><time>2014-11-09T12:18:35.000Z</time></trkpt>
      <trkpt lat="52.727471" lon="-1.318932"><ele>209.3</ele><time>2014-11-09T12:19:33.000Z</time></trkpt>
      <trkpt lat="52.727135" lon="-1.317720"><ele>213.0</ele><time>2014-11-09T12:20:33.000Z</time></trkpt>
      <trkpt lat="52.726631" lon="-1.316452"><ele>217.7</ele><time>2014-11-09T12:21:33.000Z</time></trkpt>
      <trkpt lat="52.726870" lon="-1.315862"><ele>223.2</ele><time>2014-11-09T12:22:36.000Z</time></trkpt>
      <trkpt lat="52.727604" lon="-1.315329"><ele>227.5</ele><time>2014-11-09T12:23:35.000Z</time></trkpt>
      <trkpt lat="52.727982" lon="-1.315566"><ele>233.0</ele><time>2014-11-09T12:24:33.000Z</time></trkpt>
      <trkpt lat="52.728330" lon="-1.316190"><ele>233.0</ele><time>2014-11-09T12:26:33.000Z</time></trkpt>
      <trkpt lat="52.728606" lon="-1.316542"><ele>233.0</ele><time>2014-11-09T12:27:33.000Z</time></trkpt>
      <trkpt lat="52.729104" lon="-1.317314"><ele>231.0</ele><time>2014-11-09T12:28:33.000Z</time></trkpt>
      <trkpt lat="52.729636" lon="-1.318089"><ele>229.0</ele><time>2014-11-09T12:29:33.000Z</time></trkpt>
      <trkpt lat="52.730194" lon="-1.319014"><ele>227.0</ele><time>2014-11-09T12:30:33.000Z</time></trkpt>
      <trkpt lat="52.730770" lon="-1.319925"><ele>228.3</ele><time>2014-11-09T12:31:33.000Z</time></trkpt>
      <trkpt lat="52.731240" lon="-1.320563"><ele>230.0</ele><time>2014-11-09T12:32:33.000Z</time></trkpt>
      <trkpt lat="52.731783" lon="-1.321621"><ele>228.4</ele><time>2014-11-09T12:33:33.000Z</time></trkpt>
      <trkpt lat="52.732474" lon="-1.322408"><ele>221.0</ele><time>2014-11-09T12:34:33.000Z</time></trkpt>
      <trkpt lat="52.732930" lon="-1.323533"><ele>212.7</ele><time>2014-11-09T12:35:33.000Z</time></trkpt>
      <trkpt lat="52.733277" lon="-1.324774"><ele>209.7</ele><time>2014-11-09T12:36:33.000Z</time></trkpt>
      <trkpt lat="52.733568" lon="-1.324866"><ele>208.3</ele><time>2014-11-09T12:37:33.000Z</time></trkpt>
      <trkpt lat="52.734173" lon="-1.324046"><ele>206.0</ele><time>2014-11-09T12:38:33.000Z</time></trkpt>
      <trkpt lat="52.734677" lon="-1.323183"><ele>201.7</ele><time>2014-11-09T12:39:33.000Z</time></trkpt>
      <trkpt lat="52.735299" lon="-1.322396"><ele>193.6</ele><time>2014-11-09T12:40:34.000Z</time></trkpt>
      <trkpt lat="52.735740" lon="-1.322297"><ele>189.4</ele><time>2014-11-09T12:41:36.000Z</time></trkpt>
      <trkpt lat="52.736058" lon="-1.322971"><ele>187.2</ele><time>2014-11-09T12:42:38.000Z</time></trkpt>
      <trkpt lat="52.736123" lon="-1.323546"><ele>185.6</ele><time>2014-11-09T12:43:36.000Z</time></trkpt>
      <trkpt lat="52.736630" lon="-1.324638"><ele>184.0</ele><time>2014-11-09T12:44:35.000Z</time></trkpt>
      <trkpt lat="52.736493" lon="-1.325404"><ele>186.5</ele><time>2014-11-09T12:45:35.000Z</time></trkpt>
      <trkpt lat="52.735792" lon="-1.325780"><ele>193.3</ele><time>2014-11-09T12:46:33.000Z</time></trkpt>
      <trkpt lat="52.735920" lon="-1.326768"><ele>199.0</ele><time>2014-11-09T12:47:33.000Z</time></trkpt>
      <trkpt lat="52.736327" lon="-1.327944"><ele>196.0</ele><time>2014-11-09T12:48:33.000Z</time></trkpt>
      <trkpt lat="52.736757" lon="-1.328990"><ele>198.3</ele><time>2014-11-09T12:49:33.000Z</time></trkpt>
      <trkpt lat="52.736951" lon="-1.330109"><ele>195.8</ele><time>2014-11-09T12:50:33.000Z</time></trkpt>
      <trkpt lat="52.737355" lon="-1.331183"><ele>184.0</ele><time>2014-11-09T12:51:35.000Z</time></trkpt>
      <trkpt lat="52.737904" lon="-1.331968"><ele>182.4</ele><time>2014-11-09T12:52:34.000Z</time></trkpt>
      <trkpt lat="52.738712" lon="-1.332284"><ele>182.7</ele><time>2014-11-09T12:53:33.000Z</time></trkpt>
      <trkpt lat="52.739410" lon="-1.332702"><ele>182.0</ele><time>2014-11-09T12:54:33.000Z</time></trkpt>
      <trkpt lat="52.739806" lon="-1.333638"><ele>195.1</ele><time>2014-11-09T12:55:35.000Z</time></trkpt>
      <trkpt lat="52.740306" lon="-1.334621"><ele>197.5</ele><time>2014-11-09T12:56:35.000Z</time></trkpt>
      <trkpt lat="52.740725" lon="-1.335686"><ele>199.0</ele><time>2014-11-09T12:57:33.000Z</time></trkpt>
      <trkpt lat="52.741264" lon="-1.336454"><ele>194.7</ele><time>2014-11-09T12:58:33.000Z</time></trkpt>
      <trkpt lat="52.741916" lon="-1.336341"><ele>187.7</ele><time>2014-11-09T12:59:33.000Z</time></trkpt>
      <trkpt lat="52.742674" lon="-1.335994"><ele>182.7</ele><time>2014-11-09T13:00:33.000Z</time></trkpt>
      <trkpt lat="52.743039" lon="-1.336416"><ele>180.5</ele><time>2014-11-09T13:01:35.000Z</time></trkpt>
      <trkpt lat="52.742925" lon="-1.337616"><ele>187.3</ele><time>2014-11-09T13:02:33.000Z</time></trkpt>
      <trkpt lat="52.742737" lon="-1.338687"><ele>195.0</ele><time>2014-11-09T13:03:35.000Z</time></trkpt>
      <trkpt lat="52.742503" lon="-1.339901"><ele>197.5</ele><time>2014-11-09T13:04:35.000Z</time></trkpt>
      <trkpt lat="52.742222" lon="-1.341284"><ele>192.0</ele><time>2014-11-09T13:05:35.000Z</time></trkpt>
      <trkpt lat="52.742165" lon="-1.342569"><ele>184.0</ele><time>2014-11-09T13:06:34.000Z</time></trkpt>
      <trkpt lat="52.742125" lon="-1.343817"><ele>176.7</ele><time>2014-11-09T13:07:33.000Z</time></trkpt>
      <trkpt lat="52.741902" lon="-1.344427"><ele>174.6</ele><time>2014-11-09T13:08:33.000Z</time></trkpt>
      <trkpt lat="52.741365" lon="-1.343694"><ele>184.3</ele><time>2014-11-09T13:09:33.000Z</time></trkpt>
      <trkpt lat="52.740681" lon="-1.343169"><ele>187.0</ele><time>2014-11-09T13:10:35.000Z</time></trkpt>
      <trkpt lat="52.740107" lon="-1.342817"><ele>193.3</ele><time>2014-11-09T13:11:33.000Z</time></trkpt>
      <trkpt lat="52.739376" lon="-1.342444"><ele>196.0</ele><time>2014-11-09T13:12:33.000Z</time></trkpt>
      <trkpt lat="52.739103" lon="-1.343508"><ele>184.7</ele><time>2014-11-09T13:13:33.000Z</time></trkpt>
      <trkpt lat="52.739516" lon="-1.344563"><ele>181.0</ele><time>2014-11-09T13:14:34.000Z</time></trkpt>
      <trkpt lat="52.739338" lon="-1.344894"><ele>177.0</ele><time>2014-11-09T13:15:35.000Z</time></trkpt>
      <trkpt lat="52.738776" lon="-1.344655"><ele>165.4</ele><time>2014-11-09T13:16:33.000Z</time></trkpt>
      <trkpt lat="52.738305" lon="-1.344013"><ele>164.0</ele><time>2014-11-09T13:17:33.000Z</time></trkpt>
      <trkpt lat="52.737553" lon="-1.344061"><ele>161.7</ele><time>2014-11-09T13:18:33.000Z</time></trkpt>
      <trkpt lat="52.737336" lon="-1.345304"><ele>155.7</ele><time>2014-11-09T13:19:33.000Z</time></trkpt>
      <trkpt lat="52.736846" lon="-1.344827"><ele>153.0</ele><time>2014-11-09T13:20:33.000Z</time></trkpt>
      <trkpt lat="52.736178" lon="-1.343749"><ele>153.0</ele><time>2014-11-09T13:21:35.000Z</time></trkpt>
      <trkpt lat="52.735487" lon="-1.342826"><ele>153.0</ele><time>2014-11-09T13:22:35.000Z</time></trkpt>
      <trkpt lat="52.734765" lon="-1.343539"><ele>151.0</ele><time>2014-11-09T13:23:35.000Z</time></trkpt>
      <trkpt lat="52.734628" lon="-1.344812"><ele>146.5</ele><time>2014-11-09T13:24:35.000Z</time></trkpt>
      <trkpt lat="52.735091" lon="-1.345869"><ele>143.6</ele><time>2014-11-09T13:25:34.000Z</time></trkpt>
      <trkpt lat="52.735488" lon="-1.347111"><ele>141.5</ele><time>2014-11-09T13:26:35.000Z</time></trkpt>
      <trkpt lat="52.735465" lon="-1.348199"><ele>138.7</ele><time>2014-11-09T13:27:33.000Z</time></trkpt>
      <trkpt lat="52.735906" lon="-1.349274"><ele>136.0</ele><time>2014-11-09T13:28:34.000Z</time></trkpt>
      <trkpt lat="52.736529" lon="-1.349730"><ele>135.0</ele><time>2014-11-09T13:29:33.000Z</time></trkpt>
    </trkseg>
  </trk>
</gpx>
