<?xml version="1.0" encoding="UTF-8"?>
<gpx version="1.1" creator="walkingwithember" xmlns="http://www.topografix.com/GPX/1/1">
  <metadata>
    <name>05/16/2015 City Centre, United Kingdom</name>
    <time>2015-05-16T11:22:45.000Z</time>
  </metadata>
  <trk>
    <name>05/16/2015 City Centre, United Kingdom</name>
    <trkseg>
      <trkpt lat="52.636068" lon="-1.133357"><ele>57.0</ele><time>2015-05-16T11:22:45.000Z</time></trkpt>
      <trkpt lat="52.636057" lon="-1.133338"><ele>54.2</ele><time>2015-05-16T11:22:49.000Z</time></trkpt>
      <trkpt lat="52.636026" lon="-1.133116"><ele>58.0</ele><time>2015-05-16T11:22:59.000Z</time></trkpt>
      <trkpt lat="52.635994" lon="-1.132854"><ele>68.0</ele><time>2015-05-16T11:23:29.000Z</time></trkpt>
      <trkpt lat="52.635984" lon="-1.132735"><ele>66.6</ele><time>2015-05-16T11:23:41.000Z</time></trkpt>
      <trkpt lat="52.635990" lon="-1.132649"><ele>66.6</ele><time>2015-05-16T11:23:48.000Z</time></trkpt>
      <trkpt lat="52.636061" lon="-1.131975"><ele>68.0</ele><time>2015-05-16T11:24:18.000Z</time></trkpt>
      <trkpt lat="52.636086" lon="-1.131653"><ele>67.0</ele><time>2015-05-16T11:24:31.000Z</time></trkpt>
      <trkpt lat="52.636107" lon="-1.131489"><ele>66.6</ele><time>2015-05-16T11:24:38.000Z</time></trkpt>
      <trkpt lat="52.636126" lon="-1.131248"><ele>65.2</ele><time>2015-05-16T11:24:50.000Z</time></trkpt>
      <trkpt lat="52.636130" lon="-1.131150"><ele>65.6</ele><time>2015-05-16T11:24:56.000Z</time></trkpt>
      <trkpt lat="52.636232" lon="-1.130605"><ele>63.0</ele><time>2015-05-16T11:25:19.000Z</time></trkpt>
      <trkpt lat="52.636291" lon="-1.130414"><ele>60.0</ele><time>2015-05-16T11:25:28.000Z</time></trkpt>
      <trkpt lat="52.636332" lon="-1.130324"><ele>58.6</ele><time>2015-05-16T11:25:33.000Z</time></trkpt>
      <trkpt lat="52.636351" lon="-1.130290"><ele>58.4</ele><time>2015-05-16T11:25:36.000Z</time></trkpt>
      <trkpt lat="52.636465" lon="-1.130203"><ele>58.6</ele><time>2015-05-16T11:25:51.000Z</time></trkpt>
      <trkpt lat="52.636478" lon="-1.130234"><ele>58.4</ele><time>2015-05-16T11:25:53.000Z</time></trkpt>
      <trkpt lat="52.636511" lon="-1.130259"><ele>58.0</ele><time>2015-05-16T11:25:56.000Z</time></trkpt>
      <trkpt lat="52.636614" lon="-1.130334"><ele>57.0</ele><time>2015-05-16T11:26:03.000Z</time></trkpt>
      <trkpt lat="52.636652" lon="-1.130345"><ele>57.0</ele><time>2015-05-16T11:26:05.000Z</time></trkpt>
      <trkpt lat="52.636749" lon="-1.130382"><ele>56.8</ele><time>2015-05-16T11:26:11.000Z</time></trkpt>
      <trkpt lat="52.636859" lon="-1.130439"><ele>56.8</ele><time>2015-05-16T11:26:19.000Z</time></trkpt>
      <trkpt lat="52.636961" lon="-1.130452"><ele>55.0</ele><time>2015-05-16T11:26:26.000Z</time></trkpt>
      <trkpt lat="52.637010" lon="-1.130476"><ele>54.6</ele><time>2015-05-16T11:26:29.000Z</time></trkpt>
      <trkpt lat="52.637048" lon="-1.130480"><ele>54.4</ele><time>2015-05-16T11:26:31.000Z</time></trkpt>
      <trkpt lat="52.637078" lon="-1.130490"><ele>54.2</ele><time>2015-05-16T11:26:33.000Z</time></trkpt>
      <trkpt lat="52.637119" lon="-1.130514"><ele>54.2</ele><time>2015-05-16T11:26:38.000Z</time></trkpt>
      <trkpt lat="52.637244" lon="-1.130608"><ele>55.4</ele><time>2015-05-16T11:26:50.000Z</time></trkpt>
      <trkpt lat="52.637368" lon="-1.130691"><ele>56.6</ele><time>2015-05-16T11:26:59.000Z</time></trkpt>
      <trkpt lat="52.637475" lon="-1.130753"><ele>59.0</ele><time>2015-05-16T11:27:10.000Z</time></trkpt>
      <trkpt lat="52.637484" lon="-1.130786"><ele>59.6</ele><time>2015-05-16T11:27:12.000Z</time></trkpt>
      <trkpt lat="52.637503" lon="-1.130811"><ele>60.4</ele><time>2015-05-16T11:27:14.000Z</time></trkpt>
      <trkpt lat="52.637535" lon="-1.130827"><ele>60.6</ele><time>2015-05-16T11:27:16.000Z</time></trkpt>
      <trkpt lat="52.637560" lon="-1.130849"><ele>61.0</ele><time>2015-05-16T11:27:18.000Z</time></trkpt>
      <trkpt lat="52.637668" lon="-1.130957"><ele>62.8</ele><time>2015-05-16T11:27:27.000Z</time></trkpt>
      <trkpt lat="52.637690" lon="-1.130960"><ele>63.4</ele><time>2015-05-16T11:27:29.000Z</time></trkpt>
      <trkpt lat="52.637714" lon="-1.130980"><ele>63.8</ele><time>2015-05-16T11:27:31.000Z</time></trkpt>
      <trkpt lat="52.637743" lon="-1.131010"><ele>64.6</ele><time>2015-05-16T11:27:34.000Z</time></trkpt>
      <trkpt lat="52.637764" lon="-1.131025"><ele>65.2</ele><time>2015-05-16T11:27:36.000Z</time></trkpt>
      <trkpt lat="52.637834" lon="-1.131053"><ele>66.6</ele><time>2015-05-16T11:27:41.000Z</time></trkpt>
      <trkpt lat="52.637848" lon="-1.131057"><ele>67.0</ele><time>2015-05-16T11:27:43.000Z</time></trkpt>
      <trkpt lat="52.638083" lon="-1.130861"><ele>67.2</ele><time>2015-05-16T11:27:55.000Z</time></trkpt>
      <trkpt lat="52.638113" lon="-1.130852"><ele>67.2</ele><time>2015-05-16T11:27:57.000Z</time></trkpt>
      <trkpt lat="52.638343" lon="-1.131057"><ele>65.6</ele><time>2015-05-16T11:28:16.000Z</time></trkpt>
      <trkpt lat="52.638479" lon="-1.131257"><ele>67.0</ele><time>2015-05-16T11:28:30.000Z</time></trkpt>
      <trkpt lat="52.638492" lon="-1.131260"><ele>67.2</ele><time>2015-05-16T11:28:32.000Z</time></trkpt>
      <trkpt lat="52.638595" lon="-1.131121"><ele>65.0</ele><time>2015-05-16T11:28:37.000Z</time></trkpt>
      <trkpt lat="52.638636" lon="-1.131129"><ele>64.2</ele><time>2015-05-16T11:28:41.000Z</time></trkpt>
      <trkpt lat="52.638743" lon="-1.131155"><ele>64.0</ele><time>2015-05-16T11:28:52.000Z</time></trkpt>
      <trkpt lat="52.638751" lon="-1.131185"><ele>64.4</ele><time>2015-05-16T11:28:54.000Z</time></trkpt>
      <trkpt lat="52.638842" lon="-1.131344"><ele>63.8</ele><time>2015-05-16T11:29:09.000Z</time></trkpt>
      <trkpt lat="52.638900" lon="-1.131292"><ele>63.0</ele><time>2015-05-16T11:29:15.000Z</time></trkpt>
      <trkpt lat="52.638902" lon="-1.131305"><ele>63.0</ele><time>2015-05-16T11:29:17.000Z</time></trkpt>
      <trkpt lat="52.638807" lon="-1.131454"><ele>62.2</ele><time>2015-05-16T11:29:30.000Z</time></trkpt>
      <trkpt lat="52.638795" lon="-1.131463"><ele>62.0</ele><time>2015-05-16T11:29:31.000Z</time></trkpt>
      <trkpt lat="52.638682" lon="-1.131604"><ele>61.8</ele><time>2015-05-16T11:29:42.000Z</time></trkpt>
      <trkpt lat="52.638652" lon="-1.131644"><ele>62.4</ele><time>2015-05-16T11:29:47.000Z</time></trkpt>
      <trkpt lat="52.638601" lon="-1.131704"><ele>63.0</ele><time>2015-05-16T11:29:52.000Z</time></trkpt>
      <trkpt lat="52.638515" lon="-1.131788"><ele>63.2</ele><time>2015-05-16T11:29:59.000Z</time></trkpt>
      <trkpt lat="52.638433" lon="-1.131900"><ele>63.2</ele><time>2015-05-16T11:30:08.000Z</time></trkpt>
      <trkpt lat="52.638342" lon="-1.131889"><ele>62.0</ele><time>2015-05-16T11:30:13.000Z</time></trkpt>
      <trkpt lat="52.638286" lon="-1.131948"><ele>62.0</ele><time>2015-05-16T11:30:18.000Z</time></trkpt>
      <trkpt lat="52.638242" lon="-1.131984"><ele>61.8</ele><time>2015-05-16T11:30:22.000Z</time></trkpt>
      <trkpt lat="52.638148" lon="-1.132060"><ele>61.0</ele><time>2015-05-16T11:30:31.000Z</time></trkpt>
      <trkpt lat="52.638109" lon="-1.132075"><ele>60.8</ele><time>2015-05-16T11:30:36.000Z</time></trkpt>
      <trkpt lat="52.638088" lon="-1.132076"><ele>61.0</ele><time>2015-05-16T11:30:39.000Z</time></trkpt>
      <trkpt lat="52.638022" lon="-1.132022"><ele>62.0</ele><time>2015-05-16T11:30:43.000Z</time></trkpt>
      <trkpt lat="52.637936" lon="-1.131998"><ele>62.4</ele><time>2015-05-16T11:30:48.000Z</time></trkpt>
      <trkpt lat="52.637692" lon="-1.132125"><ele>62.0</ele><time>2015-05-16T11:31:09.000Z</time></trkpt>
      <trkpt lat="52.637576" lon="-1.132173"><ele>61.8</ele><time>2015-05-16T11:31:21.000Z</time></trkpt>
      <trkpt lat="52.637503" lon="-1.132222"><ele>62.0</ele><time>2015-05-16T11:31:28.000Z</time></trkpt>
      <trkpt lat="52.637454" lon="-1.132274"><ele>62.4</ele><time>2015-05-16T11:31:32.000Z</time></trkpt>
      <trkpt lat="52.637432" lon="-1.132329"><ele>63.0</ele><time>2015-05-16T11:31:36.000Z</time></trkpt>
      <trkpt lat="52.637322" lon="-1.132457"><ele>63.6</ele><time>2015-05-16T11:31:49.000Z</time></trkpt>
      <trkpt lat="52.637281" lon="-1.132464"><ele>63.6</ele><time>2015-05-16T11:31:52.000Z</time></trkpt>
      <trkpt lat="52.637242" lon="-1.132450"><ele>63.6</ele><time>2015-05-16T11:31:56.000Z</time></trkpt>
      <trkpt lat="52.637170" lon="-1.132522"><ele>63.8</ele><time>2015-05-16T11:32:03.000Z</time></trkpt>
      <trkpt lat="52.637031" lon="-1.132552"><ele>64.0</ele><time>2015-05-16T11:32:12.000Z</time></trkpt>
      <trkpt lat="52.636960" lon="-1.132596"><ele>64.4</ele><time>2015-05-16T11:32:17.000Z</time></trkpt>
      <trkpt lat="52.636914" lon="-1.132617"><ele>64.8</ele><time>2015-05-16T11:32:21.000Z</time></trkpt>
      <trkpt lat="52.636891" lon="-1.132649"><ele>65.0</ele><time>2015-05-16T11:32:23.000Z</time></trkpt>
      <trkpt lat="52.636841" lon="-1.132689"><ele>65.2</ele><time>2015-05-16T11:32:27.000Z</time></trkpt>
      <trkpt lat="52.636668" lon="-1.132812"><ele>66.2</ele><time>2015-05-16T11:32:42.000Z</time></trkpt>
      <trkpt lat="52.636332" lon="-1.133033"><ele>68.8</ele><time>2015-05-16T11:33:14.000Z</time></trkpt>
      <trkpt lat="52.636132" lon="-1.133030"><ele>69.0</ele><time>2015-05-16T11:33:29.000Z</time></trkpt>
      <trkpt lat="52.636114" lon="-1.133023"><ele>68.2</ele><time>2015-05-16T11:33:35.000Z</time></trkpt>
      <trkpt lat="52.636072" lon="-1.132864"><ele>65.2</ele><time>2015-05-16T11:33:44.000Z</time></trkpt>
      <trkpt lat="52.636090" lon="-1.132647"><ele>69.2</ele><time>2015-05-16T11:33:56.000Z</time></trkpt>
      <trkpt lat="52.636129" lon="-1.132082"><ele>67.0</ele><time>2015-05-16T11:34:19.000Z</time></trkpt>
      <trkpt lat="52.636256" lon="-1.131361"><ele>63.6</ele><time>2015-05-16T11:34:46.000Z</time></trkpt>
      <trkpt lat="52.636343" lon="-1.131142"><ele>63.6</ele><time>2015-05-16T11:34:55.000Z</time></trkpt>
      <trkpt lat="52.636338" lon="-1.130762"><ele>67.8</ele><time>2015-05-16T11:35:09.000Z</time></trkpt>
      <trkpt lat="52.636349" lon="-1.130651"><ele>68.6</ele><time>2015-05-16T11:35:14.000Z</time></trkpt>
      <trkpt lat="52.636374" lon="-1.130528"><ele>68.6</ele><time>2015-05-16T11:35:20.000Z</time></trkpt>
      <trkpt lat="52.636371" lon="-1.130501"><ele>68.4</ele><time>2015-05-16T11:35:22.000Z</time></trkpt>
      <trkpt lat="52.636346" lon="-1.130453"><ele>68.4</ele><time>2015-05-16T11:35:25.000Z</time></trkpt>
      <trkpt lat="52.636344" lon="-1.130416"><ele>68.4</ele><time>2015-05-16T11:35:28.000Z</time></trkpt>
      <trkpt lat="52.636324" lon="-1.130364"><ele>68.0</ele><time>2015-05-16T11:35:30.000Z</time></trkpt>
      <trkpt lat="52.636139" lon="-1.130237"><ele>67.6</ele><time>2015-05-16T11:35:37.000Z</time></trkpt>
      <trkpt lat="52.636047" lon="-1.130185"><ele>68.6</ele><time>2015-05-16T11:35:41.000Z</time></trkpt>
      <trkpt lat="52.635602" lon="-1.129946"><ele>70.6</ele><time>2015-05-16T11:36:15.000Z</time></trkpt>
      <trkpt lat="52.635391" lon="-1.129825"><ele>70.0</ele><time>2015-05-16T11:36:28.000Z</time></trkpt>
      <trkpt lat="52.635165" lon="-1.129756"><ele>70.0</ele><time>2015-05-16T11:36:42.000Z</time></trkpt>
      <trkpt lat="52.635132" lon="-1.129751"><ele>70.8</ele><time>2015-05-16T11:36:47.000Z</time></trkpt>
      <trkpt lat="52.635028" lon="-1.129650"><ele>72.2</ele><time>2015-05-16T11:36:55.000Z</time></trkpt>
      <trkpt lat="52.634702" lon="-1.129595"><ele>78.0</ele><time>2015-05-16T11:37:13.000Z</time></trkpt>
      <trkpt lat="52.634344" lon="-1.129428"><ele>75.6</ele><time>2015-05-16T11:37:43.000Z</time></trkpt>
      <trkpt lat="52.634265" lon="-1.129395"><ele>75.4</ele><time>2015-05-16T11:37:50.000Z</time></trkpt>
      <trkpt lat="52.634148" lon="-1.129304"><ele>75.2</ele><time>2015-05-16T11:38:05.000Z</time></trkpt>
      <trkpt lat="52.633771" lon="-1.129681"><ele>76.6</ele><time>2015-05-16T11:38:34.000Z</time></trkpt>
      <trkpt lat="52.633767" lon="-1.129719"><ele>76.6</ele><time>2015-05-16T11:38:36.000Z</time></trkpt>
      <trkpt lat="52.633640" lon="-1.129945"><ele>75.6</ele><time>2015-05-16T11:38:49.000Z</time></trkpt>
      <trkpt lat="52.633611" lon="-1.129978"><ele>75.4</ele><time>2015-05-16T11:38:52.000Z</time></trkpt>
      <trkpt lat="52.633559" lon="-1.130151"><ele>70.8</ele><time>2015-05-16T11:39:01.000Z</time></trkpt>
      <trkpt lat="52.633484" lon="-1.130165"><ele>69.8</ele><time>2015-05-16T11:39:07.000Z</time></trkpt>
      <trkpt lat="52.633144" lon="-1.130629"><ele>69.8</ele><time>2015-05-16T11:39:37.000Z</time></trkpt>
      <trkpt lat="52.633092" lon="-1.130752"><ele>70.4</ele><time>2015-05-16T11:39:44.000Z</time></trkpt>
      <trkpt lat="52.633016" lon="-1.130933"><ele>70.4</ele><time>2015-05-16T11:39:53.000Z</time></trkpt>
      <trkpt lat="52.632856" lon="-1.131169"><ele>70.0</ele><time>2015-05-16T11:40:08.000Z</time></trkpt>
      <trkpt lat="52.632771" lon="-1.131332"><ele>71.0</ele><time>2015-05-16T11:40:18.000Z</time></trkpt>
      <trkpt lat="52.632752" lon="-1.131365"><ele>71.2</ele><time>2015-05-16T11:40:20.000Z</time></trkpt>
      <trkpt lat="52.632731" lon="-1.131418"><ele>71.4</ele><time>2015-05-16T11:40:23.000Z</time></trkpt>
      <trkpt lat="52.632616" lon="-1.131675"><ele>72.2</ele><time>2015-05-16T11:40:38.000Z</time></trkpt>
      <trkpt lat="52.632523" lon="-1.131861"><ele>72.6</ele><time>2015-05-16T11:40:48.000Z</time></trkpt>
      <trkpt lat="52.632416" lon="-1.132098"><ele>75.0</ele><time>2015-05-16T11:41:01.000Z</time></trkpt>
      <trkpt lat="52.632400" lon="-1.132158"><ele>75.8</ele><time>2015-05-16T11:41:04.000Z</time></trkpt>
      <trkpt lat="52.632330" lon="-1.132283"><ele>76.0</ele><time>2015-05-16T11:41:11.000Z</time></trkpt>
      <trkpt lat="52.632294" lon="-1.132349"><ele>76.6</ele><time>2015-05-16T11:41:16.000Z</time></trkpt>
      <trkpt lat="52.632292" lon="-1.132370"><ele>76.6</ele><time>2015-05-16T11:41:17.000Z</time></trkpt>
      <trkpt lat="52.632284" lon="-1.132486"><ele>77.0</ele><time>2015-05-16T11:41:22.000Z</time></trkpt>
      <trkpt lat="52.632202" lon="-1.132815"><ele>78.8</ele><time>2015-05-16T11:41:37.000Z</time></trkpt>
      <trkpt lat="52.632137" lon="-1.132879"><ele>78.4</ele><time>2015-05-16T11:41:42.000Z</time></trkpt>
      <trkpt lat="52.631961" lon="-1.133258"><ele>79.2</ele><time>2015-05-16T11:42:03.000Z</time></trkpt>
      <trkpt lat="52.631982" lon="-1.133241"><ele>79.4</ele><time>2015-05-16T11:42:08.000Z</time></trkpt>
      <trkpt lat="52.631984" lon="-1.133222"><ele>79.4</ele><time>2015-05-16T11:42:14.000Z</time></trkpt>
      <trkpt lat="52.631965" lon="-1.133129"><ele>79.6</ele><time>2015-05-16T11:42:23.000Z</time></trkpt>
      <trkpt lat="52.632074" lon="-1.133261"><ele>79.2</ele><time>2015-05-16T11:44:44.000Z</time></trkpt>
      <trkpt lat="52.632091" lon="-1.133197"><ele>63.6</ele><time>2015-05-16T11:44:51.000Z</time></trkpt>
      <trkpt lat="52.632168" lon="-1.132785"><ele>81.6</ele><time>2015-05-16T11:45:07.000Z</time></trkpt>
      <trkpt lat="52.632177" lon="-1.132748"><ele>78.8</ele><time>2015-05-16T11:45:09.000Z</time></trkpt>
      <trkpt lat="52.632214" lon="-1.132667"><ele>77.6</ele><time>2015-05-16T11:45:14.000Z</time></trkpt>
      <trkpt lat="52.632280" lon="-1.132521"><ele>75.8</ele><time>2015-05-16T11:45:23.000Z</time></trkpt>
      <trkpt lat="52.632305" lon="-1.132469"><ele>74.6</ele><time>2015-05-16T11:45:26.000Z</time></trkpt>
      <trkpt lat="52.632448" lon="-1.132230"><ele>71.2</ele><time>2015-05-16T11:45:41.000Z</time></trkpt>
      <trkpt lat="52.632710" lon="-1.131606"><ele>64.8</ele><time>2015-05-16T11:46:15.000Z</time></trkpt>
      <trkpt lat="52.632874" lon="-1.131177"><ele>63.8</ele><time>2015-05-16T11:46:37.000Z</time></trkpt>
      <trkpt lat="52.632981" lon="-1.130946"><ele>64.2</ele><time>2015-05-16T11:46:50.000Z</time></trkpt>
      <trkpt lat="52.633294" lon="-1.130414"><ele>64.2</ele><time>2015-05-16T11:47:21.000Z</time></trkpt>
      <trkpt lat="52.633321" lon="-1.130041"><ele>61.2</ele><time>2015-05-16T11:47:38.000Z</time></trkpt>
      <trkpt lat="52.633360" lon="-1.130022"><ele>60.8</ele><time>2015-05-16T11:47:41.000Z</time></trkpt>
      <trkpt lat="52.633391" lon="-1.130082"><ele>60.2</ele><time>2015-05-16T11:47:47.000Z</time></trkpt>
      <trkpt lat="52.633399" lon="-1.130101"><ele>60.0</ele><time>2015-05-16T11:47:49.000Z</time></trkpt>
      <trkpt lat="52.633397" lon="-1.130108"><ele>59.8</ele><time>2015-05-16T11:47:52.000Z</time></trkpt>
      <trkpt lat="52.633432" lon="-1.130074"><ele>60.0</ele><time>2015-05-16T11:47:57.000Z</time></trkpt>
      <trkpt lat="52.633483" lon="-1.129958"><ele>60.0</ele><time>2015-05-16T11:48:05.000Z</time></trkpt>
      <trkpt lat="52.633621" lon="-1.129963"><ele>61.2</ele><time>2015-05-16T11:48:11.000Z</time></trkpt>
      <trkpt lat="52.633845" lon="-1.129683"><ele>60.6</ele><time>2015-05-16T11:48:29.000Z</time></trkpt>
      <trkpt lat="52.633890" lon="-1.129675"><ele>60.4</ele><time>2015-05-16T11:48:31.000Z</time></trkpt>
      <trkpt lat="52.633991" lon="-1.129571"><ele>61.2</ele><time>2015-05-16T11:48:37.000Z</time></trkpt>
      <trkpt lat="52.634140" lon="-1.129309"><ele>59.2</ele><time>2015-05-16T11:48:50.000Z</time></trkpt>
      <trkpt lat="52.634074" lon="-1.129155"><ele>58.2</ele><time>2015-05-16T11:48:56.000Z</time></trkpt>
      <trkpt lat="52.634062" lon="-1.129126"><ele>58.4</ele><time>2015-05-16T11:49:00.000Z</time></trkpt>
      <trkpt lat="52.634062" lon="-1.129132"><ele>58.4</ele><time>2015-05-16T11:49:03.000Z</time></trkpt>
      <trkpt lat="52.634259" lon="-1.129063"><ele>64.8</ele><time>2015-05-16T11:49:22.000Z</time></trkpt>
      <trkpt lat="52.634291" lon="-1.129037"><ele>66.0</ele><time>2015-05-16T11:49:26.000Z</time></trkpt>
      <trkpt lat="52.634317" lon="-1.128996"><ele>66.6</ele><time>2015-05-16T11:49:28.000Z</time></trkpt>
      <trkpt lat="52.634686" lon="-1.128505"><ele>67.2</ele><time>2015-05-16T11:49:50.000Z</time></trkpt>
      <trkpt lat="52.634742" lon="-1.128481"><ele>67.2</ele><time>2015-05-16T11:49:53.000Z</time></trkpt>
      <trkpt lat="52.634885" lon="-1.128032"><ele>66.8</ele><time>2015-05-16T11:50:18.000Z</time></trkpt>
      <trkpt lat="52.634934" lon="-1.127986"><ele>67.0</ele><time>2015-05-16T11:50:21.000Z</time></trkpt>
      <trkpt lat="52.634986" lon="-1.127982"><ele>67.8</ele><time>2015-05-16T11:50:24.000Z</time></trkpt>
      <trkpt lat="52.635023" lon="-1.127881"><ele>68.4</ele><time>2015-05-16T11:50:28.000Z</time></trkpt>
      <trkpt lat="52.635048" lon="-1.127789"><ele>68.4</ele><time>2015-05-16T11:50:30.000Z</time></trkpt>
      <trkpt lat="52.635064" lon="-1.127729"><ele>68.8</ele><time>2015-05-16T11:50:33.000Z</time></trkpt>
      <trkpt lat="52.635080" lon="-1.127979"><ele>68.6</ele><time>2015-05-16T11:50:48.000Z</time></trkpt>
      <trkpt lat="52.635152" lon="-1.128202"><ele>68.0</ele><time>2015-05-16T11:50:57.000Z</time></trkpt>
      <trkpt lat="52.635135" lon="-1.128342"><ele>67.2</ele><time>2015-05-16T11:51:02.000Z</time></trkpt>
      <trkpt lat="52.635094" lon="-1.128457"><ele>67.0</ele><time>2015-05-16T11:51:09.000Z</time></trkpt>
      <trkpt lat="52.635044" lon="-1.128987"><ele>63.8</ele><time>2015-05-16T11:51:33.000Z</time></trkpt>
      <trkpt lat="52.635031" lon="-1.129022"><ele>63.2</ele><time>2015-05-16T11:51:35.000Z</time></trkpt>
      <trkpt lat="52.634918" lon="-1.129106"><ele>63.4</ele><time>2015-05-16T11:51:42.000Z</time></trkpt>
      <trkpt lat="52.634849" lon="-1.129228"><ele>63.4</ele><time>2015-05-16T11:51:52.000Z</time></trkpt>
      <trkpt lat="52.634851" lon="-1.129241"><ele>63.6</ele><time>2015-05-16T11:51:54.000Z</time></trkpt>
      <trkpt lat="52.634885" lon="-1.129310"><ele>64.4</ele><time>2015-05-16T11:51:58.000Z</time></trkpt>
      <trkpt lat="52.634970" lon="-1.129469"><ele>68.8</ele><time>2015-05-16T11:52:09.000Z</time></trkpt>
      <trkpt lat="52.635089" lon="-1.129609"><ele>74.2</ele><time>2015-05-16T11:52:20.000Z</time></trkpt>
      <trkpt lat="52.635115" lon="-1.129656"><ele>74.4</ele><time>2015-05-16T11:52:22.000Z</time></trkpt>
      <trkpt lat="52.635458" lon="-1.129940"><ele>72.2</ele><time>2015-05-16T11:52:45.000Z</time></trkpt>
      <trkpt lat="52.635502" lon="-1.129949"><ele>72.4</ele><time>2015-05-16T11:52:48.000Z</time></trkpt>
      <trkpt lat="52.635524" lon="-1.129958"><ele>72.4</ele><time>2015-05-16T11:52:50.000Z</time></trkpt>
      <trkpt lat="52.635567" lon="-1.129964"><ele>72.0</ele><time>2015-05-16T11:52:53.000Z</time></trkpt>
      <trkpt lat="52.635631" lon="-1.129986"><ele>71.4</ele><time>2015-05-16T11:52:58.000Z</time></trkpt>
      <trkpt lat="52.635661" lon="-1.129982"><ele>71.6</ele><time>2015-05-16T11:53:01.000Z</time></trkpt>
      <trkpt lat="52.635823" lon="-1.130036"><ele>71.2</ele><time>2015-05-16T11:53:12.000Z</time></trkpt>
      <trkpt lat="52.635933" lon="-1.130110"><ele>71.6</ele><time>2015-05-16T11:53:21.000Z</time></trkpt>
      <trkpt lat="52.636073" lon="-1.130274"><ele>69.8</ele><time>2015-05-16T11:53:33.000Z</time></trkpt>
      <trkpt lat="52.636077" lon="-1.130281"><ele>69.2</ele><time>2015-05-16T11:53:35.000Z</time></trkpt>
      <trkpt lat="52.636080" lon="-1.130282"><ele>69.2</ele><time>2015-05-16T11:53:36.000Z</time></trkpt>
      <trkpt lat="52.636089" lon="-1.130336"><ele>69.0</ele><time>2015-05-16T11:53:40.000Z</time></trkpt>
      <trkpt lat="52.636099" lon="-1.130376"><ele>68.0</ele><time>2015-05-16T11:53:43.000Z</time></trkpt>
      <trkpt lat="52.636161" lon="-1.130530"><ele>64.2</ele><time>2015-05-16T11:53:56.000Z</time></trkpt>
      <trkpt lat="52.636345" lon="-1.131204"><ele>61.0</ele><time>2015-05-16T11:54:32.000Z</time></trkpt>
      <trkpt lat="52.636355" lon="-1.131244"><ele>61.4</ele><time>2015-05-16T11:54:35.000Z</time></trkpt>
      <trkpt lat="52.636368" lon="-1.131397"><ele>63.2</ele><time>2015-05-16T11:54:42.000Z</time></trkpt>
      <trkpt lat="52.636273" lon="-1.131875"><ele>67.6</ele><time>2015-05-16T11:55:05.000Z</time></trkpt>
      <trkpt lat="52.636264" lon="-1.131899"><ele>67.6</ele><time>2015-05-16T11:55:07.000Z</time></trkpt>
      <trkpt lat="52.636182" lon="-1.132405"><ele>65.4</ele><time>2015-05-16T11:55:28.000Z</time></trkpt>
      <trkpt lat="52.636202" lon="-1.132713"><ele>65.0</ele><time>2015-05-16T11:55:42.000Z</time></trkpt>
      <trkpt lat="52.636200" lon="-1.132756"><ele>65.2</ele><time>2015-05-16T11:55:44.000Z</time></trkpt>
      <trkpt lat="52.636172" lon="-1.132879"><ele>65.0</ele><time>2015-05-16T11:55:50.000Z</time></trkpt>
      <trkpt lat="52.636177" lon="-1.132920"><ele>65.0</ele><time>2015-05-16T11:55:53.000Z</time></trkpt>
      <trkpt lat="52.636178" lon="-1.132943"><ele>65.0</ele><time>2015-05-16T11:55:55.000Z</time></trkpt>
      <trkpt lat="52.636181" lon="-1.133027"><ele>64.4</ele><time>2015-05-16T11:56:01.000Z</time></trkpt>
      <trkpt lat="52.636150" lon="-1.133054"><ele>63.4</ele><time>2015-05-16T11:56:05.000Z</time></trkpt>
      <trkpt lat="52.636039" lon="-1.133127"><ele>62.4</ele><time>2015-05-16T11:56:11.000Z</time></trkpt>
      <trkpt lat="52.636006" lon="-1.133251"><ele>61.2</ele><time>2015-05-16T11:56:17.000Z</time></trkpt>
      <trkpt lat="52.635980" lon="-1.133753"><ele>61.0</ele><time>2015-05-16T11:56:38.000Z</time></trkpt>
      <trkpt lat="52.635945" lon="-1.134112"><ele>61.8</ele><time>2015-05-16T11:57:01.000Z</time></trkpt>
      <trkpt lat="52.635897" lon="-1.134290"><ele>62.8</ele><time>2015-05-16T11:57:08.000Z</time></trkpt>
      <trkpt lat="52.635775" lon="-1.134611"><ele>65.6</ele><time>2015-05-16T11:57:22.000Z</time></trkpt>
      <trkpt lat="52.635509" lon="-1.135073"><ele>64.8</ele><time>2015-05-16T11:57:48.000Z</time></trkpt>
      <trkpt lat="52.635449" lon="-1.135196"><ele>63.8</ele><time>2015-05-16T11:57:55.000Z</time></trkpt>
      <trkpt lat="52.635396" lon="-1.135459"><ele>61.2</ele><time>2015-05-16T11:58:10.000Z</time></trkpt>
      <trkpt lat="52.635400" lon="-1.135436"><ele>60.8</ele><time>2015-05-16T11:58:13.000Z</time></trkpt>
      <trkpt lat="52.635393" lon="-1.135430"><ele>60.8</ele><time>2015-05-16T11:58:15.000Z</time></trkpt>
      <trkpt lat="52.635375" lon="-1.135413"><ele>61.0</ele><time>2015-05-16T11:58:18.000Z</time></trkpt>
      <trkpt lat="52.635356" lon="-1.135419"><ele>60.8</ele><time>2015-05-16T11:58:20.000Z</time></trkpt>
      <trkpt lat="52.635342" lon="-1.135457"><ele>61.0</ele><time>2015-05-16T11:58:22.000Z</time></trkpt>
      <trkpt lat="52.635178" lon="-1.136149"><ele>58.2</ele><time>2015-05-16T11:58:56.000Z</time></trkpt>
      <trkpt lat="52.635006" lon="-1.136815"><ele>57.2</ele><time>2015-05-16T11:59:29.000Z</time></trkpt>
      <trkpt lat="52.634983" lon="-1.136976"><ele>56.6</ele><time>2015-05-16T11:59:37.000Z</time></trkpt>
      <trkpt lat="52.634925" lon="-1.137143"><ele>56.0</ele><time>2015-05-16T11:59:46.000Z</time></trkpt>
      <trkpt lat="52.634902" lon="-1.137292"><ele>55.6</ele><time>2015-05-16T11:59:53.000Z</time></trkpt>
      <trkpt lat="52.634778" lon="-1.137909"><ele>53.2</ele><time>2015-05-16T12:00:23.000Z</time></trkpt>
      <trkpt lat="52.634757" lon="-1.138146"><ele>52.4</ele><time>2015-05-16T12:00:33.000Z</time></trkpt>
      <trkpt lat="52.634725" lon="-1.138244"><ele>52.2</ele><time>2015-05-16T12:00:38.000Z</time></trkpt>
      <trkpt lat="52.634683" lon="-1.138337"><ele>53.0</ele><time>2015-05-16T12:00:43.000Z</time></trkpt>
      <trkpt lat="52.634226" lon="-1.138288"><ele>55.8</ele><time>2015-05-16T12:01:13.000Z</time></trkpt>
      <trkpt lat="52.634094" lon="-1.138320"><ele>56.6</ele><time>2015-05-16T12:01:21.000Z</time></trkpt>
      <trkpt lat="52.634042" lon="-1.138297"><ele>56.6</ele><time>2015-05-16T12:01:25.000Z</time></trkpt>
      <trkpt lat="52.634033" lon="-1.138264"><ele>56.6</ele><time>2015-05-16T12:01:27.000Z</time></trkpt>
      <trkpt lat="52.634039" lon="-1.138161"><ele>57.0</ele><time>2015-05-16T12:01:31.000Z</time></trkpt>
      <trkpt lat="52.634128" lon="-1.137740"><ele>57.8</ele><time>2015-05-16T12:01:47.000Z</time></trkpt>
      <trkpt lat="52.634142" lon="-1.137680"><ele>57.6</ele><time>2015-05-16T12:01:49.000Z</time></trkpt>
      <trkpt lat="52.634204" lon="-1.137458"><ele>56.4</ele><time>2015-05-16T12:01:58.000Z</time></trkpt>
      <trkpt lat="52.634238" lon="-1.137170"><ele>55.0</ele><time>2015-05-16T12:02:10.000Z</time></trkpt>
      <trkpt lat="52.634266" lon="-1.136702"><ele>53.8</ele><time>2015-05-16T12:02:31.000Z</time></trkpt>
      <trkpt lat="52.634275" lon="-1.136656"><ele>53.6</ele><time>2015-05-16T12:02:34.000Z</time></trkpt>
      <trkpt lat="52.634308" lon="-1.135909"><ele>49.6</ele><time>2015-05-16T12:03:08.000Z</time></trkpt>
      <trkpt lat="52.634374" lon="-1.135744"><ele>48.4</ele><time>2015-05-16T12:03:17.000Z</time></trkpt>
      <trkpt lat="52.634421" lon="-1.135684"><ele>48.4</ele><time>2015-05-16T12:03:21.000Z</time></trkpt>
      <trkpt lat="52.634459" lon="-1.135632"><ele>47.8</ele><time>2015-05-16T12:03:25.000Z</time></trkpt>
      <trkpt lat="52.634459" lon="-1.135234"><ele>47.2</ele><time>2015-05-16T12:03:40.000Z</time></trkpt>
      <trkpt lat="52.634471" lon="-1.135177"><ele>46.8</ele><time>2015-05-16T12:03:43.000Z</time></trkpt>
      <trkpt lat="52.634486" lon="-1.135083"><ele>47.4</ele><time>2015-05-16T12:03:49.000Z</time></trkpt>
      <trkpt lat="52.634497" lon="-1.135064"><ele>47.6</ele><time>2015-05-16T12:03:51.000Z</time></trkpt>
      <trkpt lat="52.634570" lon="-1.134915"><ele>47.2</ele><time>2015-05-16T12:04:00.000Z</time></trkpt>
      <trkpt lat="52.634668" lon="-1.134801"><ele>45.8</ele><time>2015-05-16T12:04:09.000Z</time></trkpt>
      <trkpt lat="52.634704" lon="-1.134767"><ele>45.0</ele><time>2015-05-16T12:04:13.000Z</time></trkpt>
      <trkpt lat="52.634711" lon="-1.134681"><ele>45.0</ele><time>2015-05-16T12:04:17.000Z</time></trkpt>
      <trkpt lat="52.634976" lon="-1.134419"><ele>49.2</ele><time>2015-05-16T12:04:44.000Z</time></trkpt>
      <trkpt lat="52.635103" lon="-1.134317"><ele>48.8</ele><time>2015-05-16T12:04:55.000Z</time></trkpt>
      <trkpt lat="52.635317" lon="-1.134057"><ele>48.2</ele><time>2015-05-16T12:05:12.000Z</time></trkpt>
      <trkpt lat="52.635542" lon="-1.133522"><ele>49.6</ele><time>2015-05-16T12:05:42.000Z</time></trkpt>
      <trkpt lat="52.635351" lon="-1.133272"><ele>52.0</ele><time>2015-05-16T12:05:56.000Z</time></trkpt>
      <trkpt lat="52.635279" lon="-1.133177"><ele>53.2</ele><time>2015-05-16T12:06:01.000Z</time></trkpt>
      <trkpt lat="52.635253" lon="-1.133109"><ele>54.0</ele><time>2015-05-16T12:06:04.000Z</time></trkpt>
      <trkpt lat="52.635247" lon="-1.133074"><ele>55.0</ele><time>2015-05-16T12:06:06.000Z</time></trkpt>
      <trkpt lat="52.635229" lon="-1.133046"><ele>55.8</ele><time>2015-05-16T12:06:09.000Z</time></trkpt>
      <trkpt lat="52.635214" lon="-1.133005"><ele>56.4</ele><time>2015-05-16T12:06:12.000Z</time></trkpt>
      <trkpt lat="52.635172" lon="-1.132940"><ele>56.4</ele><time>2015-05-16T12:06:17.000Z</time></trkpt>
      <trkpt lat="52.635161" lon="-1.132922"><ele>56.6</ele><time>2015-05-16T12:06:19.000Z</time></trkpt>
      <trkpt lat="52.635124" lon="-1.132893"><ele>56.4</ele><time>2015-05-16T12:06:25.000Z</time></trkpt>
      <trkpt lat="52.635091" lon="-1.132871"><ele>56.0</ele><time>2015-05-16T12:06:29.000Z</time></trkpt>
      <trkpt lat="52.635014" lon="-1.132806"><ele>55.6</ele><time>2015-05-16T12:06:37.000Z</time></trkpt>
      <trkpt lat="52.634947" lon="-1.132759"><ele>55.4</ele><time>2015-05-16T12:06:42.000Z</time></trkpt>
      <trkpt lat="52.634690" lon="-1.132614"><ele>53.0</ele><time>2015-05-16T12:07:01.000Z</time></trkpt>
      <trkpt lat="52.634654" lon="-1.132563"><ele>52.2</ele><time>2015-05-16T12:07:05.000Z</time></trkpt>
      <trkpt lat="52.634635" lon="-1.132538"><ele>52.0</ele><time>2015-05-16T12:07:07.000Z</time></trkpt>
      <trkpt lat="52.634560" lon="-1.132392"><ele>51.8</ele><time>2015-05-16T12:07:14.000Z</time></trkpt>
      <trkpt lat="52.634548" lon="-1.132293"><ele>51.4</ele><time>2015-05-16T12:07:18.000Z</time></trkpt>
      <trkpt lat="52.634531" lon="-1.132126"><ele>50.2</ele><time>2015-05-16T12:07:27.000Z</time></trkpt>
      <trkpt lat="52.634504" lon="-1.132033"><ele>48.8</ele><time>2015-05-16T12:07:33.000Z</time></trkpt>
      <trkpt lat="52.634539" lon="-1.131703"><ele>46.4</ele><time>2015-05-16T12:07:49.000Z</time></trkpt>
      <trkpt lat="52.634534" lon="-1.131683"><ele>46.8</ele><time>2015-05-16T12:07:51.000Z</time></trkpt>
      <trkpt lat="52.634187" lon="-1.131190"><ele>46.8</ele><time>2015-05-16T12:08:29.000Z</time></trkpt>
      <trkpt lat="52.634091" lon="-1.131040"><ele>49.4</ele><time>2015-05-16T12:08:37.000Z</time></trkpt>
      <trkpt lat="52.634080" lon="-1.130985"><ele>50.2</ele><time>2015-05-16T12:08:40.000Z</time></trkpt>
      <trkpt lat="52.633631" lon="-1.131089"><ele>56.2</ele><time>2015-05-16T12:09:02.000Z</time></trkpt>
      <trkpt lat="52.633506" lon="-1.131547"><ele>60.2</ele><time>2015-05-16T12:09:25.000Z</time></trkpt>
      <trkpt lat="52.633498" lon="-1.131598"><ele>60.8</ele><time>2015-05-16T12:09:27.000Z</time></trkpt>
      <trkpt lat="52.633460" lon="-1.131782"><ele>62.6</ele><time>2015-05-16T12:09:35.000Z</time></trkpt>
      <trkpt lat="52.633377" lon="-1.132087"><ele>65.0</ele><time>2015-05-16T12:09:50.000Z</time></trkpt>
      <trkpt lat="52.633321" lon="-1.132240"><ele>65.2</ele><time>2015-05-16T12:09:57.000Z</time></trkpt>
      <trkpt lat="52.633117" lon="-1.132486"><ele>66.6</ele><time>2015-05-16T12:10:15.000Z</time></trkpt>
      <trkpt lat="52.633008" lon="-1.132633"><ele>65.2</ele><time>2015-05-16T12:10:28.000Z</time></trkpt>
      <trkpt lat="52.632883" lon="-1.132574"><ele>64.0</ele><time>2015-05-16T12:10:39.000Z</time></trkpt>
      <trkpt lat="52.632833" lon="-1.132562"><ele>63.4</ele><time>2015-05-16T12:10:43.000Z</time></trkpt>
      <trkpt lat="52.632748" lon="-1.132510"><ele>62.6</ele><time>2015-05-16T12:10:52.000Z</time></trkpt>
      <trkpt lat="52.632735" lon="-1.132508"><ele>62.2</ele><time>2015-05-16T12:10:55.000Z</time></trkpt>
      <trkpt lat="52.632667" lon="-1.132379"><ele>62.6</ele><time>2015-05-16T12:11:08.000Z</time></trkpt>
      <trkpt lat="52.632642" lon="-1.132365"><ele>62.6</ele><time>2015-05-16T12:11:10.000Z</time></trkpt>
      <trkpt lat="52.632483" lon="-1.132344"><ele>62.2</ele><time>2015-05-16T12:11:16.000Z</time></trkpt>
      <trkpt lat="52.632478" lon="-1.132372"><ele>62.8</ele><time>2015-05-16T12:11:18.000Z</time></trkpt>
      <trkpt lat="52.632457" lon="-1.132461"><ele>64.2</ele><time>2015-05-16T12:11:23.000Z</time></trkpt>
      <trkpt lat="52.632252" lon="-1.132717"><ele>67.8</ele><time>2015-05-16T12:11:43.000Z</time></trkpt>
      <trkpt lat="52.632216" lon="-1.132703"><ele>68.4</ele><time>2015-05-16T12:11:45.000Z</time></trkpt>
      <trkpt lat="52.632159" lon="-1.132659"><ele>69.4</ele><time>2015-05-16T12:11:50.000Z</time></trkpt>
      <trkpt lat="52.632094" lon="-1.132605"><ele>70.4</ele><time>2015-05-16T12:11:57.000Z</time></trkpt>
      <trkpt lat="52.631931" lon="-1.132498"><ele>73.2</ele><time>2015-05-16T12:12:06.000Z</time></trkpt>
      <trkpt lat="52.631826" lon="-1.132371"><ele>74.8</ele><time>2015-05-16T12:12:16.000Z</time></trkpt>
      <trkpt lat="52.631798" lon="-1.132321"><ele>75.0</ele><time>2015-05-16T12:12:20.000Z</time></trkpt>
      <trkpt lat="52.631784" lon="-1.132301"><ele>75.0</ele><time>2015-05-16T12:12:22.000Z</time></trkpt>
      <trkpt lat="52.631559" lon="-1.131775"><ele>75.4</ele><time>2015-05-16T12:12:49.000Z</time></trkpt>
      <trkpt lat="52.631519" lon="-1.131690"><ele>75.4</ele><time>2015-05-16T12:12:53.000Z</time></trkpt>
      <trkpt lat="52.631506" lon="-1.131660"><ele>75.2</ele><time>2015-05-16T12:12:55.000Z</time></trkpt>
      <trkpt lat="52.631482" lon="-1.131598"><ele>74.8</ele><time>2015-05-16T12:12:59.000Z</time></trkpt>
      <trkpt lat="52.631364" lon="-1.131324"><ele>72.8</ele><time>2015-05-16T12:13:15.000Z</time></trkpt>
      <trkpt lat="52.631297" lon="-1.131166"><ele>70.6</ele><time>2015-05-16T12:13:26.000Z</time></trkpt>
      <trkpt lat="52.631270" lon="-1.131076"><ele>69.2</ele><time>2015-05-16T12:13:31.000Z</time></trkpt>
      <trkpt lat="52.631249" lon="-1.131012"><ele>68.2</ele><time>2015-05-16T12:13:35.000Z</time></trkpt>
      <trkpt lat="52.630974" lon="-1.130417"><ele>64.0</ele><time>2015-05-16T12:14:02.000Z</time></trkpt>
      <trkpt lat="52.630694" lon="-1.129820"><ele>58.6</ele><time>2015-05-16T12:14:35.000Z</time></trkpt>
      <trkpt lat="52.630567" lon="-1.129485"><ele>55.6</ele><time>2015-05-16T12:14:54.000Z</time></trkpt>
      <trkpt lat="52.630527" lon="-1.129375"><ele>54.6</ele><time>2015-05-16T12:14:59.000Z</time></trkpt>
      <trkpt lat="52.630478" lon="-1.129264"><ele>53.4</ele><time>2015-05-16T12:15:06.000Z</time></trkpt>
      <trkpt lat="52.630438" lon="-1.129134"><ele>52.8</ele><time>2015-05-16T12:15:12.000Z</time></trkpt>
      <trkpt lat="52.630350" lon="-1.128959"><ele>50.6</ele><time>2015-05-16T12:15:21.000Z</time></trkpt>
      <trkpt lat="52.630191" lon="-1.128800"><ele>50.2</ele><time>2015-05-16T12:15:35.000Z</time></trkpt>
      <trkpt lat="52.630137" lon="-1.128664"><ele>50.0</ele><time>2015-05-16T12:15:42.000Z</time></trkpt>
      <trkpt lat="52.629940" lon="-1.127981"><ele>49.8</ele><time>2015-05-16T12:16:12.000Z</time></trkpt>
      <trkpt lat="52.629883" lon="-1.127762"><ele>49.6</ele><time>2015-05-16T12:16:22.000Z</time></trkpt>
      <trkpt lat="52.629790" lon="-1.127629"><ele>51.0</ele><time>2015-05-16T12:16:33.000Z</time></trkpt>
      <trkpt lat="52.629589" lon="-1.127212"><ele>54.6</ele><time>2015-05-16T12:16:58.000Z</time></trkpt>
      <trkpt lat="52.629496" lon="-1.126961"><ele>56.2</ele><time>2015-05-16T12:17:10.000Z</time></trkpt>
      <trkpt lat="52.629654" lon="-1.126736"><ele>56.4</ele><time>2015-05-16T12:17:27.000Z</time></trkpt>
      <trkpt lat="52.629740" lon="-1.126628"><ele>56.4</ele><time>2015-05-16T12:17:35.000Z</time></trkpt>
      <trkpt lat="52.629813" lon="-1.126511"><ele>57.0</ele><time>2015-05-16T12:17:42.000Z</time></trkpt>
      <trkpt lat="52.630099" lon="-1.126228"><ele>59.4</ele><time>2015-05-16T12:18:05.000Z</time></trkpt>
      <trkpt lat="52.630132" lon="-1.126156"><ele>59.8</ele><time>2015-05-16T12:18:09.000Z</time></trkpt>
      <trkpt lat="52.630147" lon="-1.126120"><ele>59.8</ele><time>2015-05-16T12:18:11.000Z</time></trkpt>
      <trkpt lat="52.630336" lon="-1.126080"><ele>59.8</ele><time>2015-05-16T12:18:24.000Z</time></trkpt>
      <trkpt lat="52.630467" lon="-1.126027"><ele>59.0</ele><time>2015-05-16T12:18:34.000Z</time></trkpt>
      <trkpt lat="52.630690" lon="-1.125948"><ele>60.0</ele><time>2015-05-16T12:18:51.000Z</time></trkpt>
      <trkpt lat="52.630726" lon="-1.125933"><ele>60.2</ele><time>2015-05-16T12:18:54.000Z</time></trkpt>
      <trkpt lat="52.630958" lon="-1.125992"><ele>59.4</ele><time>2015-05-16T12:19:11.000Z</time></trkpt>
      <trkpt lat="52.631384" lon="-1.125940"><ele>73.8</ele><time>2015-05-16T12:19:47.000Z</time></trkpt>
      <trkpt lat="52.631429" lon="-1.125926"><ele>76.0</ele><time>2015-05-16T12:19:51.000Z</time></trkpt>
      <trkpt lat="52.631595" lon="-1.125936"><ele>84.6</ele><time>2015-05-16T12:20:08.000Z</time></trkpt>
      <trkpt lat="52.631631" lon="-1.125938"><ele>85.4</ele><time>2015-05-16T12:20:09.000Z</time></trkpt>
      <trkpt lat="52.631639" lon="-1.125937"><ele>86.8</ele><time>2015-05-16T12:20:12.000Z</time></trkpt>
      <trkpt lat="52.631659" lon="-1.125915"><ele>87.6</ele><time>2015-05-16T12:20:16.000Z</time></trkpt>
      <trkpt lat="52.631719" lon="-1.125890"><ele>89.0</ele><time>2015-05-16T12:20:22.000Z</time></trkpt>
      <trkpt lat="52.631805" lon="-1.125927"><ele>91.4</ele><time>2015-05-16T12:20:26.000Z</time></trkpt>
      <trkpt lat="52.631873" lon="-1.125955"><ele>92.8</ele><time>2015-05-16T12:20:27.000Z</time></trkpt>
      <trkpt lat="52.631957" lon="-1.125957"><ele>96.0</ele><time>2015-05-16T12:20:33.000Z</time></trkpt>
      <trkpt lat="52.631968" lon="-1.125925"><ele>98.8</ele><time>2015-05-16T12:20:37.000Z</time></trkpt>
      <trkpt lat="52.631960" lon="-1.125878"><ele>100.2</ele><time>2015-05-16T12:20:41.000Z</time></trkpt>
      <trkpt lat="52.631954" lon="-1.125864"><ele>101.0</ele><time>2015-05-16T12:20:43.000Z</time></trkpt>
      <trkpt lat="52.631939" lon="-1.125895"><ele>103.8</ele><time>2015-05-16T12:20:46.000Z</time></trkpt>
      <trkpt lat="52.632046" lon="-1.126135"><ele>103.6</ele><time>2015-05-16T12:20:49.000Z</time></trkpt>
      <trkpt lat="52.632122" lon="-1.126278"><ele>102.2</ele><time>2015-05-16T12:20:51.000Z</time></trkpt>
      <trkpt lat="52.632125" lon="-1.126304"><ele>102.4</ele><time>2015-05-16T12:20:53.000Z</time></trkpt>
      <trkpt lat="52.632132" lon="-1.126311"><ele>103.8</ele><time>2015-05-16T12:20:56.000Z</time></trkpt>
      <trkpt lat="52.632146" lon="-1.126268"><ele>104.4</ele><time>2015-05-16T12:21:00.000Z</time></trkpt>
      <trkpt lat="52.632545" lon="-1.125891"><ele>96.8</ele><time>2015-05-16T12:21:25.000Z</time></trkpt>
      <trkpt lat="52.632613" lon="-1.125860"><ele>95.2</ele><time>2015-05-16T12:21:31.000Z</time></trkpt>
      <trkpt lat="52.632635" lon="-1.125855"><ele>94.2</ele><time>2015-05-16T12:21:35.000Z</time></trkpt>
      <trkpt lat="52.632689" lon="-1.125836"><ele>93.8</ele><time>2015-05-16T12:21:41.000Z</time></trkpt>
      <trkpt lat="52.632835" lon="-1.125782"><ele>91.4</ele><time>2015-05-16T12:21:51.000Z</time></trkpt>
      <trkpt lat="52.632991" lon="-1.125785"><ele>90.0</ele><time>2015-05-16T12:22:04.000Z</time></trkpt>
      <trkpt lat="52.633010" lon="-1.125786"><ele>89.4</ele><time>2015-05-16T12:22:06.000Z</time></trkpt>
      <trkpt lat="52.633013" lon="-1.125799"><ele>88.4</ele><time>2015-05-16T12:22:10.000Z</time></trkpt>
      <trkpt lat="52.633021" lon="-1.125820"><ele>88.6</ele><time>2015-05-16T12:22:13.000Z</time></trkpt>
      <trkpt lat="52.633054" lon="-1.125817"><ele>88.2</ele><time>2015-05-16T12:22:16.000Z</time></trkpt>
      <trkpt lat="52.633165" lon="-1.125930"><ele>87.4</ele><time>2015-05-16T12:22:29.000Z</time></trkpt>
      <trkpt lat="52.633234" lon="-1.125904"><ele>87.0</ele><time>2015-05-16T12:22:34.000Z</time></trkpt>
      <trkpt lat="52.633292" lon="-1.125853"><ele>86.2</ele><time>2015-05-16T12:22:38.000Z</time></trkpt>
      <trkpt lat="52.633359" lon="-1.125430"><ele>81.8</ele><time>2015-05-16T12:22:57.000Z</time></trkpt>
      <trkpt lat="52.633390" lon="-1.125324"><ele>80.8</ele><time>2015-05-16T12:23:02.000Z</time></trkpt>
      <trkpt lat="52.633467" lon="-1.125302"><ele>80.0</ele><time>2015-05-16T12:23:05.000Z</time></trkpt>
      <trkpt lat="52.633431" lon="-1.125231"><ele>78.0</ele><time>2015-05-16T12:23:08.000Z</time></trkpt>
      <trkpt lat="52.633273" lon="-1.125000"><ele>71.2</ele><time>2015-05-16T12:23:15.000Z</time></trkpt>
      <trkpt lat="52.633284" lon="-1.124858"><ele>68.2</ele><time>2015-05-16T12:23:21.000Z</time></trkpt>
      <trkpt lat="52.633285" lon="-1.124842"><ele>67.8</ele><time>2015-05-16T12:23:22.000Z</time></trkpt>
      <trkpt lat="52.633315" lon="-1.124746"><ele>66.2</ele><time>2015-05-16T12:23:28.000Z</time></trkpt>
      <trkpt lat="52.633321" lon="-1.124717"><ele>65.6</ele><time>2015-05-16T12:23:31.000Z</time></trkpt>
      <trkpt lat="52.633339" lon="-1.124663"><ele>65.2</ele><time>2015-05-16T12:23:34.000Z</time></trkpt>
      <trkpt lat="52.633370" lon="-1.124515"><ele>64.6</ele><time>2015-05-16T12:23:41.000Z</time></trkpt>
      <trkpt lat="52.633392" lon="-1.124355"><ele>64.2</ele><time>2015-05-16T12:23:48.000Z</time></trkpt>
      <trkpt lat="52.633407" lon="-1.124212"><ele>64.6</ele><time>2015-05-16T12:23:54.000Z</time></trkpt>
      <trkpt lat="52.633423" lon="-1.124114"><ele>65.4</ele><time>2015-05-16T12:23:58.000Z</time></trkpt>
      <trkpt lat="52.633426" lon="-1.123962"><ele>65.2</ele><time>2015-05-16T12:24:05.000Z</time></trkpt>
      <trkpt lat="52.633430" lon="-1.123681"><ele>63.4</ele><time>2015-05-16T12:24:18.000Z</time></trkpt>
      <trkpt lat="52.633463" lon="-1.123485"><ele>63.6</ele><time>2015-05-16T12:24:27.000Z</time></trkpt>
      <trkpt lat="52.633497" lon="-1.123309"><ele>64.2</ele><time>2015-05-16T12:24:36.000Z</time></trkpt>
      <trkpt lat="52.633469" lon="-1.122969"><ele>64.2</ele><time>2015-05-16T12:24:51.000Z</time></trkpt>
      <trkpt lat="52.633509" lon="-1.122785"><ele>64.8</ele><time>2015-05-16T12:25:03.000Z</time></trkpt>
      <trkpt lat="52.633514" lon="-1.122788"><ele>65.2</ele><time>2015-05-16T12:25:06.000Z</time></trkpt>
      <trkpt lat="52.633533" lon="-1.122827"><ele>65.8</ele><time>2015-05-16T12:25:15.000Z</time></trkpt>
      <trkpt lat="52.633523" lon="-1.122903"><ele>66.6</ele><time>2015-05-16T12:25:30.000Z</time></trkpt>
      <trkpt lat="52.633532" lon="-1.122975"><ele>66.6</ele><time>2015-05-16T12:25:34.000Z</time></trkpt>
      <trkpt lat="52.633536" lon="-1.123081"><ele>66.8</ele><time>2015-05-16T12:25:39.000Z</time></trkpt>
      <trkpt lat="52.633535" lon="-1.123163"><ele>66.8</ele><time>2015-05-16T12:25:43.000Z</time></trkpt>
      <trkpt lat="52.633519" lon="-1.123271"><ele>66.8</ele><time>2015-05-16T12:25:48.000Z</time></trkpt>
      <trkpt lat="52.633498" lon="-1.123451"><ele>66.4</ele><time>2015-05-16T12:25:56.000Z</time></trkpt>
      <trkpt lat="52.633493" lon="-1.123973"><ele>63.8</ele><time>2015-05-16T12:26:23.000Z</time></trkpt>
      <trkpt lat="52.633508" lon="-1.124053"><ele>63.8</ele><time>2015-05-16T12:26:27.000Z</time></trkpt>
      <trkpt lat="52.633516" lon="-1.124139"><ele>64.0</ele><time>2015-05-16T12:26:31.000Z</time></trkpt>
      <trkpt lat="52.633493" lon="-1.124217"><ele>64.0</ele><time>2015-05-16T12:26:35.000Z</time></trkpt>
      <trkpt lat="52.633461" lon="-1.124269"><ele>64.0</ele><time>2015-05-16T12:26:39.000Z</time></trkpt>
      <trkpt lat="52.633434" lon="-1.124274"><ele>63.4</ele><time>2015-05-16T12:26:46.000Z</time></trkpt>
      <trkpt lat="52.633423" lon="-1.124284"><ele>63.2</ele><time>2015-05-16T12:26:49.000Z</time></trkpt>
      <trkpt lat="52.633413" lon="-1.124300"><ele>63.4</ele><time>2015-05-16T12:26:51.000Z</time></trkpt>
      <trkpt lat="52.633376" lon="-1.124387"><ele>63.8</ele><time>2015-05-16T12:26:56.000Z</time></trkpt>
      <trkpt lat="52.633310" lon="-1.124460"><ele>64.0</ele><time>2015-05-16T12:27:04.000Z</time></trkpt>
      <trkpt lat="52.633250" lon="-1.124841"><ele>64.0</ele><time>2015-05-16T12:27:21.000Z</time></trkpt>
      <trkpt lat="52.633305" lon="-1.125231"><ele>62.6</ele><time>2015-05-16T12:27:40.000Z</time></trkpt>
      <trkpt lat="52.633307" lon="-1.125287"><ele>62.8</ele><time>2015-05-16T12:27:43.000Z</time></trkpt>
      <trkpt lat="52.633287" lon="-1.125689"><ele>62.0</ele><time>2015-05-16T12:28:02.000Z</time></trkpt>
      <trkpt lat="52.633155" lon="-1.125788"><ele>64.2</ele><time>2015-05-16T12:28:12.000Z</time></trkpt>
      <trkpt lat="52.633104" lon="-1.125834"><ele>64.6</ele><time>2015-05-16T12:28:17.000Z</time></trkpt>
      <trkpt lat="52.633091" lon="-1.126004"><ele>70.2</ele><time>2015-05-16T12:28:31.000Z</time></trkpt>
      <trkpt lat="52.633106" lon="-1.126210"><ele>73.4</ele><time>2015-05-16T12:28:38.000Z</time></trkpt>
      <trkpt lat="52.633098" lon="-1.126213"><ele>74.4</ele><time>2015-05-16T12:28:41.000Z</time></trkpt>
      <trkpt lat="52.633106" lon="-1.126243"><ele>73.8</ele><time>2015-05-16T12:28:47.000Z</time></trkpt>
      <trkpt lat="52.633000" lon="-1.126305"><ele>73.2</ele><time>2015-05-16T12:28:57.000Z</time></trkpt>
      <trkpt lat="52.632784" lon="-1.126254"><ele>72.6</ele><time>2015-05-16T12:29:10.000Z</time></trkpt>
      <trkpt lat="52.632783" lon="-1.126261"><ele>72.2</ele><time>2015-05-16T12:29:14.000Z</time></trkpt>
      <trkpt lat="52.632720" lon="-1.126221"><ele>72.0</ele><time>2015-05-16T12:29:19.000Z</time></trkpt>
      <trkpt lat="52.632589" lon="-1.126170"><ele>70.4</ele><time>2015-05-16T12:29:28.000Z</time></trkpt>
      <trkpt lat="52.632412" lon="-1.126021"><ele>68.8</ele><time>2015-05-16T12:29:40.000Z</time></trkpt>
      <trkpt lat="52.632303" lon="-1.125951"><ele>70.6</ele><time>2015-05-16T12:29:48.000Z</time></trkpt>
      <trkpt lat="52.632295" lon="-1.126022"><ele>72.8</ele><time>2015-05-16T12:29:50.000Z</time></trkpt>
      <trkpt lat="52.632283" lon="-1.126007"><ele>73.0</ele><time>2015-05-16T12:29:52.000Z</time></trkpt>
      <trkpt lat="52.632234" lon="-1.126176"><ele>74.8</ele><time>2015-05-16T12:29:59.000Z</time></trkpt>
      <trkpt lat="52.632241" lon="-1.126366"><ele>76.0</ele><time>2015-05-16T12:30:03.000Z</time></trkpt>
      <trkpt lat="52.632273" lon="-1.126645"><ele>73.8</ele><time>2015-05-16T12:30:09.000Z</time></trkpt>
      <trkpt lat="52.632320" lon="-1.126834"><ele>73.2</ele><time>2015-05-16T12:30:14.000Z</time></trkpt>
      <trkpt lat="52.632370" lon="-1.127072"><ele>72.6</ele><time>2015-05-16T12:30:20.000Z</time></trkpt>
      <trkpt lat="52.632390" lon="-1.127198"><ele>72.6</ele><time>2015-05-16T12:30:25.000Z</time></trkpt>
      <trkpt lat="52.632417" lon="-1.127377"><ele>71.8</ele><time>2015-05-16T12:30:32.000Z</time></trkpt>
      <trkpt lat="52.632428" lon="-1.127449"><ele>71.4</ele><time>2015-05-16T12:30:35.000Z</time></trkpt>
      <trkpt lat="52.632437" lon="-1.127481"><ele>71.2</ele><time>2015-05-16T12:30:37.000Z</time></trkpt>
      <trkpt lat="52.632480" lon="-1.127579"><ele>70.2</ele><time>2015-05-16T12:30:43.000Z</time></trkpt>
      <trkpt lat="52.632525" lon="-1.127704"><ele>69.2</ele><time>2015-05-16T12:30:50.000Z</time></trkpt>
      <trkpt lat="52.632577" lon="-1.127781"><ele>68.2</ele><time>2015-05-16T12:30:56.000Z</time></trkpt>
      <trkpt lat="52.632626" lon="-1.127850"><ele>67.4</ele><time>2015-05-16T12:31:01.000Z</time></trkpt>
      <trkpt lat="52.632696" lon="-1.128005"><ele>66.8</ele><time>2015-05-16T12:31:09.000Z</time></trkpt>
      <trkpt lat="52.632751" lon="-1.128148"><ele>67.0</ele><time>2015-05-16T12:31:18.000Z</time></trkpt>
      <trkpt lat="52.632781" lon="-1.128209"><ele>67.4</ele><time>2015-05-16T12:31:22.000Z</time></trkpt>
      <trkpt lat="52.632800" lon="-1.128257"><ele>67.8</ele><time>2015-05-16T12:31:25.000Z</time></trkpt>
      <trkpt lat="52.632809" lon="-1.128325"><ele>68.6</ele><time>2015-05-16T12:31:28.000Z</time></trkpt>
      <trkpt lat="52.632822" lon="-1.128430"><ele>68.4</ele><time>2015-05-16T12:31:33.000Z</time></trkpt>
      <trkpt lat="52.632839" lon="-1.128498"><ele>68.6</ele><time>2015-05-16T12:31:38.000Z</time></trkpt>
      <trkpt lat="52.632933" lon="-1.128696"><ele>66.4</ele><time>2015-05-16T12:31:51.000Z</time></trkpt>
      <trkpt lat="52.632938" lon="-1.128763"><ele>65.8</ele><time>2015-05-16T12:31:54.000Z</time></trkpt>
      <trkpt lat="52.632978" lon="-1.128951"><ele>63.2</ele><time>2015-05-16T12:32:03.000Z</time></trkpt>
      <trkpt lat="52.633075" lon="-1.129119"><ele>63.0</ele><time>2015-05-16T12:32:13.000Z</time></trkpt>
      <trkpt lat="52.633160" lon="-1.129307"><ele>62.6</ele><time>2015-05-16T12:32:25.000Z</time></trkpt>
      <trkpt lat="52.633194" lon="-1.129404"><ele>62.4</ele><time>2015-05-16T12:32:34.000Z</time></trkpt>
      <trkpt lat="52.633225" lon="-1.129565"><ele>62.0</ele><time>2015-05-16T12:32:41.000Z</time></trkpt>
      <trkpt lat="52.633372" lon="-1.129826"><ele>59.4</ele><time>2015-05-16T12:32:56.000Z</time></trkpt>
      <trkpt lat="52.633469" lon="-1.130018"><ele>59.2</ele><time>2015-05-16T12:33:08.000Z</time></trkpt>
      <trkpt lat="52.633484" lon="-1.130031"><ele>59.8</ele><time>2015-05-16T12:33:10.000Z</time></trkpt>
      <trkpt lat="52.633498" lon="-1.130000"><ele>61.2</ele><time>2015-05-16T12:33:14.000Z</time></trkpt>
      <trkpt lat="52.633512" lon="-1.129992"><ele>63.2</ele><time>2015-05-16T12:33:18.000Z</time></trkpt>
      <trkpt lat="52.633592" lon="-1.130122"><ele>66.4</ele><time>2015-05-16T12:33:27.000Z</time></trkpt>
      <trkpt lat="52.633692" lon="-1.130216"><ele>69.2</ele><time>2015-05-16T12:33:37.000Z</time></trkpt>
      <trkpt lat="52.633698" lon="-1.130229"><ele>69.4</ele><time>2015-05-16T12:33:38.000Z</time></trkpt>
      <trkpt lat="52.633735" lon="-1.130339"><ele>70.0</ele><time>2015-05-16T12:33:45.000Z</time></trkpt>
      <trkpt lat="52.633964" lon="-1.130705"><ele>69.6</ele><time>2015-05-16T12:34:13.000Z</time></trkpt>
      <trkpt lat="52.634244" lon="-1.131290"><ele>68.8</ele><time>2015-05-16T12:34:50.000Z</time></trkpt>
      <trkpt lat="52.634307" lon="-1.131440"><ele>67.4</ele><time>2015-05-16T12:34:59.000Z</time></trkpt>
      <trkpt lat="52.634323" lon="-1.131459"><ele>67.0</ele><time>2015-05-16T12:35:01.000Z</time></trkpt>
      <trkpt lat="52.634362" lon="-1.131454"><ele>66.6</ele><time>2015-05-16T12:35:04.000Z</time></trkpt>
      <trkpt lat="52.634396" lon="-1.131461"><ele>65.6</ele><time>2015-05-16T12:35:07.000Z</time></trkpt>
      <trkpt lat="52.634554" lon="-1.131595"><ele>60.4</ele><time>2015-05-16T12:35:27.000Z</time></trkpt>
      <trkpt lat="52.634708" lon="-1.131895"><ele>59.0</ele><time>2015-05-16T12:35:47.000Z</time></trkpt>
      <trkpt lat="52.634924" lon="-1.132086"><ele>57.0</ele><time>2015-05-16T12:36:08.000Z</time></trkpt>
      <trkpt lat="52.635032" lon="-1.132223"><ele>55.0</ele><time>2015-05-16T12:36:19.000Z</time></trkpt>
      <trkpt lat="52.635313" lon="-1.132329"><ele>52.2</ele><time>2015-05-16T12:36:47.000Z</time></trkpt>
      <trkpt lat="52.635414" lon="-1.132400"><ele>51.8</ele><time>2015-05-16T12:36:59.000Z</time></trkpt>
      <trkpt lat="52.635770" lon="-1.132526"><ele>47.6</ele><time>2015-05-16T12:37:46.000Z</time></trkpt>
      <trkpt lat="52.636037" lon="-1.132552"><ele>49.6</ele><time>2015-05-16T12:38:04.000Z</time></trkpt>
      <trkpt lat="52.636056" lon="-1.132711"><ele>52.2</ele><time>2015-05-16T12:38:09.000Z</time></trkpt>
      <trkpt lat="52.635980" lon="-1.133374"><ele>57.6</ele><time>2015-05-16T12:38:33.000Z</time></trkpt>
      <trkpt lat="52.635954" lon="-1.133387"><ele>56.8</ele><time>2015-05-16T12:38:37.000Z</time></trkpt>
      <trkpt lat="52.635935" lon="-1.133408"><ele>56.0</ele><time>2015-05-16T12:38:41.000Z</time></trkpt>
      <trkpt lat="52.635934" lon="-1.133446"><ele>55.0</ele><time>2015-05-16T12:38:45.000Z</time></trkpt>
      <trkpt lat="52.635944" lon="-1.133543"><ele>53.8</ele><time>2015-05-16T12:38:57.000Z</time></trkpt>
      <trkpt lat="52.636274" lon="-1.134067"><ele>50.2</ele><time>2015-05-16T12:39:34.000Z</time></trkpt>
      <trkpt lat="52.636342" lon="-1.134313"><ele>49.0</ele><time>2015-05-16T12:39:44.000Z</time></trkpt>
      <trkpt lat="52.636389" lon="-1.134445"><ele>48.2</ele><time>2015-05-16T12:39:51.000Z</time></trkpt>
      <trkpt lat="52.637531" lon="-1.137287"><ele>74.6</ele><time>2015-05-16T12:47:29.000Z</time></trkpt>
      <trkpt lat="52.637271" lon="-1.137886"><ele>98.8</ele><time>2015-05-16T12:47:36.000Z</time></trkpt>
      <trkpt lat="52.637235" lon="-1.137905"><ele>85.8</ele><time>2015-05-16T12:47:42.000Z</time></trkpt>
      <trkpt lat="52.637263" lon="-1.137884"><ele>85.6</ele><time>2015-05-16T12:47:53.000Z</time></trkpt>
      <trkpt lat="52.638065" lon="-1.138629"><ele>73.4</ele><time>2015-05-16T12:59:30.000Z</time></trkpt>
      <trkpt lat="52.638023" lon="-1.138553"><ele>71.6</ele><time>2015-05-16T12:59:33.000Z</time></trkpt>
      <trkpt lat="52.638152" lon="-1.138617"><ele>84.2</ele><time>2015-05-16T12:59:39.000Z</time></trkpt>
      <trkpt lat="52.638167" lon="-1.138600"><ele>78.8</ele><time>2015-05-16T13:00:21.000Z</time></trkpt>
      <trkpt lat="52.638151" lon="-1.138504"><ele>79.8</ele><time>2015-05-16T13:00:25.000Z</time></trkpt>
      <trkpt lat="52.638129" lon="-1.138477"><ele>79.8</ele><time>2015-05-16T13:00:28.000Z</time></trkpt>
      <trkpt lat="52.638104" lon="-1.138458"><ele>79.8</ele><time>2015-05-16T13:00:32.000Z</time></trkpt>
      <trkpt lat="52.638086" lon="-1.138472"><ele>80.2</ele><time>2015-05-16T13:00:35.000Z</time></trkpt>
      <trkpt lat="52.638040" lon="-1.138516"><ele>81.0</ele><time>2015-05-16T13:00:42.000Z</time></trkpt>
      <trkpt lat="52.638059" lon="-1.138525"><ele>81.4</ele><time>2015-05-16T13:00:46.000Z</time></trkpt>
      <trkpt lat="52.638060" lon="-1.138541"><ele>81.0</ele><time>2015-05-16T13:00:52.000Z</time></trkpt>
      <trkpt lat="52.638053" lon="-1.138540"><ele>82.2</ele><time>2015-05-16T13:01:08.000Z</time></trkpt>
      <trkpt lat="52.638198" lon="-1.138373"><ele>83.6</ele><time>2015-05-16T13:01:50.000Z</time></trkpt>
      <trkpt lat="52.638238" lon="-1.138457"><ele>83.6</ele><time>2015-05-16T13:01:56.000Z</time></trkpt>
      <trkpt lat="52.638262" lon="-1.138503"><ele>84.0</ele><time>2015-05-16T13:02:02.000Z</time></trkpt>
      <trkpt lat="52.638265" lon="-1.138503"><ele>84.0</ele><time>2015-05-16T13:02:04.000Z</time></trkpt>
      <trkpt lat="52.638278" lon="-1.138493"><ele>84.2</ele><time>2015-05-16T13:02:07.000Z</time></trkpt>
      <trkpt lat="52.638260" lon="-1.138535"><ele>84.2</ele><time>2015-05-16T13:02:11.000Z</time></trkpt>
      <trkpt lat="52.638262" lon="-1.138547"><ele>84.2</ele><time>2015-05-16T13:02:12.000Z</time></trkpt>
    </trkseg>
  </trk>
</gpx>
