<?xml version="1.0" encoding="UTF-8"?>
<gpx version="1.1" creator="walkingwithember" xmlns="http://www.topografix.com/GPX/1/1">
  <metadata>
    <name>Walking the pooch @ Newtown Linford</name>
    <time>2015-04-04T13:29:10.000Z</time>
  </metadata>
  <trk>
    <name>Walking the pooch @ Newtown Linford</name>
    <trkseg>
      <trkpt lat="52.683364" lon="-1.227140"><ele>0.0</ele><time>2015-04-04T13:29:10.000Z</time></trkpt>
      <trkpt lat="52.683411" lon="-1.227154"><ele>110.0</ele><time>2015-04-04T13:30:47.000Z</time></trkpt>
      <trkpt lat="52.683460" lon="-1.227114"><ele>110.0</ele><time>2015-04-04T13:30:52.000Z</time></trkpt>
      <trkpt lat="52.683491" lon="-1.227058"><ele>110.0</ele><time>2015-04-04T13:30:57.000Z</time></trkpt>
      <trkpt lat="52.683538" lon="-1.227062"><ele>110.0</ele><time>2015-04-04T13:31:05.000Z</time></trkpt>
      <trkpt lat="52.683587" lon="-1.227090"><ele>110.0</ele><time>2015-04-04T13:31:10.000Z</time></trkpt>
      <trkpt lat="52.683643" lon="-1.227130"><ele>111.0</ele><time>2015-04-04T13:31:16.000Z</time></trkpt>
      <trkpt lat="52.683685" lon="-1.227180"><ele>111.0</ele><time>2015-04-04T13:31:21.000Z</time></trkpt>
      <trkpt lat="52.683713" lon="-1.227234"><ele>111.0</ele><time>2015-04-04T13:31:25.000Z</time></trkpt>
      <trkpt lat="52.683763" lon="-1.227276"><ele>111.0</ele><time>2015-04-04T13:31:31.000Z</time></trkpt>
      <trkpt lat="52.683812" lon="-1.227314"><ele>111.0</ele><time>2015-04-04T13:31:37.000Z</time></trkpt>
      <trkpt lat="52.683855" lon="-1.227286"><ele>112.0</ele><time>2015-04-04T13:31:45.000Z</time></trkpt>
      <trkpt lat="52.683885" lon="-1.227222"><ele>112.0</ele><time>2015-04-04T13:31:48.000Z</time></trkpt>
      <trkpt lat="52.683921" lon="-1.227154"><ele>112.0</ele><time>2015-04-04T13:31:52.000Z</time></trkpt>
      <trkpt lat="52.683983" lon="-1.227056"><ele>112.0</ele><time>2015-04-04T13:31:58.000Z</time></trkpt>
      <trkpt lat="52.684030" lon="-1.226982"><ele>112.0</ele><time>2015-04-04T13:32:07.000Z</time></trkpt>
      <trkpt lat="52.684082" lon="-1.226919"><ele>112.0</ele><time>2015-04-04T13:32:28.000Z</time></trkpt>
      <trkpt lat="52.684126" lon="-1.226838"><ele>112.0</ele><time>2015-04-04T13:32:34.000Z</time></trkpt>
      <trkpt lat="52.684146" lon="-1.226740"><ele>112.0</ele><time>2015-04-04T13:32:40.000Z</time></trkpt>
      <trkpt lat="52.684184" lon="-1.226669"><ele>112.0</ele><time>2015-04-04T13:32:44.000Z</time></trkpt>
      <trkpt lat="52.684216" lon="-1.226584"><ele>112.0</ele><time>2015-04-04T13:32:49.000Z</time></trkpt>
      <trkpt lat="52.684254" lon="-1.226490"><ele>112.0</ele><time>2015-04-04T13:32:55.000Z</time></trkpt>
      <trkpt lat="52.684291" lon="-1.226394"><ele>112.0</ele><time>2015-04-04T13:33:01.000Z</time></trkpt>
      <trkpt lat="52.684327" lon="-1.226304"><ele>112.0</ele><time>2015-04-04T13:33:06.000Z</time></trkpt>
      <trkpt lat="52.684361" lon="-1.226218"><ele>112.0</ele><time>2015-04-04T13:33:11.000Z</time></trkpt>
      <trkpt lat="52.684395" lon="-1.226144"><ele>112.0</ele><time>2015-04-04T13:33:15.000Z</time></trkpt>
      <trkpt lat="52.684426" lon="-1.226066"><ele>112.0</ele><time>2015-04-04T13:33:19.000Z</time></trkpt>
      <trkpt lat="52.684474" lon="-1.225984"><ele>112.0</ele><time>2015-04-04T13:33:24.000Z</time></trkpt>
      <trkpt lat="52.684509" lon="-1.225900"><ele>112.0</ele><time>2015-04-04T13:33:30.000Z</time></trkpt>
      <trkpt lat="52.684557" lon="-1.225826"><ele>111.0</ele><time>2015-04-04T13:33:45.000Z</time></trkpt>
      <trkpt lat="52.684599" lon="-1.225744"><ele>112.0</ele><time>2015-04-04T13:33:51.000Z</time></trkpt>
      <trkpt lat="52.684620" lon="-1.225633"><ele>112.0</ele><time>2015-04-04T13:34:08.000Z</time></trkpt>
      <trkpt lat="52.684667" lon="-1.225551"><ele>112.0</ele><time>2015-04-04T13:34:20.000Z</time></trkpt>
      <trkpt lat="52.684669" lon="-1.225470"><ele>112.0</ele><time>2015-04-04T13:34:35.000Z</time></trkpt>
      <trkpt lat="52.684656" lon="-1.225391"><ele>111.0</ele><time>2015-04-04T13:35:06.000Z</time></trkpt>
      <trkpt lat="52.684686" lon="-1.225347"><ele>112.0</ele><time>2015-04-04T13:35:48.000Z</time></trkpt>
      <trkpt lat="52.684721" lon="-1.225400"><ele>112.0</ele><time>2015-04-04T13:35:56.000Z</time></trkpt>
      <trkpt lat="52.684773" lon="-1.225461"><ele>113.0</ele><time>2015-04-04T13:36:04.000Z</time></trkpt>
      <trkpt lat="52.684813" lon="-1.225519"><ele>113.0</ele><time>2015-04-04T13:36:10.000Z</time></trkpt>
      <trkpt lat="52.684853" lon="-1.225583"><ele>115.0</ele><time>2015-04-04T13:36:16.000Z</time></trkpt>
      <trkpt lat="52.684889" lon="-1.225657"><ele>115.5</ele><time>2015-04-04T13:36:21.000Z</time></trkpt>
      <trkpt lat="52.684941" lon="-1.225700"><ele>118.6</ele><time>2015-04-04T13:36:31.000Z</time></trkpt>
      <trkpt lat="52.685001" lon="-1.225764"><ele>122.0</ele><time>2015-04-04T13:36:38.000Z</time></trkpt>
      <trkpt lat="52.685050" lon="-1.225836"><ele>124.0</ele><time>2015-04-04T13:36:45.000Z</time></trkpt>
      <trkpt lat="52.685103" lon="-1.225885"><ele>124.5</ele><time>2015-04-04T13:36:51.000Z</time></trkpt>
      <trkpt lat="52.685130" lon="-1.225950"><ele>125.0</ele><time>2015-04-04T13:36:59.000Z</time></trkpt>
      <trkpt lat="52.685164" lon="-1.226025"><ele>127.0</ele><time>2015-04-04T13:37:05.000Z</time></trkpt>
      <trkpt lat="52.685209" lon="-1.226082"><ele>127.5</ele><time>2015-04-04T13:37:11.000Z</time></trkpt>
      <trkpt lat="52.685257" lon="-1.226146"><ele>128.0</ele><time>2015-04-04T13:37:19.000Z</time></trkpt>
      <trkpt lat="52.685307" lon="-1.226201"><ele>134.0</ele><time>2015-04-04T13:37:27.000Z</time></trkpt>
      <trkpt lat="52.685349" lon="-1.226240"><ele>135.0</ele><time>2015-04-04T13:37:36.000Z</time></trkpt>
      <trkpt lat="52.685398" lon="-1.226195"><ele>136.0</ele><time>2015-04-04T13:38:02.000Z</time></trkpt>
      <trkpt lat="52.685435" lon="-1.226142"><ele>136.0</ele><time>2015-04-04T13:38:07.000Z</time></trkpt>
      <trkpt lat="52.685478" lon="-1.226027"><ele>137.0</ele><time>2015-04-04T13:38:15.000Z</time></trkpt>
      <trkpt lat="52.685493" lon="-1.225910"><ele>138.0</ele><time>2015-04-04T13:38:22.000Z</time></trkpt>
      <trkpt lat="52.685495" lon="-1.225832"><ele>138.0</ele><time>2015-04-04T13:38:26.000Z</time></trkpt>
      <trkpt lat="52.685506" lon="-1.225719"><ele>138.0</ele><time>2015-04-04T13:38:32.000Z</time></trkpt>
      <trkpt lat="52.685517" lon="-1.225593"><ele>138.0</ele><time>2015-04-04T13:38:42.000Z</time></trkpt>
      <trkpt lat="52.685519" lon="-1.225515"><ele>138.0</ele><time>2015-04-04T13:38:47.000Z</time></trkpt>
      <trkpt lat="52.685505" lon="-1.225448"><ele>138.0</ele><time>2015-04-04T13:38:52.000Z</time></trkpt>
      <trkpt lat="52.685509" lon="-1.225388"><ele>138.0</ele><time>2015-04-04T13:38:56.000Z</time></trkpt>
      <trkpt lat="52.685521" lon="-1.225319"><ele>138.0</ele><time>2015-04-04T13:39:00.000Z</time></trkpt>
      <trkpt lat="52.685537" lon="-1.225255"><ele>137.0</ele><time>2015-04-04T13:39:04.000Z</time></trkpt>
      <trkpt lat="52.685539" lon="-1.225173"><ele>137.0</ele><time>2015-04-04T13:39:09.000Z</time></trkpt>
      <trkpt lat="52.685497" lon="-1.225158"><ele>138.0</ele><time>2015-04-04T13:39:21.000Z</time></trkpt>
      <trkpt lat="52.685556" lon="-1.225133"><ele>138.0</ele><time>2015-04-04T13:39:42.000Z</time></trkpt>
      <trkpt lat="52.685591" lon="-1.225054"><ele>137.0</ele><time>2015-04-04T13:39:59.000Z</time></trkpt>
      <trkpt lat="52.685612" lon="-1.224949"><ele>137.0</ele><time>2015-04-04T13:40:13.000Z</time></trkpt>
      <trkpt lat="52.685654" lon="-1.224795"><ele>137.0</ele><time>2015-04-04T13:40:22.000Z</time></trkpt>
      <trkpt lat="52.685652" lon="-1.224675"><ele>137.0</ele><time>2015-04-04T13:40:29.000Z</time></trkpt>
      <trkpt lat="52.685620" lon="-1.224772"><ele>137.0</ele><time>2015-04-04T13:40:44.000Z</time></trkpt>
      <trkpt lat="52.685655" lon="-1.224672"><ele>137.0</ele><time>2015-04-04T13:40:55.000Z</time></trkpt>
      <trkpt lat="52.685680" lon="-1.224575"><ele>137.0</ele><time>2015-04-04T13:41:01.000Z</time></trkpt>
      <trkpt lat="52.685669" lon="-1.224487"><ele>137.0</ele><time>2015-04-04T13:41:17.000Z</time></trkpt>
      <trkpt lat="52.685705" lon="-1.224392"><ele>136.0</ele><time>2015-04-04T13:42:48.000Z</time></trkpt>
      <trkpt lat="52.685733" lon="-1.224300"><ele>136.0</ele><time>2015-04-04T13:42:54.000Z</time></trkpt>
      <trkpt lat="52.685772" lon="-1.224199"><ele>136.0</ele><time>2015-04-04T13:43:01.000Z</time></trkpt>
      <trkpt lat="52.685793" lon="-1.224087"><ele>136.0</ele><time>2015-04-04T13:43:08.000Z</time></trkpt>
      <trkpt lat="52.685812" lon="-1.223992"><ele>135.0</ele><time>2015-04-04T13:43:14.000Z</time></trkpt>
      <trkpt lat="52.685827" lon="-1.223882"><ele>135.0</ele><time>2015-04-04T13:43:20.000Z</time></trkpt>
      <trkpt lat="52.685830" lon="-1.223748"><ele>134.0</ele><time>2015-04-04T13:43:27.000Z</time></trkpt>
      <trkpt lat="52.685835" lon="-1.223614"><ele>134.0</ele><time>2015-04-04T13:43:34.000Z</time></trkpt>
      <trkpt lat="52.685811" lon="-1.223507"><ele>134.0</ele><time>2015-04-04T13:43:40.000Z</time></trkpt>
      <trkpt lat="52.685795" lon="-1.223410"><ele>133.0</ele><time>2015-04-04T13:43:47.000Z</time></trkpt>
      <trkpt lat="52.685764" lon="-1.223289"><ele>133.0</ele><time>2015-04-04T13:43:56.000Z</time></trkpt>
      <trkpt lat="52.685763" lon="-1.223174"><ele>134.0</ele><time>2015-04-04T13:44:07.000Z</time></trkpt>
      <trkpt lat="52.685797" lon="-1.223110"><ele>134.0</ele><time>2015-04-04T13:44:21.000Z</time></trkpt>
      <trkpt lat="52.685842" lon="-1.223052"><ele>134.0</ele><time>2015-04-04T13:44:27.000Z</time></trkpt>
      <trkpt lat="52.685846" lon="-1.222918"><ele>132.0</ele><time>2015-04-04T13:44:40.000Z</time></trkpt>
      <trkpt lat="52.685858" lon="-1.222789"><ele>132.0</ele><time>2015-04-04T13:45:04.000Z</time></trkpt>
      <trkpt lat="52.685843" lon="-1.222672"><ele>132.0</ele><time>2015-04-04T13:45:11.000Z</time></trkpt>
      <trkpt lat="52.685876" lon="-1.222572"><ele>132.0</ele><time>2015-04-04T13:45:20.000Z</time></trkpt>
      <trkpt lat="52.685908" lon="-1.222462"><ele>130.0</ele><time>2015-04-04T13:45:30.000Z</time></trkpt>
      <trkpt lat="52.685938" lon="-1.222362"><ele>129.0</ele><time>2015-04-04T13:45:36.000Z</time></trkpt>
      <trkpt lat="52.686000" lon="-1.222298"><ele>128.0</ele><time>2015-04-04T13:45:42.000Z</time></trkpt>
      <trkpt lat="52.685998" lon="-1.222189"><ele>128.0</ele><time>2015-04-04T13:45:50.000Z</time></trkpt>
      <trkpt lat="52.685999" lon="-1.222096"><ele>126.0</ele><time>2015-04-04T13:45:59.000Z</time></trkpt>
      <trkpt lat="52.686018" lon="-1.222006"><ele>124.0</ele><time>2015-04-04T13:46:05.000Z</time></trkpt>
      <trkpt lat="52.686054" lon="-1.221926"><ele>123.0</ele><time>2015-04-04T13:46:15.000Z</time></trkpt>
      <trkpt lat="52.686084" lon="-1.221852"><ele>123.0</ele><time>2015-04-04T13:46:20.000Z</time></trkpt>
      <trkpt lat="52.686095" lon="-1.221716"><ele>122.0</ele><time>2015-04-04T13:46:26.000Z</time></trkpt>
      <trkpt lat="52.686078" lon="-1.221600"><ele>120.8</ele><time>2015-04-04T13:46:31.000Z</time></trkpt>
      <trkpt lat="52.686072" lon="-1.221490"><ele>120.0</ele><time>2015-04-04T13:46:37.000Z</time></trkpt>
      <trkpt lat="52.686069" lon="-1.221408"><ele>118.0</ele><time>2015-04-04T13:46:42.000Z</time></trkpt>
      <trkpt lat="52.686071" lon="-1.221322"><ele>118.0</ele><time>2015-04-04T13:46:47.000Z</time></trkpt>
      <trkpt lat="52.686069" lon="-1.221228"><ele>117.0</ele><time>2015-04-04T13:46:52.000Z</time></trkpt>
      <trkpt lat="52.686064" lon="-1.221092"><ele>117.0</ele><time>2015-04-04T13:46:59.000Z</time></trkpt>
      <trkpt lat="52.686047" lon="-1.220975"><ele>112.0</ele><time>2015-04-04T13:47:06.000Z</time></trkpt>
      <trkpt lat="52.686044" lon="-1.220878"><ele>112.0</ele><time>2015-04-04T13:47:12.000Z</time></trkpt>
      <trkpt lat="52.686041" lon="-1.220780"><ele>112.0</ele><time>2015-04-04T13:47:18.000Z</time></trkpt>
      <trkpt lat="52.686047" lon="-1.220679"><ele>111.0</ele><time>2015-04-04T13:47:24.000Z</time></trkpt>
      <trkpt lat="52.686057" lon="-1.220600"><ele>111.0</ele><time>2015-04-04T13:47:29.000Z</time></trkpt>
      <trkpt lat="52.686072" lon="-1.220516"><ele>111.0</ele><time>2015-04-04T13:47:34.000Z</time></trkpt>
      <trkpt lat="52.686092" lon="-1.220435"><ele>111.0</ele><time>2015-04-04T13:47:38.000Z</time></trkpt>
      <trkpt lat="52.686107" lon="-1.220345"><ele>110.0</ele><time>2015-04-04T13:47:48.000Z</time></trkpt>
      <trkpt lat="52.686038" lon="-1.220263"><ele>107.0</ele><time>2015-04-04T13:48:04.000Z</time></trkpt>
      <trkpt lat="52.685958" lon="-1.220277"><ele>106.0</ele><time>2015-04-04T13:48:15.000Z</time></trkpt>
      <trkpt lat="52.685892" lon="-1.220250"><ele>104.8</ele><time>2015-04-04T13:48:21.000Z</time></trkpt>
      <trkpt lat="52.685843" lon="-1.220234"><ele>104.0</ele><time>2015-04-04T13:48:32.000Z</time></trkpt>
      <trkpt lat="52.685831" lon="-1.220117"><ele>104.0</ele><time>2015-04-04T13:48:55.000Z</time></trkpt>
      <trkpt lat="52.685792" lon="-1.220045"><ele>103.0</ele><time>2015-04-04T13:49:04.000Z</time></trkpt>
      <trkpt lat="52.685790" lon="-1.219950"><ele>103.0</ele><time>2015-04-04T13:49:09.000Z</time></trkpt>
      <trkpt lat="52.685797" lon="-1.219866"><ele>103.0</ele><time>2015-04-04T13:49:14.000Z</time></trkpt>
      <trkpt lat="52.685793" lon="-1.219742"><ele>104.0</ele><time>2015-04-04T13:49:23.000Z</time></trkpt>
      <trkpt lat="52.685797" lon="-1.219643"><ele>104.0</ele><time>2015-04-04T13:49:29.000Z</time></trkpt>
      <trkpt lat="52.685799" lon="-1.219540"><ele>103.0</ele><time>2015-04-04T13:49:35.000Z</time></trkpt>
      <trkpt lat="52.685807" lon="-1.219458"><ele>103.0</ele><time>2015-04-04T13:49:40.000Z</time></trkpt>
      <trkpt lat="52.685748" lon="-1.219443"><ele>102.0</ele><time>2015-04-04T13:50:04.000Z</time></trkpt>
      <trkpt lat="52.685689" lon="-1.219418"><ele>102.0</ele><time>2015-04-04T13:50:11.000Z</time></trkpt>
      <trkpt lat="52.685677" lon="-1.219312"><ele>102.0</ele><time>2015-04-04T13:50:54.000Z</time></trkpt>
      <trkpt lat="52.685611" lon="-1.219269"><ele>102.0</ele><time>2015-04-04T13:51:10.000Z</time></trkpt>
      <trkpt lat="52.685575" lon="-1.219137"><ele>101.0</ele><time>2015-04-04T13:51:36.000Z</time></trkpt>
      <trkpt lat="52.685591" lon="-1.219022"><ele>101.0</ele><time>2015-04-04T13:52:40.000Z</time></trkpt>
      <trkpt lat="52.685543" lon="-1.218942"><ele>102.0</ele><time>2015-04-04T13:52:48.000Z</time></trkpt>
      <trkpt lat="52.685512" lon="-1.218825"><ele>100.0</ele><time>2015-04-04T13:53:39.000Z</time></trkpt>
      <trkpt lat="52.685503" lon="-1.218714"><ele>100.0</ele><time>2015-04-04T13:53:55.000Z</time></trkpt>
      <trkpt lat="52.685494" lon="-1.218850"><ele>100.0</ele><time>2015-04-04T13:54:23.000Z</time></trkpt>
      <trkpt lat="52.685554" lon="-1.218820"><ele>100.0</ele><time>2015-04-04T13:54:43.000Z</time></trkpt>
      <trkpt lat="52.685588" lon="-1.218710"><ele>100.0</ele><time>2015-04-04T13:54:58.000Z</time></trkpt>
      <trkpt lat="52.685529" lon="-1.218723"><ele>100.0</ele><time>2015-04-04T13:55:26.000Z</time></trkpt>
      <trkpt lat="52.685477" lon="-1.218609"><ele>101.0</ele><time>2015-04-04T13:55:44.000Z</time></trkpt>
      <trkpt lat="52.685495" lon="-1.218497"><ele>100.0</ele><time>2015-04-04T13:57:35.000Z</time></trkpt>
      <trkpt lat="52.685497" lon="-1.218377"><ele>100.0</ele><time>2015-04-04T13:57:43.000Z</time></trkpt>
      <trkpt lat="52.685500" lon="-1.218288"><ele>100.0</ele><time>2015-04-04T13:57:54.000Z</time></trkpt>
      <trkpt lat="52.685538" lon="-1.218228"><ele>100.0</ele><time>2015-04-04T13:58:01.000Z</time></trkpt>
      <trkpt lat="52.685575" lon="-1.218161"><ele>100.0</ele><time>2015-04-04T13:58:07.000Z</time></trkpt>
      <trkpt lat="52.685615" lon="-1.218097"><ele>100.0</ele><time>2015-04-04T13:58:13.000Z</time></trkpt>
      <trkpt lat="52.685663" lon="-1.218051"><ele>100.0</ele><time>2015-04-04T13:58:20.000Z</time></trkpt>
      <trkpt lat="52.685716" lon="-1.218001"><ele>100.0</ele><time>2015-04-04T13:58:47.000Z</time></trkpt>
      <trkpt lat="52.685775" lon="-1.218006"><ele>99.0</ele><time>2015-04-04T13:59:10.000Z</time></trkpt>
      <trkpt lat="52.685832" lon="-1.217986"><ele>99.0</ele><time>2015-04-04T13:59:17.000Z</time></trkpt>
      <trkpt lat="52.685885" lon="-1.217889"><ele>99.0</ele><time>2015-04-04T13:59:25.000Z</time></trkpt>
      <trkpt lat="52.685895" lon="-1.217748"><ele>100.0</ele><time>2015-04-04T13:59:33.000Z</time></trkpt>
      <trkpt lat="52.685881" lon="-1.217670"><ele>100.0</ele><time>2015-04-04T13:59:38.000Z</time></trkpt>
      <trkpt lat="52.685876" lon="-1.217557"><ele>100.0</ele><time>2015-04-04T13:59:48.000Z</time></trkpt>
      <trkpt lat="52.685863" lon="-1.217474"><ele>100.0</ele><time>2015-04-04T13:59:53.000Z</time></trkpt>
      <trkpt lat="52.685857" lon="-1.217390"><ele>100.0</ele><time>2015-04-04T13:59:58.000Z</time></trkpt>
      <trkpt lat="52.685857" lon="-1.217320"><ele>100.0</ele><time>2015-04-04T14:00:05.000Z</time></trkpt>
      <trkpt lat="52.685845" lon="-1.217241"><ele>100.0</ele><time>2015-04-04T14:00:10.000Z</time></trkpt>
      <trkpt lat="52.685847" lon="-1.217112"><ele>100.0</ele><time>2015-04-04T14:00:18.000Z</time></trkpt>
      <trkpt lat="52.685839" lon="-1.217000"><ele>100.0</ele><time>2015-04-04T14:00:25.000Z</time></trkpt>
      <trkpt lat="52.685821" lon="-1.216893"><ele>99.0</ele><time>2015-04-04T14:00:32.000Z</time></trkpt>
      <trkpt lat="52.685813" lon="-1.216833"><ele>99.0</ele><time>2015-04-04T14:00:36.000Z</time></trkpt>
      <trkpt lat="52.685805" lon="-1.216767"><ele>99.0</ele><time>2015-04-04T14:00:40.000Z</time></trkpt>
      <trkpt lat="52.685794" lon="-1.216696"><ele>99.0</ele><time>2015-04-04T14:00:44.000Z</time></trkpt>
      <trkpt lat="52.685783" lon="-1.216599"><ele>99.0</ele><time>2015-04-04T14:00:49.000Z</time></trkpt>
      <trkpt lat="52.685770" lon="-1.216518"><ele>100.0</ele><time>2015-04-04T14:00:54.000Z</time></trkpt>
      <trkpt lat="52.685760" lon="-1.216459"><ele>100.0</ele><time>2015-04-04T14:00:58.000Z</time></trkpt>
      <trkpt lat="52.685739" lon="-1.216394"><ele>98.0</ele><time>2015-04-04T14:01:07.000Z</time></trkpt>
      <trkpt lat="52.685733" lon="-1.216330"><ele>98.5</ele><time>2015-04-04T14:01:11.000Z</time></trkpt>
      <trkpt lat="52.685727" lon="-1.216263"><ele>99.0</ele><time>2015-04-04T14:01:15.000Z</time></trkpt>
      <trkpt lat="52.685719" lon="-1.216193"><ele>99.0</ele><time>2015-04-04T14:01:21.000Z</time></trkpt>
      <trkpt lat="52.685711" lon="-1.216126"><ele>99.0</ele><time>2015-04-04T14:01:26.000Z</time></trkpt>
      <trkpt lat="52.685704" lon="-1.216058"><ele>99.0</ele><time>2015-04-04T14:01:30.000Z</time></trkpt>
      <trkpt lat="52.685700" lon="-1.215989"><ele>99.0</ele><time>2015-04-04T14:01:34.000Z</time></trkpt>
      <trkpt lat="52.685692" lon="-1.215928"><ele>99.0</ele><time>2015-04-04T14:01:38.000Z</time></trkpt>
      <trkpt lat="52.685687" lon="-1.215863"><ele>99.0</ele><time>2015-04-04T14:01:42.000Z</time></trkpt>
      <trkpt lat="52.685682" lon="-1.215796"><ele>99.0</ele><time>2015-04-04T14:01:46.000Z</time></trkpt>
      <trkpt lat="52.685670" lon="-1.215738"><ele>99.0</ele><time>2015-04-04T14:01:50.000Z</time></trkpt>
      <trkpt lat="52.685665" lon="-1.215690"><ele>98.5</ele><time>2015-04-04T14:01:53.000Z</time></trkpt>
      <trkpt lat="52.685657" lon="-1.215629"><ele>98.0</ele><time>2015-04-04T14:01:57.000Z</time></trkpt>
      <trkpt lat="52.685651" lon="-1.215566"><ele>98.0</ele><time>2015-04-04T14:02:00.000Z</time></trkpt>
      <trkpt lat="52.685643" lon="-1.215504"><ele>98.0</ele><time>2015-04-04T14:02:05.000Z</time></trkpt>
      <trkpt lat="52.685635" lon="-1.215435"><ele>98.0</ele><time>2015-04-04T14:02:10.000Z</time></trkpt>
      <trkpt lat="52.685630" lon="-1.215374"><ele>98.0</ele><time>2015-04-04T14:02:14.000Z</time></trkpt>
      <trkpt lat="52.685626" lon="-1.215310"><ele>98.0</ele><time>2015-04-04T14:02:18.000Z</time></trkpt>
      <trkpt lat="52.685618" lon="-1.215250"><ele>98.0</ele><time>2015-04-04T14:02:22.000Z</time></trkpt>
      <trkpt lat="52.685612" lon="-1.215186"><ele>98.0</ele><time>2015-04-04T14:02:26.000Z</time></trkpt>
      <trkpt lat="52.685599" lon="-1.215103"><ele>98.0</ele><time>2015-04-04T14:02:31.000Z</time></trkpt>
      <trkpt lat="52.685589" lon="-1.215022"><ele>98.0</ele><time>2015-04-04T14:02:36.000Z</time></trkpt>
      <trkpt lat="52.685578" lon="-1.214954"><ele>98.0</ele><time>2015-04-04T14:02:40.000Z</time></trkpt>
      <trkpt lat="52.685564" lon="-1.214837"><ele>98.0</ele><time>2015-04-04T14:02:47.000Z</time></trkpt>
      <trkpt lat="52.685558" lon="-1.214777"><ele>98.0</ele><time>2015-04-04T14:02:53.000Z</time></trkpt>
      <trkpt lat="52.685551" lon="-1.214719"><ele>98.0</ele><time>2015-04-04T14:02:58.000Z</time></trkpt>
      <trkpt lat="52.685547" lon="-1.214617"><ele>98.0</ele><time>2015-04-04T14:03:04.000Z</time></trkpt>
      <trkpt lat="52.685528" lon="-1.214507"><ele>98.0</ele><time>2015-04-04T14:03:12.000Z</time></trkpt>
      <trkpt lat="52.685519" lon="-1.214429"><ele>98.0</ele><time>2015-04-04T14:03:17.000Z</time></trkpt>
      <trkpt lat="52.685510" lon="-1.214352"><ele>98.0</ele><time>2015-04-04T14:03:22.000Z</time></trkpt>
      <trkpt lat="52.685494" lon="-1.214274"><ele>98.0</ele><time>2015-04-04T14:03:27.000Z</time></trkpt>
      <trkpt lat="52.685491" lon="-1.214198"><ele>98.0</ele><time>2015-04-04T14:03:32.000Z</time></trkpt>
      <trkpt lat="52.685480" lon="-1.214116"><ele>97.0</ele><time>2015-04-04T14:03:37.000Z</time></trkpt>
      <trkpt lat="52.685474" lon="-1.214048"><ele>97.0</ele><time>2015-04-04T14:03:41.000Z</time></trkpt>
      <trkpt lat="52.685470" lon="-1.213980"><ele>97.0</ele><time>2015-04-04T14:03:45.000Z</time></trkpt>
      <trkpt lat="52.685465" lon="-1.213921"><ele>97.0</ele><time>2015-04-04T14:03:49.000Z</time></trkpt>
      <trkpt lat="52.685460" lon="-1.213860"><ele>97.0</ele><time>2015-04-04T14:03:53.000Z</time></trkpt>
      <trkpt lat="52.685459" lon="-1.213782"><ele>97.0</ele><time>2015-04-04T14:03:58.000Z</time></trkpt>
      <trkpt lat="52.685461" lon="-1.213718"><ele>97.0</ele><time>2015-04-04T14:04:02.000Z</time></trkpt>
      <trkpt lat="52.685466" lon="-1.213638"><ele>97.0</ele><time>2015-04-04T14:04:07.000Z</time></trkpt>
      <trkpt lat="52.685464" lon="-1.213571"><ele>97.0</ele><time>2015-04-04T14:04:11.000Z</time></trkpt>
      <trkpt lat="52.685474" lon="-1.213489"><ele>97.0</ele><time>2015-04-04T14:04:16.000Z</time></trkpt>
      <trkpt lat="52.685488" lon="-1.213387"><ele>97.0</ele><time>2015-04-04T14:04:22.000Z</time></trkpt>
      <trkpt lat="52.685502" lon="-1.213306"><ele>97.0</ele><time>2015-04-04T14:04:27.000Z</time></trkpt>
      <trkpt lat="52.685522" lon="-1.213232"><ele>97.0</ele><time>2015-04-04T14:04:32.000Z</time></trkpt>
      <trkpt lat="52.685543" lon="-1.213158"><ele>97.0</ele><time>2015-04-04T14:04:37.000Z</time></trkpt>
      <trkpt lat="52.685556" lon="-1.213106"><ele>97.0</ele><time>2015-04-04T14:04:41.000Z</time></trkpt>
      <trkpt lat="52.685566" lon="-1.213023"><ele>97.0</ele><time>2015-04-04T14:04:46.000Z</time></trkpt>
      <trkpt lat="52.685580" lon="-1.212964"><ele>97.0</ele><time>2015-04-04T14:04:50.000Z</time></trkpt>
      <trkpt lat="52.685600" lon="-1.212910"><ele>97.0</ele><time>2015-04-04T14:04:54.000Z</time></trkpt>
      <trkpt lat="52.685616" lon="-1.212849"><ele>97.0</ele><time>2015-04-04T14:04:58.000Z</time></trkpt>
      <trkpt lat="52.685633" lon="-1.212786"><ele>97.0</ele><time>2015-04-04T14:05:02.000Z</time></trkpt>
      <trkpt lat="52.685658" lon="-1.212715"><ele>97.0</ele><time>2015-04-04T14:05:07.000Z</time></trkpt>
      <trkpt lat="52.685674" lon="-1.212646"><ele>97.0</ele><time>2015-04-04T14:05:12.000Z</time></trkpt>
      <trkpt lat="52.685706" lon="-1.212570"><ele>97.0</ele><time>2015-04-04T14:05:18.000Z</time></trkpt>
      <trkpt lat="52.685728" lon="-1.212501"><ele>97.0</ele><time>2015-04-04T14:05:23.000Z</time></trkpt>
      <trkpt lat="52.685748" lon="-1.212426"><ele>97.0</ele><time>2015-04-04T14:05:28.000Z</time></trkpt>
      <trkpt lat="52.685766" lon="-1.212360"><ele>97.0</ele><time>2015-04-04T14:05:33.000Z</time></trkpt>
      <trkpt lat="52.685783" lon="-1.212293"><ele>97.0</ele><time>2015-04-04T14:05:38.000Z</time></trkpt>
      <trkpt lat="52.685796" lon="-1.212237"><ele>96.0</ele><time>2015-04-04T14:05:42.000Z</time></trkpt>
      <trkpt lat="52.685810" lon="-1.212167"><ele>96.0</ele><time>2015-04-04T14:05:47.000Z</time></trkpt>
      <trkpt lat="52.685835" lon="-1.212102"><ele>96.0</ele><time>2015-04-04T14:05:52.000Z</time></trkpt>
      <trkpt lat="52.685852" lon="-1.212036"><ele>96.0</ele><time>2015-04-04T14:05:57.000Z</time></trkpt>
      <trkpt lat="52.685863" lon="-1.211951"><ele>96.0</ele><time>2015-04-04T14:06:04.000Z</time></trkpt>
      <trkpt lat="52.685875" lon="-1.211890"><ele>96.0</ele><time>2015-04-04T14:06:09.000Z</time></trkpt>
      <trkpt lat="52.685886" lon="-1.211837"><ele>96.0</ele><time>2015-04-04T14:06:12.000Z</time></trkpt>
      <trkpt lat="52.685895" lon="-1.211789"><ele>96.0</ele><time>2015-04-04T14:06:15.000Z</time></trkpt>
      <trkpt lat="52.685908" lon="-1.211734"><ele>96.0</ele><time>2015-04-04T14:06:18.000Z</time></trkpt>
      <trkpt lat="52.685917" lon="-1.211683"><ele>96.0</ele><time>2015-04-04T14:06:21.000Z</time></trkpt>
      <trkpt lat="52.685922" lon="-1.211632"><ele>96.0</ele><time>2015-04-04T14:06:24.000Z</time></trkpt>
      <trkpt lat="52.685921" lon="-1.211562"><ele>96.0</ele><time>2015-04-04T14:06:28.000Z</time></trkpt>
      <trkpt lat="52.685926" lon="-1.211493"><ele>96.0</ele><time>2015-04-04T14:06:34.000Z</time></trkpt>
      <trkpt lat="52.685926" lon="-1.211415"><ele>96.0</ele><time>2015-04-04T14:06:45.000Z</time></trkpt>
      <trkpt lat="52.685895" lon="-1.211334"><ele>96.0</ele><time>2015-04-04T14:06:55.000Z</time></trkpt>
      <trkpt lat="52.685857" lon="-1.211300"><ele>96.0</ele><time>2015-04-04T14:06:59.000Z</time></trkpt>
      <trkpt lat="52.685808" lon="-1.211295"><ele>96.0</ele><time>2015-04-04T14:07:04.000Z</time></trkpt>
      <trkpt lat="52.685773" lon="-1.211335"><ele>96.0</ele><time>2015-04-04T14:07:07.000Z</time></trkpt>
      <trkpt lat="52.685802" lon="-1.211298"><ele>95.0</ele><time>2015-04-04T14:07:21.000Z</time></trkpt>
      <trkpt lat="52.685809" lon="-1.211260"><ele>95.0</ele><time>2015-04-04T14:07:23.000Z</time></trkpt>
      <trkpt lat="52.685817" lon="-1.211234"><ele>95.0</ele><time>2015-04-04T14:07:25.000Z</time></trkpt>
      <trkpt lat="52.685787" lon="-1.211326"><ele>95.0</ele><time>2015-04-04T14:07:49.000Z</time></trkpt>
      <trkpt lat="52.685757" lon="-1.211367"><ele>95.0</ele><time>2015-04-04T14:08:26.000Z</time></trkpt>
      <trkpt lat="52.685755" lon="-1.211399"><ele>95.0</ele><time>2015-04-04T14:08:29.000Z</time></trkpt>
      <trkpt lat="52.685736" lon="-1.211412"><ele>94.4</ele><time>2015-04-04T14:09:01.000Z</time></trkpt>
      <trkpt lat="52.685757" lon="-1.211387"><ele>94.0</ele><time>2015-04-04T14:09:11.000Z</time></trkpt>
      <trkpt lat="52.685771" lon="-1.211358"><ele>94.0</ele><time>2015-04-04T14:09:21.000Z</time></trkpt>
      <trkpt lat="52.685752" lon="-1.211376"><ele>94.0</ele><time>2015-04-04T14:09:48.000Z</time></trkpt>
      <trkpt lat="52.685771" lon="-1.211388"><ele>94.0</ele><time>2015-04-04T14:10:07.000Z</time></trkpt>
      <trkpt lat="52.685756" lon="-1.211464"><ele>94.0</ele><time>2015-04-04T14:10:59.000Z</time></trkpt>
      <trkpt lat="52.685758" lon="-1.211421"><ele>94.0</ele><time>2015-04-04T14:11:03.000Z</time></trkpt>
      <trkpt lat="52.685760" lon="-1.211360"><ele>94.0</ele><time>2015-04-04T14:11:07.000Z</time></trkpt>
      <trkpt lat="52.685812" lon="-1.211295"><ele>94.0</ele><time>2015-04-04T14:11:38.000Z</time></trkpt>
      <trkpt lat="52.685763" lon="-1.211367"><ele>94.0</ele><time>2015-04-04T14:11:59.000Z</time></trkpt>
      <trkpt lat="52.685725" lon="-1.211484"><ele>94.0</ele><time>2015-04-04T14:12:14.000Z</time></trkpt>
      <trkpt lat="52.685746" lon="-1.211438"><ele>94.0</ele><time>2015-04-04T14:12:19.000Z</time></trkpt>
      <trkpt lat="52.685738" lon="-1.211385"><ele>94.0</ele><time>2015-04-04T14:12:25.000Z</time></trkpt>
      <trkpt lat="52.685806" lon="-1.211332"><ele>94.0</ele><time>2015-04-04T14:12:55.000Z</time></trkpt>
      <trkpt lat="52.685801" lon="-1.211294"><ele>94.0</ele><time>2015-04-04T14:13:12.000Z</time></trkpt>
      <trkpt lat="52.685763" lon="-1.211270"><ele>94.0</ele><time>2015-04-04T14:13:16.000Z</time></trkpt>
      <trkpt lat="52.685727" lon="-1.211254"><ele>94.0</ele><time>2015-04-04T14:13:20.000Z</time></trkpt>
      <trkpt lat="52.685688" lon="-1.211272"><ele>94.0</ele><time>2015-04-04T14:13:28.000Z</time></trkpt>
      <trkpt lat="52.685654" lon="-1.211301"><ele>94.0</ele><time>2015-04-04T14:13:32.000Z</time></trkpt>
      <trkpt lat="52.685610" lon="-1.211286"><ele>94.0</ele><time>2015-04-04T14:13:37.000Z</time></trkpt>
      <trkpt lat="52.685568" lon="-1.211274"><ele>94.0</ele><time>2015-04-04T14:13:42.000Z</time></trkpt>
      <trkpt lat="52.685532" lon="-1.211249"><ele>94.0</ele><time>2015-04-04T14:13:47.000Z</time></trkpt>
      <trkpt lat="52.685495" lon="-1.211252"><ele>94.0</ele><time>2015-04-04T14:13:51.000Z</time></trkpt>
      <trkpt lat="52.685443" lon="-1.211264"><ele>94.0</ele><time>2015-04-04T14:13:56.000Z</time></trkpt>
      <trkpt lat="52.685392" lon="-1.211268"><ele>94.0</ele><time>2015-04-04T14:14:01.000Z</time></trkpt>
      <trkpt lat="52.685346" lon="-1.211262"><ele>94.0</ele><time>2015-04-04T14:14:06.000Z</time></trkpt>
      <trkpt lat="52.685307" lon="-1.211261"><ele>94.0</ele><time>2015-04-04T14:14:10.000Z</time></trkpt>
      <trkpt lat="52.685261" lon="-1.211265"><ele>94.0</ele><time>2015-04-04T14:14:15.000Z</time></trkpt>
      <trkpt lat="52.685230" lon="-1.211276"><ele>94.0</ele><time>2015-04-04T14:14:18.000Z</time></trkpt>
      <trkpt lat="52.685198" lon="-1.211277"><ele>94.0</ele><time>2015-04-04T14:14:22.000Z</time></trkpt>
      <trkpt lat="52.685162" lon="-1.211293"><ele>94.0</ele><time>2015-04-04T14:14:26.000Z</time></trkpt>
      <trkpt lat="52.685112" lon="-1.211294"><ele>94.0</ele><time>2015-04-04T14:14:31.000Z</time></trkpt>
      <trkpt lat="52.685077" lon="-1.211300"><ele>94.0</ele><time>2015-04-04T14:14:35.000Z</time></trkpt>
      <trkpt lat="52.685035" lon="-1.211308"><ele>94.0</ele><time>2015-04-04T14:14:45.000Z</time></trkpt>
      <trkpt lat="52.684999" lon="-1.211243"><ele>94.0</ele><time>2015-04-04T14:14:58.000Z</time></trkpt>
      <trkpt lat="52.684962" lon="-1.211224"><ele>94.0</ele><time>2015-04-04T14:15:04.000Z</time></trkpt>
      <trkpt lat="52.684958" lon="-1.211312"><ele>94.0</ele><time>2015-04-04T14:15:38.000Z</time></trkpt>
      <trkpt lat="52.684918" lon="-1.211333"><ele>94.0</ele><time>2015-04-04T14:16:25.000Z</time></trkpt>
      <trkpt lat="52.684891" lon="-1.211419"><ele>94.0</ele><time>2015-04-04T14:16:33.000Z</time></trkpt>
      <trkpt lat="52.684950" lon="-1.211360"><ele>94.0</ele><time>2015-04-04T14:20:26.000Z</time></trkpt>
      <trkpt lat="52.684989" lon="-1.211300"><ele>94.0</ele><time>2015-04-04T14:20:41.000Z</time></trkpt>
      <trkpt lat="52.684959" lon="-1.211235"><ele>94.0</ele><time>2015-04-04T14:20:47.000Z</time></trkpt>
      <trkpt lat="52.684942" lon="-1.211171"><ele>94.0</ele><time>2015-04-04T14:20:51.000Z</time></trkpt>
      <trkpt lat="52.684975" lon="-1.211230"><ele>94.0</ele><time>2015-04-04T14:21:31.000Z</time></trkpt>
      <trkpt lat="52.684965" lon="-1.211147"><ele>94.0</ele><time>2015-04-04T14:22:04.000Z</time></trkpt>
      <trkpt lat="52.684964" lon="-1.211264"><ele>94.0</ele><time>2015-04-04T14:22:34.000Z</time></trkpt>
      <trkpt lat="52.684956" lon="-1.211335"><ele>94.0</ele><time>2015-04-04T14:22:38.000Z</time></trkpt>
      <trkpt lat="52.685022" lon="-1.211310"><ele>94.0</ele><time>2015-04-04T14:27:07.000Z</time></trkpt>
      <trkpt lat="52.685075" lon="-1.211327"><ele>94.0</ele><time>2015-04-04T14:27:25.000Z</time></trkpt>
      <trkpt lat="52.685127" lon="-1.211321"><ele>94.0</ele><time>2015-04-04T14:27:35.000Z</time></trkpt>
      <trkpt lat="52.685179" lon="-1.211319"><ele>94.0</ele><time>2015-04-04T14:27:40.000Z</time></trkpt>
      <trkpt lat="52.685232" lon="-1.211306"><ele>94.0</ele><time>2015-04-04T14:27:46.000Z</time></trkpt>
      <trkpt lat="52.685297" lon="-1.211274"><ele>94.0</ele><time>2015-04-04T14:27:56.000Z</time></trkpt>
      <trkpt lat="52.685355" lon="-1.211296"><ele>94.0</ele><time>2015-04-04T14:28:02.000Z</time></trkpt>
      <trkpt lat="52.685390" lon="-1.211291"><ele>94.0</ele><time>2015-04-04T14:28:06.000Z</time></trkpt>
      <trkpt lat="52.685463" lon="-1.211301"><ele>94.0</ele><time>2015-04-04T14:28:14.000Z</time></trkpt>
      <trkpt lat="52.685506" lon="-1.211304"><ele>94.0</ele><time>2015-04-04T14:28:18.000Z</time></trkpt>
      <trkpt lat="52.685568" lon="-1.211311"><ele>94.0</ele><time>2015-04-04T14:28:24.000Z</time></trkpt>
      <trkpt lat="52.685620" lon="-1.211320"><ele>94.0</ele><time>2015-04-04T14:28:29.000Z</time></trkpt>
      <trkpt lat="52.685671" lon="-1.211333"><ele>94.0</ele><time>2015-04-04T14:28:34.000Z</time></trkpt>
      <trkpt lat="52.685727" lon="-1.211319"><ele>94.0</ele><time>2015-04-04T14:28:39.000Z</time></trkpt>
      <trkpt lat="52.685784" lon="-1.211311"><ele>94.0</ele><time>2015-04-04T14:28:44.000Z</time></trkpt>
      <trkpt lat="52.685774" lon="-1.211360"><ele>94.0</ele><time>2015-04-04T14:29:03.000Z</time></trkpt>
      <trkpt lat="52.685839" lon="-1.211346"><ele>94.0</ele><time>2015-04-04T14:31:45.000Z</time></trkpt>
      <trkpt lat="52.685899" lon="-1.211434"><ele>94.0</ele><time>2015-04-04T14:32:17.000Z</time></trkpt>
      <trkpt lat="52.685923" lon="-1.211531"><ele>94.0</ele><time>2015-04-04T14:32:27.000Z</time></trkpt>
      <trkpt lat="52.685924" lon="-1.211632"><ele>94.0</ele><time>2015-04-04T14:32:34.000Z</time></trkpt>
      <trkpt lat="52.685926" lon="-1.211725"><ele>94.0</ele><time>2015-04-04T14:32:40.000Z</time></trkpt>
      <trkpt lat="52.685907" lon="-1.211800"><ele>94.0</ele><time>2015-04-04T14:32:45.000Z</time></trkpt>
      <trkpt lat="52.685881" lon="-1.211902"><ele>94.0</ele><time>2015-04-04T14:32:53.000Z</time></trkpt>
      <trkpt lat="52.685853" lon="-1.211993"><ele>94.0</ele><time>2015-04-04T14:33:02.000Z</time></trkpt>
      <trkpt lat="52.685821" lon="-1.212112"><ele>94.0</ele><time>2015-04-04T14:33:12.000Z</time></trkpt>
      <trkpt lat="52.685770" lon="-1.212265"><ele>94.0</ele><time>2015-04-04T14:33:21.000Z</time></trkpt>
      <trkpt lat="52.685740" lon="-1.212385"><ele>94.0</ele><time>2015-04-04T14:33:28.000Z</time></trkpt>
      <trkpt lat="52.685707" lon="-1.212509"><ele>94.0</ele><time>2015-04-04T14:33:37.000Z</time></trkpt>
      <trkpt lat="52.685672" lon="-1.212642"><ele>94.0</ele><time>2015-04-04T14:33:46.000Z</time></trkpt>
      <trkpt lat="52.685646" lon="-1.212751"><ele>94.0</ele><time>2015-04-04T14:33:54.000Z</time></trkpt>
      <trkpt lat="52.685623" lon="-1.212837"><ele>94.0</ele><time>2015-04-04T14:34:01.000Z</time></trkpt>
      <trkpt lat="52.685588" lon="-1.212966"><ele>94.0</ele><time>2015-04-04T14:34:10.000Z</time></trkpt>
      <trkpt lat="52.685558" lon="-1.213115"><ele>94.0</ele><time>2015-04-04T14:34:19.000Z</time></trkpt>
      <trkpt lat="52.685536" lon="-1.213239"><ele>94.0</ele><time>2015-04-04T14:34:28.000Z</time></trkpt>
      <trkpt lat="52.685522" lon="-1.213340"><ele>94.0</ele><time>2015-04-04T14:34:35.000Z</time></trkpt>
      <trkpt lat="52.685511" lon="-1.213409"><ele>94.0</ele><time>2015-04-04T14:35:03.000Z</time></trkpt>
      <trkpt lat="52.685474" lon="-1.213511"><ele>94.0</ele><time>2015-04-04T14:35:53.000Z</time></trkpt>
      <trkpt lat="52.685454" lon="-1.213618"><ele>94.0</ele><time>2015-04-04T14:36:01.000Z</time></trkpt>
      <trkpt lat="52.685448" lon="-1.213743"><ele>94.0</ele><time>2015-04-04T14:36:09.000Z</time></trkpt>
      <trkpt lat="52.685438" lon="-1.213860"><ele>94.0</ele><time>2015-04-04T14:36:17.000Z</time></trkpt>
      <trkpt lat="52.685443" lon="-1.213944"><ele>94.0</ele><time>2015-04-04T14:36:23.000Z</time></trkpt>
      <trkpt lat="52.685452" lon="-1.214037"><ele>94.0</ele><time>2015-04-04T14:36:30.000Z</time></trkpt>
      <trkpt lat="52.685461" lon="-1.214165"><ele>94.0</ele><time>2015-04-04T14:36:41.000Z</time></trkpt>
      <trkpt lat="52.685483" lon="-1.214230"><ele>94.0</ele><time>2015-04-04T14:36:56.000Z</time></trkpt>
      <trkpt lat="52.685495" lon="-1.214341"><ele>94.0</ele><time>2015-04-04T14:37:03.000Z</time></trkpt>
      <trkpt lat="52.685507" lon="-1.214438"><ele>94.0</ele><time>2015-04-04T14:37:09.000Z</time></trkpt>
      <trkpt lat="52.685514" lon="-1.214547"><ele>94.0</ele><time>2015-04-04T14:37:16.000Z</time></trkpt>
      <trkpt lat="52.685518" lon="-1.214638"><ele>94.0</ele><time>2015-04-04T14:37:22.000Z</time></trkpt>
      <trkpt lat="52.685530" lon="-1.214757"><ele>94.0</ele><time>2015-04-04T14:37:30.000Z</time></trkpt>
      <trkpt lat="52.685525" lon="-1.214664"><ele>94.0</ele><time>2015-04-04T14:37:36.000Z</time></trkpt>
      <trkpt lat="52.685502" lon="-1.214575"><ele>94.0</ele><time>2015-04-04T14:37:42.000Z</time></trkpt>
      <trkpt lat="52.685516" lon="-1.214693"><ele>94.0</ele><time>2015-04-04T14:37:57.000Z</time></trkpt>
      <trkpt lat="52.685522" lon="-1.214776"><ele>94.0</ele><time>2015-04-04T14:38:10.000Z</time></trkpt>
      <trkpt lat="52.685516" lon="-1.214682"><ele>94.0</ele><time>2015-04-04T14:38:18.000Z</time></trkpt>
      <trkpt lat="52.685506" lon="-1.214595"><ele>94.0</ele><time>2015-04-04T14:38:25.000Z</time></trkpt>
      <trkpt lat="52.685513" lon="-1.214714"><ele>94.0</ele><time>2015-04-04T14:39:19.000Z</time></trkpt>
      <trkpt lat="52.685526" lon="-1.214837"><ele>94.0</ele><time>2015-04-04T14:39:27.000Z</time></trkpt>
      <trkpt lat="52.685539" lon="-1.214947"><ele>94.0</ele><time>2015-04-04T14:39:34.000Z</time></trkpt>
      <trkpt lat="52.685545" lon="-1.215068"><ele>94.0</ele><time>2015-04-04T14:39:41.000Z</time></trkpt>
      <trkpt lat="52.685550" lon="-1.215179"><ele>94.0</ele><time>2015-04-04T14:39:47.000Z</time></trkpt>
      <trkpt lat="52.685560" lon="-1.215296"><ele>94.0</ele><time>2015-04-04T14:39:54.000Z</time></trkpt>
      <trkpt lat="52.685568" lon="-1.215377"><ele>94.0</ele><time>2015-04-04T14:39:59.000Z</time></trkpt>
      <trkpt lat="52.685578" lon="-1.215487"><ele>94.0</ele><time>2015-04-04T14:40:06.000Z</time></trkpt>
      <trkpt lat="52.685597" lon="-1.215613"><ele>94.0</ele><time>2015-04-04T14:40:15.000Z</time></trkpt>
      <trkpt lat="52.685616" lon="-1.215751"><ele>94.0</ele><time>2015-04-04T14:40:24.000Z</time></trkpt>
      <trkpt lat="52.685636" lon="-1.215879"><ele>94.0</ele><time>2015-04-04T14:40:32.000Z</time></trkpt>
      <trkpt lat="52.685649" lon="-1.215993"><ele>94.0</ele><time>2015-04-04T14:40:39.000Z</time></trkpt>
      <trkpt lat="52.685677" lon="-1.216118"><ele>94.0</ele><time>2015-04-04T14:40:48.000Z</time></trkpt>
      <trkpt lat="52.685696" lon="-1.216247"><ele>94.0</ele><time>2015-04-04T14:40:57.000Z</time></trkpt>
      <trkpt lat="52.685705" lon="-1.216396"><ele>95.0</ele><time>2015-04-04T14:41:06.000Z</time></trkpt>
      <trkpt lat="52.685749" lon="-1.216485"><ele>95.0</ele><time>2015-04-04T14:41:27.000Z</time></trkpt>
      <trkpt lat="52.685780" lon="-1.216588"><ele>95.0</ele><time>2015-04-04T14:41:36.000Z</time></trkpt>
      <trkpt lat="52.685763" lon="-1.216727"><ele>95.0</ele><time>2015-04-04T14:41:44.000Z</time></trkpt>
      <trkpt lat="52.685767" lon="-1.216860"><ele>95.0</ele><time>2015-04-04T14:41:58.000Z</time></trkpt>
      <trkpt lat="52.685761" lon="-1.216993"><ele>95.0</ele><time>2015-04-04T14:42:08.000Z</time></trkpt>
      <trkpt lat="52.685778" lon="-1.217080"><ele>95.0</ele><time>2015-04-04T14:42:13.000Z</time></trkpt>
      <trkpt lat="52.685823" lon="-1.217214"><ele>95.0</ele><time>2015-04-04T14:42:28.000Z</time></trkpt>
      <trkpt lat="52.685834" lon="-1.217313"><ele>95.0</ele><time>2015-04-04T14:42:37.000Z</time></trkpt>
      <trkpt lat="52.685828" lon="-1.217467"><ele>95.0</ele><time>2015-04-04T14:42:49.000Z</time></trkpt>
      <trkpt lat="52.685832" lon="-1.217608"><ele>95.0</ele><time>2015-04-04T14:42:58.000Z</time></trkpt>
      <trkpt lat="52.685845" lon="-1.217728"><ele>95.0</ele><time>2015-04-04T14:43:06.000Z</time></trkpt>
      <trkpt lat="52.685851" lon="-1.217842"><ele>95.0</ele><time>2015-04-04T14:43:13.000Z</time></trkpt>
      <trkpt lat="52.685848" lon="-1.217969"><ele>95.0</ele><time>2015-04-04T14:43:22.000Z</time></trkpt>
      <trkpt lat="52.685853" lon="-1.218085"><ele>95.0</ele><time>2015-04-04T14:43:31.000Z</time></trkpt>
      <trkpt lat="52.685851" lon="-1.218163"><ele>95.0</ele><time>2015-04-04T14:43:37.000Z</time></trkpt>
      <trkpt lat="52.685841" lon="-1.218282"><ele>95.0</ele><time>2015-04-04T14:43:48.000Z</time></trkpt>
      <trkpt lat="52.685821" lon="-1.218416"><ele>95.0</ele><time>2015-04-04T14:44:03.000Z</time></trkpt>
      <trkpt lat="52.685816" lon="-1.218526"><ele>95.0</ele><time>2015-04-04T14:44:09.000Z</time></trkpt>
      <trkpt lat="52.685814" lon="-1.218676"><ele>95.0</ele><time>2015-04-04T14:44:19.000Z</time></trkpt>
      <trkpt lat="52.685804" lon="-1.218790"><ele>95.0</ele><time>2015-04-04T14:44:26.000Z</time></trkpt>
      <trkpt lat="52.685796" lon="-1.218902"><ele>95.0</ele><time>2015-04-04T14:44:34.000Z</time></trkpt>
      <trkpt lat="52.685784" lon="-1.219050"><ele>95.0</ele><time>2015-04-04T14:44:43.000Z</time></trkpt>
      <trkpt lat="52.685774" lon="-1.219179"><ele>95.0</ele><time>2015-04-04T14:44:50.000Z</time></trkpt>
      <trkpt lat="52.685772" lon="-1.219274"><ele>96.0</ele><time>2015-04-04T14:44:55.000Z</time></trkpt>
      <trkpt lat="52.685763" lon="-1.219378"><ele>96.0</ele><time>2015-04-04T14:45:01.000Z</time></trkpt>
      <trkpt lat="52.685761" lon="-1.219502"><ele>96.0</ele><time>2015-04-04T14:45:08.000Z</time></trkpt>
      <trkpt lat="52.685756" lon="-1.219619"><ele>96.0</ele><time>2015-04-04T14:45:14.000Z</time></trkpt>
      <trkpt lat="52.685756" lon="-1.219742"><ele>96.0</ele><time>2015-04-04T14:45:20.000Z</time></trkpt>
      <trkpt lat="52.685753" lon="-1.219843"><ele>96.0</ele><time>2015-04-04T14:45:31.000Z</time></trkpt>
      <trkpt lat="52.685742" lon="-1.219965"><ele>96.0</ele><time>2015-04-04T14:45:38.000Z</time></trkpt>
      <trkpt lat="52.685742" lon="-1.220089"><ele>96.0</ele><time>2015-04-04T14:45:45.000Z</time></trkpt>
      <trkpt lat="52.685738" lon="-1.220200"><ele>96.0</ele><time>2015-04-04T14:45:51.000Z</time></trkpt>
      <trkpt lat="52.685734" lon="-1.220299"><ele>96.0</ele><time>2015-04-04T14:45:57.000Z</time></trkpt>
      <trkpt lat="52.685738" lon="-1.220414"><ele>96.0</ele><time>2015-04-04T14:46:04.000Z</time></trkpt>
      <trkpt lat="52.685738" lon="-1.220534"><ele>96.0</ele><time>2015-04-04T14:46:11.000Z</time></trkpt>
      <trkpt lat="52.685726" lon="-1.220632"><ele>96.0</ele><time>2015-04-04T14:46:17.000Z</time></trkpt>
      <trkpt lat="52.685725" lon="-1.220728"><ele>96.0</ele><time>2015-04-04T14:46:22.000Z</time></trkpt>
      <trkpt lat="52.685716" lon="-1.220838"><ele>97.0</ele><time>2015-04-04T14:46:28.000Z</time></trkpt>
      <trkpt lat="52.685718" lon="-1.220942"><ele>97.0</ele><time>2015-04-04T14:46:35.000Z</time></trkpt>
      <trkpt lat="52.685705" lon="-1.221026"><ele>97.0</ele><time>2015-04-04T14:46:46.000Z</time></trkpt>
      <trkpt lat="52.685705" lon="-1.221174"><ele>97.0</ele><time>2015-04-04T14:46:57.000Z</time></trkpt>
      <trkpt lat="52.685696" lon="-1.221269"><ele>97.0</ele><time>2015-04-04T14:47:02.000Z</time></trkpt>
      <trkpt lat="52.685683" lon="-1.221399"><ele>97.0</ele><time>2015-04-04T14:47:09.000Z</time></trkpt>
      <trkpt lat="52.685664" lon="-1.221505"><ele>97.0</ele><time>2015-04-04T14:47:15.000Z</time></trkpt>
      <trkpt lat="52.685643" lon="-1.221648"><ele>97.0</ele><time>2015-04-04T14:47:23.000Z</time></trkpt>
      <trkpt lat="52.685602" lon="-1.221757"><ele>97.0</ele><time>2015-04-04T14:47:29.000Z</time></trkpt>
      <trkpt lat="52.685582" lon="-1.221850"><ele>97.0</ele><time>2015-04-04T14:47:36.000Z</time></trkpt>
      <trkpt lat="52.685554" lon="-1.221935"><ele>97.0</ele><time>2015-04-04T14:47:41.000Z</time></trkpt>
      <trkpt lat="52.685511" lon="-1.222040"><ele>97.0</ele><time>2015-04-04T14:47:49.000Z</time></trkpt>
      <trkpt lat="52.685480" lon="-1.222130"><ele>97.0</ele><time>2015-04-04T14:47:54.000Z</time></trkpt>
      <trkpt lat="52.685452" lon="-1.222218"><ele>98.0</ele><time>2015-04-04T14:47:59.000Z</time></trkpt>
      <trkpt lat="52.685436" lon="-1.222262"><ele>98.0</ele><time>2015-04-04T14:48:03.000Z</time></trkpt>
      <trkpt lat="52.685428" lon="-1.222310"><ele>98.0</ele><time>2015-04-04T14:48:06.000Z</time></trkpt>
      <trkpt lat="52.685413" lon="-1.222388"><ele>98.0</ele><time>2015-04-04T14:48:11.000Z</time></trkpt>
      <trkpt lat="52.685398" lon="-1.222440"><ele>98.0</ele><time>2015-04-04T14:48:16.000Z</time></trkpt>
      <trkpt lat="52.685385" lon="-1.222543"><ele>98.0</ele><time>2015-04-04T14:48:22.000Z</time></trkpt>
      <trkpt lat="52.685373" lon="-1.222639"><ele>98.0</ele><time>2015-04-04T14:48:28.000Z</time></trkpt>
      <trkpt lat="52.685367" lon="-1.222741"><ele>98.0</ele><time>2015-04-04T14:48:35.000Z</time></trkpt>
      <trkpt lat="52.685338" lon="-1.222817"><ele>98.0</ele><time>2015-04-04T14:48:46.000Z</time></trkpt>
      <trkpt lat="52.685303" lon="-1.222911"><ele>98.0</ele><time>2015-04-04T14:49:06.000Z</time></trkpt>
      <trkpt lat="52.685297" lon="-1.223026"><ele>98.0</ele><time>2015-04-04T14:50:00.000Z</time></trkpt>
      <trkpt lat="52.685293" lon="-1.223100"><ele>98.0</ele><time>2015-04-04T14:50:05.000Z</time></trkpt>
      <trkpt lat="52.685282" lon="-1.223172"><ele>98.0</ele><time>2015-04-04T14:50:10.000Z</time></trkpt>
      <trkpt lat="52.685283" lon="-1.223263"><ele>98.0</ele><time>2015-04-04T14:50:20.000Z</time></trkpt>
      <trkpt lat="52.685281" lon="-1.223310"><ele>98.0</ele><time>2015-04-04T14:50:23.000Z</time></trkpt>
      <trkpt lat="52.685258" lon="-1.223411"><ele>98.0</ele><time>2015-04-04T14:50:30.000Z</time></trkpt>
      <trkpt lat="52.685235" lon="-1.223490"><ele>98.0</ele><time>2015-04-04T14:50:36.000Z</time></trkpt>
      <trkpt lat="52.685217" lon="-1.223541"><ele>98.0</ele><time>2015-04-04T14:50:42.000Z</time></trkpt>
      <trkpt lat="52.685204" lon="-1.223579"><ele>98.0</ele><time>2015-04-04T14:50:45.000Z</time></trkpt>
      <trkpt lat="52.685183" lon="-1.223621"><ele>98.0</ele><time>2015-04-04T14:50:50.000Z</time></trkpt>
      <trkpt lat="52.685164" lon="-1.223657"><ele>98.0</ele><time>2015-04-04T14:50:53.000Z</time></trkpt>
      <trkpt lat="52.685140" lon="-1.223716"><ele>98.0</ele><time>2015-04-04T14:51:02.000Z</time></trkpt>
      <trkpt lat="52.685110" lon="-1.223759"><ele>98.0</ele><time>2015-04-04T14:51:13.000Z</time></trkpt>
      <trkpt lat="52.685086" lon="-1.223816"><ele>98.0</ele><time>2015-04-04T14:51:18.000Z</time></trkpt>
      <trkpt lat="52.685055" lon="-1.223864"><ele>98.0</ele><time>2015-04-04T14:51:26.000Z</time></trkpt>
      <trkpt lat="52.685029" lon="-1.223922"><ele>98.0</ele><time>2015-04-04T14:51:30.000Z</time></trkpt>
      <trkpt lat="52.685003" lon="-1.223993"><ele>98.0</ele><time>2015-04-04T14:51:35.000Z</time></trkpt>
      <trkpt lat="52.684979" lon="-1.224103"><ele>99.0</ele><time>2015-04-04T14:52:09.000Z</time></trkpt>
      <trkpt lat="52.684945" lon="-1.224204"><ele>99.0</ele><time>2015-04-04T14:52:16.000Z</time></trkpt>
      <trkpt lat="52.684920" lon="-1.224297"><ele>96.0</ele><time>2015-04-04T14:52:22.000Z</time></trkpt>
      <trkpt lat="52.684894" lon="-1.224389"><ele>96.0</ele><time>2015-04-04T14:52:28.000Z</time></trkpt>
      <trkpt lat="52.684850" lon="-1.224499"><ele>96.0</ele><time>2015-04-04T14:52:36.000Z</time></trkpt>
      <trkpt lat="52.684813" lon="-1.224620"><ele>98.0</ele><time>2015-04-04T14:52:43.000Z</time></trkpt>
      <trkpt lat="52.684789" lon="-1.224734"><ele>98.0</ele><time>2015-04-04T14:52:51.000Z</time></trkpt>
      <trkpt lat="52.684751" lon="-1.224832"><ele>98.0</ele><time>2015-04-04T14:52:59.000Z</time></trkpt>
      <trkpt lat="52.684740" lon="-1.224933"><ele>97.0</ele><time>2015-04-04T14:53:06.000Z</time></trkpt>
      <trkpt lat="52.684731" lon="-1.225038"><ele>98.0</ele><time>2015-04-04T14:53:12.000Z</time></trkpt>
      <trkpt lat="52.684710" lon="-1.225145"><ele>98.0</ele><time>2015-04-04T14:53:25.000Z</time></trkpt>
      <trkpt lat="52.684665" lon="-1.225226"><ele>98.0</ele><time>2015-04-04T14:53:44.000Z</time></trkpt>
      <trkpt lat="52.684630" lon="-1.225318"><ele>98.0</ele><time>2015-04-04T14:53:51.000Z</time></trkpt>
      <trkpt lat="52.684610" lon="-1.225415"><ele>98.0</ele><time>2015-04-04T14:53:56.000Z</time></trkpt>
      <trkpt lat="52.684587" lon="-1.225486"><ele>98.0</ele><time>2015-04-04T14:54:00.000Z</time></trkpt>
      <trkpt lat="52.684560" lon="-1.225572"><ele>99.0</ele><time>2015-04-04T14:54:05.000Z</time></trkpt>
      <trkpt lat="52.684527" lon="-1.225648"><ele>99.0</ele><time>2015-04-04T14:54:10.000Z</time></trkpt>
      <trkpt lat="52.684491" lon="-1.225733"><ele>99.0</ele><time>2015-04-04T14:54:15.000Z</time></trkpt>
      <trkpt lat="52.684447" lon="-1.225818"><ele>99.0</ele><time>2015-04-04T14:54:23.000Z</time></trkpt>
      <trkpt lat="52.684410" lon="-1.225913"><ele>99.0</ele><time>2015-04-04T14:54:29.000Z</time></trkpt>
      <trkpt lat="52.684372" lon="-1.225995"><ele>100.0</ele><time>2015-04-04T14:54:35.000Z</time></trkpt>
      <trkpt lat="52.684340" lon="-1.226068"><ele>101.0</ele><time>2015-04-04T14:55:12.000Z</time></trkpt>
      <trkpt lat="52.684299" lon="-1.226139"><ele>101.0</ele><time>2015-04-04T14:55:24.000Z</time></trkpt>
      <trkpt lat="52.684266" lon="-1.226205"><ele>101.0</ele><time>2015-04-04T14:55:29.000Z</time></trkpt>
      <trkpt lat="52.684232" lon="-1.226278"><ele>101.0</ele><time>2015-04-04T14:55:34.000Z</time></trkpt>
      <trkpt lat="52.684182" lon="-1.226326"><ele>101.0</ele><time>2015-04-04T14:55:39.000Z</time></trkpt>
      <trkpt lat="52.684140" lon="-1.226393"><ele>101.0</ele><time>2015-04-04T14:55:45.000Z</time></trkpt>
      <trkpt lat="52.684082" lon="-1.226455"><ele>101.0</ele><time>2015-04-04T14:55:50.000Z</time></trkpt>
      <trkpt lat="52.684055" lon="-1.226538"><ele>101.0</ele><time>2015-04-04T14:55:56.000Z</time></trkpt>
      <trkpt lat="52.684030" lon="-1.226618"><ele>101.0</ele><time>2015-04-04T14:56:00.000Z</time></trkpt>
      <trkpt lat="52.683986" lon="-1.226678"><ele>100.0</ele><time>2015-04-04T14:56:04.000Z</time></trkpt>
      <trkpt lat="52.683928" lon="-1.226786"><ele>101.0</ele><time>2015-04-04T14:56:13.000Z</time></trkpt>
      <trkpt lat="52.683888" lon="-1.226878"><ele>101.0</ele><time>2015-04-04T14:56:18.000Z</time></trkpt>
      <trkpt lat="52.683862" lon="-1.226966"><ele>101.0</ele><time>2015-04-04T14:56:22.000Z</time></trkpt>
      <trkpt lat="52.683816" lon="-1.227140"><ele>101.0</ele><time>2015-04-04T14:56:33.000Z</time></trkpt>
      <trkpt lat="52.683785" lon="-1.227238"><ele>102.0</ele><time>2015-04-04T14:56:49.000Z</time></trkpt>
      <trkpt lat="52.683728" lon="-1.227232"><ele>102.0</ele><time>2015-04-04T14:56:54.000Z</time></trkpt>
      <trkpt lat="52.683673" lon="-1.227184"><ele>102.0</ele><time>2015-04-04T14:57:00.000Z</time></trkpt>
      <trkpt lat="52.683629" lon="-1.227110"><ele>102.0</ele><time>2015-04-04T14:57:09.000Z</time></trkpt>
      <trkpt lat="52.683580" lon="-1.227039"><ele>102.0</ele><time>2015-04-04T14:57:17.000Z</time></trkpt>
      <trkpt lat="52.683523" lon="-1.226971"><ele>101.0</ele><time>2015-04-04T14:57:25.000Z</time></trkpt>
      <trkpt lat="52.683473" lon="-1.226947"><ele>101.0</ele><time>2015-04-04T14:57:31.000Z</time></trkpt>
      <trkpt lat="52.683419" lon="-1.227021"><ele>101.0</ele><time>2015-04-04T14:57:38.000Z</time></trkpt>
      <trkpt lat="52.683355" lon="-1.227068"><ele>101.0</ele><time>2015-04-04T14:57:45.000Z</time></trkpt>
      <trkpt lat="52.683355" lon="-1.227154"><ele>103.0</ele><time>2015-04-04T15:00:03.000Z</time></trkpt>
    </trkseg>
  </trk>
</gpx>
