<?xml version="1.0" encoding="UTF-8"?>
<gpx version="1.1" creator="walkingwithember" xmlns="http://www.topografix.com/GPX/1/1">
  <metadata>
    <name>Walk 2015-09-26</name>
    <time>2015-09-26T09:07:07.000Z</time>
  </metadata>
  <trk>
    <name>Walk 2015-09-26</name>
    <trkseg>
      <trkpt lat="52.636170" lon="-1.120925"><ele>55.4</ele><time>2015-09-26T09:07:07.000Z</time></trkpt>
      <trkpt lat="52.636312" lon="-1.121014"><ele>56.0</ele><time>2015-09-26T09:07:20.000Z</time></trkpt>
      <trkpt lat="52.636422" lon="-1.121253"><ele>55.4</ele><time>2015-09-26T09:07:30.000Z</time></trkpt>
      <trkpt lat="52.636535" lon="-1.121491"><ele>56.2</ele><time>2015-09-26T09:07:42.000Z</time></trkpt>
      <trkpt lat="52.636623" lon="-1.121770"><ele>56.8</ele><time>2015-09-26T09:07:54.000Z</time></trkpt>
      <trkpt lat="52.636637" lon="-1.121830"><ele>57.2</ele><time>2015-09-26T09:07:57.000Z</time></trkpt>
      <trkpt lat="52.636573" lon="-1.121541"><ele>59.0</ele><time>2015-09-26T09:08:11.000Z</time></trkpt>
      <trkpt lat="52.636468" lon="-1.121288"><ele>61.0</ele><time>2015-09-26T09:08:23.000Z</time></trkpt>
      <trkpt lat="52.636346" lon="-1.121050"><ele>61.8</ele><time>2015-09-26T09:08:36.000Z</time></trkpt>
      <trkpt lat="52.636308" lon="-1.120952"><ele>62.2</ele><time>2015-09-26T09:08:41.000Z</time></trkpt>
      <trkpt lat="52.636300" lon="-1.120941"><ele>62.4</ele><time>2015-09-26T09:08:45.000Z</time></trkpt>
      <trkpt lat="52.636416" lon="-1.121184"><ele>62.4</ele><time>2015-09-26T09:08:57.000Z</time></trkpt>
      <trkpt lat="52.636548" lon="-1.121393"><ele>63.0</ele><time>2015-09-26T09:09:08.000Z</time></trkpt>
      <trkpt lat="52.636639" lon="-1.121650"><ele>63.0</ele><time>2015-09-26T09:09:20.000Z</time></trkpt>
      <trkpt lat="52.636705" lon="-1.121932"><ele>62.8</ele><time>2015-09-26T09:09:33.000Z</time></trkpt>
      <trkpt lat="52.636754" lon="-1.122235"><ele>60.0</ele><time>2015-09-26T09:09:48.000Z</time></trkpt>
      <trkpt lat="52.636882" lon="-1.122403"><ele>56.6</ele><time>2015-09-26T09:10:02.000Z</time></trkpt>
      <trkpt lat="52.637068" lon="-1.122364"><ele>54.4</ele><time>2015-09-26T09:10:16.000Z</time></trkpt>
      <trkpt lat="52.637225" lon="-1.122483"><ele>53.4</ele><time>2015-09-26T09:10:30.000Z</time></trkpt>
      <trkpt lat="52.637245" lon="-1.122465"><ele>53.2</ele><time>2015-09-26T09:10:32.000Z</time></trkpt>
      <trkpt lat="52.637389" lon="-1.122281"><ele>50.0</ele><time>2015-09-26T09:10:45.000Z</time></trkpt>
      <trkpt lat="52.637420" lon="-1.122233"><ele>49.6</ele><time>2015-09-26T09:10:48.000Z</time></trkpt>
      <trkpt lat="52.637473" lon="-1.122211"><ele>49.6</ele><time>2015-09-26T09:10:52.000Z</time></trkpt>
      <trkpt lat="52.637620" lon="-1.122375"><ele>51.8</ele><time>2015-09-26T09:11:04.000Z</time></trkpt>
      <trkpt lat="52.637778" lon="-1.122214"><ele>53.6</ele><time>2015-09-26T09:11:21.000Z</time></trkpt>
      <trkpt lat="52.637840" lon="-1.122256"><ele>52.6</ele><time>2015-09-26T09:11:28.000Z</time></trkpt>
      <trkpt lat="52.637894" lon="-1.122541"><ele>51.2</ele><time>2015-09-26T09:11:40.000Z</time></trkpt>
      <trkpt lat="52.637949" lon="-1.122848"><ele>52.0</ele><time>2015-09-26T09:11:53.000Z</time></trkpt>
      <trkpt lat="52.638019" lon="-1.123127"><ele>51.2</ele><time>2015-09-26T09:12:06.000Z</time></trkpt>
      <trkpt lat="52.638135" lon="-1.123379"><ele>53.2</ele><time>2015-09-26T09:12:19.000Z</time></trkpt>
      <trkpt lat="52.638146" lon="-1.123391"><ele>53.2</ele><time>2015-09-26T09:12:20.000Z</time></trkpt>
      <trkpt lat="52.638311" lon="-1.123541"><ele>51.8</ele><time>2015-09-26T09:12:34.000Z</time></trkpt>
      <trkpt lat="52.638457" lon="-1.123748"><ele>52.2</ele><time>2015-09-26T09:12:47.000Z</time></trkpt>
      <trkpt lat="52.638531" lon="-1.123859"><ele>51.2</ele><time>2015-09-26T09:12:54.000Z</time></trkpt>
      <trkpt lat="52.638635" lon="-1.123984"><ele>49.8</ele><time>2015-09-26T09:13:03.000Z</time></trkpt>
      <trkpt lat="52.638739" lon="-1.124238"><ele>49.0</ele><time>2015-09-26T09:13:17.000Z</time></trkpt>
      <trkpt lat="52.638877" lon="-1.124453"><ele>46.4</ele><time>2015-09-26T09:13:31.000Z</time></trkpt>
      <trkpt lat="52.639011" lon="-1.124659"><ele>47.4</ele><time>2015-09-26T09:13:44.000Z</time></trkpt>
      <trkpt lat="52.639143" lon="-1.124868"><ele>48.8</ele><time>2015-09-26T09:13:58.000Z</time></trkpt>
      <trkpt lat="52.639271" lon="-1.125080"><ele>52.2</ele><time>2015-09-26T09:14:13.000Z</time></trkpt>
      <trkpt lat="52.639333" lon="-1.125182"><ele>51.8</ele><time>2015-09-26T09:14:20.000Z</time></trkpt>
      <trkpt lat="52.639468" lon="-1.125378"><ele>50.4</ele><time>2015-09-26T09:14:34.000Z</time></trkpt>
      <trkpt lat="52.639595" lon="-1.125599"><ele>49.0</ele><time>2015-09-26T09:14:48.000Z</time></trkpt>
      <trkpt lat="52.639715" lon="-1.125831"><ele>49.6</ele><time>2015-09-26T09:15:00.000Z</time></trkpt>
      <trkpt lat="52.639834" lon="-1.126053"><ele>51.4</ele><time>2015-09-26T09:15:13.000Z</time></trkpt>
      <trkpt lat="52.639949" lon="-1.126302"><ele>51.6</ele><time>2015-09-26T09:15:27.000Z</time></trkpt>
      <trkpt lat="52.640075" lon="-1.126538"><ele>50.4</ele><time>2015-09-26T09:15:41.000Z</time></trkpt>
      <trkpt lat="52.640219" lon="-1.126724"><ele>51.0</ele><time>2015-09-26T09:15:54.000Z</time></trkpt>
      <trkpt lat="52.640245" lon="-1.126768"><ele>51.8</ele><time>2015-09-26T09:15:57.000Z</time></trkpt>
      <trkpt lat="52.640350" lon="-1.127015"><ele>52.0</ele><time>2015-09-26T09:16:10.000Z</time></trkpt>
      <trkpt lat="52.640490" lon="-1.127230"><ele>49.2</ele><time>2015-09-26T09:16:24.000Z</time></trkpt>
      <trkpt lat="52.640600" lon="-1.127465"><ele>48.4</ele><time>2015-09-26T09:16:37.000Z</time></trkpt>
      <trkpt lat="52.640739" lon="-1.127679"><ele>48.4</ele><time>2015-09-26T09:16:50.000Z</time></trkpt>
      <trkpt lat="52.640838" lon="-1.127942"><ele>50.6</ele><time>2015-09-26T09:17:04.000Z</time></trkpt>
      <trkpt lat="52.640840" lon="-1.127957"><ele>51.4</ele><time>2015-09-26T09:17:05.000Z</time></trkpt>
      <trkpt lat="52.640908" lon="-1.128243"><ele>59.0</ele><time>2015-09-26T09:17:20.000Z</time></trkpt>
      <trkpt lat="52.640964" lon="-1.128335"><ele>58.8</ele><time>2015-09-26T09:17:25.000Z</time></trkpt>
      <trkpt lat="52.641059" lon="-1.128606"><ele>57.0</ele><time>2015-09-26T09:17:40.000Z</time></trkpt>
      <trkpt lat="52.641209" lon="-1.128780"><ele>54.2</ele><time>2015-09-26T09:17:52.000Z</time></trkpt>
      <trkpt lat="52.641371" lon="-1.128939"><ele>56.8</ele><time>2015-09-26T09:18:04.000Z</time></trkpt>
      <trkpt lat="52.641479" lon="-1.129208"><ele>66.2</ele><time>2015-09-26T09:18:16.000Z</time></trkpt>
      <trkpt lat="52.641608" lon="-1.129277"><ele>71.2</ele><time>2015-09-26T09:18:27.000Z</time></trkpt>
      <trkpt lat="52.641622" lon="-1.129246"><ele>71.8</ele><time>2015-09-26T09:18:29.000Z</time></trkpt>
      <trkpt lat="52.641640" lon="-1.129223"><ele>71.2</ele><time>2015-09-26T09:18:31.000Z</time></trkpt>
      <trkpt lat="52.641698" lon="-1.129063"><ele>64.6</ele><time>2015-09-26T09:18:35.000Z</time></trkpt>
      <trkpt lat="52.641738" lon="-1.128916"><ele>58.0</ele><time>2015-09-26T09:18:40.000Z</time></trkpt>
      <trkpt lat="52.641901" lon="-1.128750"><ele>44.2</ele><time>2015-09-26T09:18:51.000Z</time></trkpt>
      <trkpt lat="52.642050" lon="-1.128563"><ele>43.0</ele><time>2015-09-26T09:19:04.000Z</time></trkpt>
      <trkpt lat="52.642197" lon="-1.128473"><ele>43.4</ele><time>2015-09-26T09:19:15.000Z</time></trkpt>
      <trkpt lat="52.642362" lon="-1.128343"><ele>43.6</ele><time>2015-09-26T09:19:26.000Z</time></trkpt>
      <trkpt lat="52.642486" lon="-1.128214"><ele>43.2</ele><time>2015-09-26T09:19:37.000Z</time></trkpt>
      <trkpt lat="52.642500" lon="-1.128180"><ele>43.6</ele><time>2015-09-26T09:19:39.000Z</time></trkpt>
      <trkpt lat="52.642682" lon="-1.128096"><ele>49.2</ele><time>2015-09-26T09:19:50.000Z</time></trkpt>
      <trkpt lat="52.642774" lon="-1.128001"><ele>50.0</ele><time>2015-09-26T09:19:58.000Z</time></trkpt>
      <trkpt lat="52.642744" lon="-1.127830"><ele>57.0</ele><time>2015-09-26T09:20:03.000Z</time></trkpt>
      <trkpt lat="52.642908" lon="-1.127798"><ele>56.2</ele><time>2015-09-26T09:20:13.000Z</time></trkpt>
      <trkpt lat="52.643089" lon="-1.127714"><ele>57.4</ele><time>2015-09-26T09:20:23.000Z</time></trkpt>
      <trkpt lat="52.643229" lon="-1.127562"><ele>54.2</ele><time>2015-09-26T09:20:34.000Z</time></trkpt>
      <trkpt lat="52.643239" lon="-1.127473"><ele>49.2</ele><time>2015-09-26T09:20:38.000Z</time></trkpt>
      <trkpt lat="52.643336" lon="-1.127392"><ele>45.8</ele><time>2015-09-26T09:20:47.000Z</time></trkpt>
      <trkpt lat="52.643504" lon="-1.127253"><ele>45.6</ele><time>2015-09-26T09:21:01.000Z</time></trkpt>
      <trkpt lat="52.643519" lon="-1.127246"><ele>46.2</ele><time>2015-09-26T09:21:03.000Z</time></trkpt>
      <trkpt lat="52.643565" lon="-1.127289"><ele>50.6</ele><time>2015-09-26T09:21:11.000Z</time></trkpt>
      <trkpt lat="52.643641" lon="-1.127540"><ele>55.4</ele><time>2015-09-26T09:21:54.000Z</time></trkpt>
      <trkpt lat="52.643806" lon="-1.127525"><ele>48.6</ele><time>2015-09-26T09:22:10.000Z</time></trkpt>
      <trkpt lat="52.643965" lon="-1.127376"><ele>47.8</ele><time>2015-09-26T09:22:23.000Z</time></trkpt>
      <trkpt lat="52.644132" lon="-1.127229"><ele>49.8</ele><time>2015-09-26T09:22:35.000Z</time></trkpt>
      <trkpt lat="52.644298" lon="-1.127077"><ele>48.0</ele><time>2015-09-26T09:22:46.000Z</time></trkpt>
      <trkpt lat="52.644476" lon="-1.126986"><ele>46.0</ele><time>2015-09-26T09:23:01.000Z</time></trkpt>
      <trkpt lat="52.644659" lon="-1.126960"><ele>46.6</ele><time>2015-09-26T09:23:14.000Z</time></trkpt>
      <trkpt lat="52.644801" lon="-1.127054"><ele>45.8</ele><time>2015-09-26T09:23:25.000Z</time></trkpt>
      <trkpt lat="52.644931" lon="-1.127266"><ele>46.4</ele><time>2015-09-26T09:23:39.000Z</time></trkpt>
      <trkpt lat="52.645118" lon="-1.127336"><ele>47.6</ele><time>2015-09-26T09:23:52.000Z</time></trkpt>
      <trkpt lat="52.645304" lon="-1.127278"><ele>48.0</ele><time>2015-09-26T09:24:05.000Z</time></trkpt>
      <trkpt lat="52.645484" lon="-1.127324"><ele>48.4</ele><time>2015-09-26T09:24:19.000Z</time></trkpt>
      <trkpt lat="52.645500" lon="-1.127337"><ele>47.2</ele><time>2015-09-26T09:24:21.000Z</time></trkpt>
      <trkpt lat="52.645653" lon="-1.127445"><ele>47.8</ele><time>2015-09-26T09:24:34.000Z</time></trkpt>
      <trkpt lat="52.645707" lon="-1.127600"><ele>49.8</ele><time>2015-09-26T09:24:42.000Z</time></trkpt>
      <trkpt lat="52.645836" lon="-1.127822"><ele>51.2</ele><time>2015-09-26T09:24:55.000Z</time></trkpt>
      <trkpt lat="52.645957" lon="-1.128056"><ele>51.0</ele><time>2015-09-26T09:25:08.000Z</time></trkpt>
      <trkpt lat="52.646094" lon="-1.128274"><ele>52.2</ele><time>2015-09-26T09:25:21.000Z</time></trkpt>
      <trkpt lat="52.646225" lon="-1.128479"><ele>54.0</ele><time>2015-09-26T09:25:33.000Z</time></trkpt>
      <trkpt lat="52.646251" lon="-1.128522"><ele>53.6</ele><time>2015-09-26T09:25:36.000Z</time></trkpt>
      <trkpt lat="52.646251" lon="-1.128587"><ele>54.2</ele><time>2015-09-26T09:25:41.000Z</time></trkpt>
      <trkpt lat="52.646173" lon="-1.128608"><ele>52.0</ele><time>2015-09-26T09:25:49.000Z</time></trkpt>
      <trkpt lat="52.646207" lon="-1.128412"><ele>44.2</ele><time>2015-09-26T09:26:14.000Z</time></trkpt>
      <trkpt lat="52.646395" lon="-1.128362"><ele>37.2</ele><time>2015-09-26T09:26:27.000Z</time></trkpt>
      <trkpt lat="52.646402" lon="-1.128300"><ele>38.8</ele><time>2015-09-26T09:26:28.000Z</time></trkpt>
      <trkpt lat="52.646443" lon="-1.128179"><ele>41.4</ele><time>2015-09-26T09:26:31.000Z</time></trkpt>
      <trkpt lat="52.646618" lon="-1.128061"><ele>48.2</ele><time>2015-09-26T09:26:45.000Z</time></trkpt>
      <trkpt lat="52.646785" lon="-1.127885"><ele>43.4</ele><time>2015-09-26T09:27:00.000Z</time></trkpt>
      <trkpt lat="52.646981" lon="-1.127933"><ele>51.4</ele><time>2015-09-26T09:27:12.000Z</time></trkpt>
      <trkpt lat="52.647163" lon="-1.128005"><ele>55.4</ele><time>2015-09-26T09:27:26.000Z</time></trkpt>
      <trkpt lat="52.647339" lon="-1.128087"><ele>58.4</ele><time>2015-09-26T09:27:38.000Z</time></trkpt>
      <trkpt lat="52.647506" lon="-1.128231"><ele>56.8</ele><time>2015-09-26T09:27:50.000Z</time></trkpt>
      <trkpt lat="52.647669" lon="-1.128356"><ele>57.4</ele><time>2015-09-26T09:28:01.000Z</time></trkpt>
      <trkpt lat="52.647693" lon="-1.128380"><ele>57.0</ele><time>2015-09-26T09:28:03.000Z</time></trkpt>
      <trkpt lat="52.647849" lon="-1.128529"><ele>56.2</ele><time>2015-09-26T09:28:16.000Z</time></trkpt>
      <trkpt lat="52.648005" lon="-1.128705"><ele>52.4</ele><time>2015-09-26T09:28:30.000Z</time></trkpt>
      <trkpt lat="52.648128" lon="-1.128837"><ele>48.8</ele><time>2015-09-26T09:28:41.000Z</time></trkpt>
      <trkpt lat="52.648293" lon="-1.128992"><ele>49.4</ele><time>2015-09-26T09:28:55.000Z</time></trkpt>
      <trkpt lat="52.648457" lon="-1.129132"><ele>49.2</ele><time>2015-09-26T09:29:08.000Z</time></trkpt>
      <trkpt lat="52.648633" lon="-1.129263"><ele>45.0</ele><time>2015-09-26T09:29:23.000Z</time></trkpt>
      <trkpt lat="52.648721" lon="-1.129310"><ele>44.8</ele><time>2015-09-26T09:29:29.000Z</time></trkpt>
      <trkpt lat="52.648902" lon="-1.129363"><ele>45.0</ele><time>2015-09-26T09:29:44.000Z</time></trkpt>
      <trkpt lat="52.649088" lon="-1.129426"><ele>44.8</ele><time>2015-09-26T09:29:58.000Z</time></trkpt>
      <trkpt lat="52.649094" lon="-1.129433"><ele>44.4</ele><time>2015-09-26T09:29:59.000Z</time></trkpt>
      <trkpt lat="52.649294" lon="-1.129473"><ele>44.6</ele><time>2015-09-26T09:30:12.000Z</time></trkpt>
      <trkpt lat="52.649478" lon="-1.129518"><ele>47.8</ele><time>2015-09-26T09:30:26.000Z</time></trkpt>
      <trkpt lat="52.649554" lon="-1.129556"><ele>49.0</ele><time>2015-09-26T09:30:32.000Z</time></trkpt>
      <trkpt lat="52.649682" lon="-1.129670"><ele>53.0</ele><time>2015-09-26T09:30:47.000Z</time></trkpt>
      <trkpt lat="52.649845" lon="-1.129839"><ele>52.4</ele><time>2015-09-26T09:31:02.000Z</time></trkpt>
      <trkpt lat="52.649881" lon="-1.129886"><ele>51.8</ele><time>2015-09-26T09:31:06.000Z</time></trkpt>
      <trkpt lat="52.649996" lon="-1.129936"><ele>56.4</ele><time>2015-09-26T09:32:49.000Z</time></trkpt>
      <trkpt lat="52.650143" lon="-1.130102"><ele>49.2</ele><time>2015-09-26T09:33:21.000Z</time></trkpt>
      <trkpt lat="52.650292" lon="-1.130238"><ele>47.0</ele><time>2015-09-26T09:33:54.000Z</time></trkpt>
      <trkpt lat="52.650480" lon="-1.130296"><ele>45.2</ele><time>2015-09-26T09:34:08.000Z</time></trkpt>
      <trkpt lat="52.650546" lon="-1.130318"><ele>44.0</ele><time>2015-09-26T09:34:13.000Z</time></trkpt>
      <trkpt lat="52.650732" lon="-1.130356"><ele>44.0</ele><time>2015-09-26T09:34:26.000Z</time></trkpt>
      <trkpt lat="52.650921" lon="-1.130322"><ele>44.8</ele><time>2015-09-26T09:34:39.000Z</time></trkpt>
      <trkpt lat="52.651109" lon="-1.130272"><ele>44.8</ele><time>2015-09-26T09:34:54.000Z</time></trkpt>
      <trkpt lat="52.651288" lon="-1.130225"><ele>45.8</ele><time>2015-09-26T09:35:07.000Z</time></trkpt>
      <trkpt lat="52.651303" lon="-1.130209"><ele>45.0</ele><time>2015-09-26T09:35:09.000Z</time></trkpt>
      <trkpt lat="52.651488" lon="-1.130178"><ele>43.4</ele><time>2015-09-26T09:35:23.000Z</time></trkpt>
      <trkpt lat="52.651669" lon="-1.130143"><ele>45.0</ele><time>2015-09-26T09:35:35.000Z</time></trkpt>
      <trkpt lat="52.651719" lon="-1.130141"><ele>44.8</ele><time>2015-09-26T09:35:40.000Z</time></trkpt>
      <trkpt lat="52.651759" lon="-1.130128"><ele>45.0</ele><time>2015-09-26T09:35:46.000Z</time></trkpt>
      <trkpt lat="52.651941" lon="-1.130090"><ele>46.2</ele><time>2015-09-26T09:36:03.000Z</time></trkpt>
      <trkpt lat="52.652117" lon="-1.130119"><ele>46.2</ele><time>2015-09-26T09:36:16.000Z</time></trkpt>
      <trkpt lat="52.652238" lon="-1.130150"><ele>46.4</ele><time>2015-09-26T09:36:25.000Z</time></trkpt>
      <trkpt lat="52.652428" lon="-1.130212"><ele>41.6</ele><time>2015-09-26T09:36:42.000Z</time></trkpt>
      <trkpt lat="52.652607" lon="-1.130138"><ele>39.8</ele><time>2015-09-26T09:36:56.000Z</time></trkpt>
      <trkpt lat="52.652726" lon="-1.130077"><ele>42.2</ele><time>2015-09-26T09:37:03.000Z</time></trkpt>
      <trkpt lat="52.652861" lon="-1.129993"><ele>43.4</ele><time>2015-09-26T09:37:13.000Z</time></trkpt>
      <trkpt lat="52.652997" lon="-1.129876"><ele>44.6</ele><time>2015-09-26T09:37:24.000Z</time></trkpt>
      <trkpt lat="52.653021" lon="-1.129850"><ele>44.4</ele><time>2015-09-26T09:37:26.000Z</time></trkpt>
      <trkpt lat="52.653096" lon="-1.129750"><ele>42.8</ele><time>2015-09-26T09:37:34.000Z</time></trkpt>
      <trkpt lat="52.653191" lon="-1.129609"><ele>41.0</ele><time>2015-09-26T09:37:44.000Z</time></trkpt>
      <trkpt lat="52.653211" lon="-1.129584"><ele>41.6</ele><time>2015-09-26T09:37:46.000Z</time></trkpt>
      <trkpt lat="52.653351" lon="-1.129406"><ele>44.4</ele><time>2015-09-26T09:37:58.000Z</time></trkpt>
      <trkpt lat="52.653436" lon="-1.129292"><ele>44.0</ele><time>2015-09-26T09:38:06.000Z</time></trkpt>
      <trkpt lat="52.653443" lon="-1.129256"><ele>43.2</ele><time>2015-09-26T09:38:08.000Z</time></trkpt>
      <trkpt lat="52.653463" lon="-1.129229"><ele>42.6</ele><time>2015-09-26T09:38:10.000Z</time></trkpt>
      <trkpt lat="52.653627" lon="-1.129041"><ele>44.0</ele><time>2015-09-26T09:38:24.000Z</time></trkpt>
      <trkpt lat="52.653637" lon="-1.129012"><ele>43.2</ele><time>2015-09-26T09:38:26.000Z</time></trkpt>
      <trkpt lat="52.653778" lon="-1.128808"><ele>43.0</ele><time>2015-09-26T09:38:42.000Z</time></trkpt>
      <trkpt lat="52.653796" lon="-1.128763"><ele>43.4</ele><time>2015-09-26T09:38:47.000Z</time></trkpt>
      <trkpt lat="52.653780" lon="-1.128471"><ele>51.0</ele><time>2015-09-26T09:39:03.000Z</time></trkpt>
      <trkpt lat="52.653948" lon="-1.128336"><ele>47.0</ele><time>2015-09-26T09:39:18.000Z</time></trkpt>
      <trkpt lat="52.654054" lon="-1.128184"><ele>47.8</ele><time>2015-09-26T09:39:29.000Z</time></trkpt>
      <trkpt lat="52.654195" lon="-1.127997"><ele>47.4</ele><time>2015-09-26T09:39:42.000Z</time></trkpt>
      <trkpt lat="52.654325" lon="-1.127788"><ele>46.8</ele><time>2015-09-26T09:39:54.000Z</time></trkpt>
      <trkpt lat="52.654332" lon="-1.127771"><ele>47.0</ele><time>2015-09-26T09:39:55.000Z</time></trkpt>
      <trkpt lat="52.654350" lon="-1.127718"><ele>47.6</ele><time>2015-09-26T09:39:58.000Z</time></trkpt>
      <trkpt lat="52.654454" lon="-1.127512"><ele>47.0</ele><time>2015-09-26T09:40:10.000Z</time></trkpt>
      <trkpt lat="52.654527" lon="-1.127423"><ele>47.0</ele><time>2015-09-26T09:40:16.000Z</time></trkpt>
      <trkpt lat="52.654664" lon="-1.127215"><ele>49.2</ele><time>2015-09-26T09:40:31.000Z</time></trkpt>
      <trkpt lat="52.654771" lon="-1.126975"><ele>51.8</ele><time>2015-09-26T09:40:44.000Z</time></trkpt>
      <trkpt lat="52.654864" lon="-1.126841"><ele>55.4</ele><time>2015-09-26T09:40:53.000Z</time></trkpt>
      <trkpt lat="52.654906" lon="-1.126778"><ele>57.2</ele><time>2015-09-26T09:40:58.000Z</time></trkpt>
      <trkpt lat="52.654995" lon="-1.126645"><ele>57.6</ele><time>2015-09-26T09:41:07.000Z</time></trkpt>
      <trkpt lat="52.655011" lon="-1.126612"><ele>57.6</ele><time>2015-09-26T09:41:09.000Z</time></trkpt>
      <trkpt lat="52.655085" lon="-1.126490"><ele>56.8</ele><time>2015-09-26T09:41:16.000Z</time></trkpt>
      <trkpt lat="52.655185" lon="-1.126223"><ele>55.0</ele><time>2015-09-26T09:41:29.000Z</time></trkpt>
      <trkpt lat="52.655242" lon="-1.126068"><ele>51.8</ele><time>2015-09-26T09:41:37.000Z</time></trkpt>
      <trkpt lat="52.655300" lon="-1.125940"><ele>52.2</ele><time>2015-09-26T09:41:43.000Z</time></trkpt>
      <trkpt lat="52.655297" lon="-1.125905"><ele>51.6</ele><time>2015-09-26T09:41:45.000Z</time></trkpt>
      <trkpt lat="52.655305" lon="-1.125818"><ele>50.0</ele><time>2015-09-26T09:41:49.000Z</time></trkpt>
      <trkpt lat="52.655336" lon="-1.125659"><ele>49.0</ele><time>2015-09-26T09:41:57.000Z</time></trkpt>
      <trkpt lat="52.655359" lon="-1.125444"><ele>49.2</ele><time>2015-09-26T09:42:07.000Z</time></trkpt>
      <trkpt lat="52.655399" lon="-1.125463"><ele>49.4</ele><time>2015-09-26T09:42:12.000Z</time></trkpt>
      <trkpt lat="52.655457" lon="-1.125506"><ele>51.8</ele><time>2015-09-26T09:42:20.000Z</time></trkpt>
      <trkpt lat="52.655479" lon="-1.125579"><ele>52.2</ele><time>2015-09-26T09:42:24.000Z</time></trkpt>
      <trkpt lat="52.655653" lon="-1.125683"><ele>52.2</ele><time>2015-09-26T09:42:37.000Z</time></trkpt>
      <trkpt lat="52.655684" lon="-1.125674"><ele>51.4</ele><time>2015-09-26T09:42:40.000Z</time></trkpt>
      <trkpt lat="52.655790" lon="-1.125635"><ele>48.8</ele><time>2015-09-26T09:42:49.000Z</time></trkpt>
      <trkpt lat="52.655788" lon="-1.125634"><ele>48.4</ele><time>2015-09-26T09:42:51.000Z</time></trkpt>
      <trkpt lat="52.655960" lon="-1.125557"><ele>46.8</ele><time>2015-09-26T09:43:09.000Z</time></trkpt>
      <trkpt lat="52.656105" lon="-1.125376"><ele>45.8</ele><time>2015-09-26T09:43:23.000Z</time></trkpt>
      <trkpt lat="52.656123" lon="-1.125349"><ele>46.0</ele><time>2015-09-26T09:43:25.000Z</time></trkpt>
      <trkpt lat="52.656290" lon="-1.125217"><ele>46.4</ele><time>2015-09-26T09:43:39.000Z</time></trkpt>
      <trkpt lat="52.656440" lon="-1.125219"><ele>45.2</ele><time>2015-09-26T09:43:50.000Z</time></trkpt>
      <trkpt lat="52.656611" lon="-1.125342"><ele>43.4</ele><time>2015-09-26T09:44:07.000Z</time></trkpt>
      <trkpt lat="52.656643" lon="-1.125379"><ele>42.6</ele><time>2015-09-26T09:44:11.000Z</time></trkpt>
      <trkpt lat="52.656819" lon="-1.125491"><ele>44.4</ele><time>2015-09-26T09:44:33.000Z</time></trkpt>
      <trkpt lat="52.656989" lon="-1.125602"><ele>45.4</ele><time>2015-09-26T09:44:48.000Z</time></trkpt>
      <trkpt lat="52.657145" lon="-1.125756"><ele>43.8</ele><time>2015-09-26T09:45:01.000Z</time></trkpt>
      <trkpt lat="52.657300" lon="-1.125924"><ele>41.6</ele><time>2015-09-26T09:45:15.000Z</time></trkpt>
      <trkpt lat="52.657401" lon="-1.126014"><ele>41.0</ele><time>2015-09-26T09:45:23.000Z</time></trkpt>
      <trkpt lat="52.657567" lon="-1.126156"><ele>42.0</ele><time>2015-09-26T09:45:34.000Z</time></trkpt>
      <trkpt lat="52.657719" lon="-1.126271"><ele>40.4</ele><time>2015-09-26T09:45:47.000Z</time></trkpt>
      <trkpt lat="52.657892" lon="-1.126396"><ele>45.6</ele><time>2015-09-26T09:46:00.000Z</time></trkpt>
      <trkpt lat="52.658053" lon="-1.126529"><ele>48.2</ele><time>2015-09-26T09:46:11.000Z</time></trkpt>
      <trkpt lat="52.658202" lon="-1.126721"><ele>47.2</ele><time>2015-09-26T09:46:24.000Z</time></trkpt>
      <trkpt lat="52.658334" lon="-1.126938"><ele>45.0</ele><time>2015-09-26T09:46:37.000Z</time></trkpt>
      <trkpt lat="52.658500" lon="-1.127072"><ele>47.2</ele><time>2015-09-26T09:46:53.000Z</time></trkpt>
      <trkpt lat="52.658532" lon="-1.127102"><ele>47.6</ele><time>2015-09-26T09:46:56.000Z</time></trkpt>
      <trkpt lat="52.658574" lon="-1.127139"><ele>47.6</ele><time>2015-09-26T09:47:01.000Z</time></trkpt>
      <trkpt lat="52.658757" lon="-1.127228"><ele>49.6</ele><time>2015-09-26T09:47:15.000Z</time></trkpt>
      <trkpt lat="52.658782" lon="-1.127229"><ele>50.8</ele><time>2015-09-26T09:47:17.000Z</time></trkpt>
      <trkpt lat="52.658966" lon="-1.127246"><ele>52.2</ele><time>2015-09-26T09:47:28.000Z</time></trkpt>
      <trkpt lat="52.659152" lon="-1.127254"><ele>50.4</ele><time>2015-09-26T09:47:42.000Z</time></trkpt>
      <trkpt lat="52.659327" lon="-1.127330"><ele>45.4</ele><time>2015-09-26T09:47:55.000Z</time></trkpt>
      <trkpt lat="52.659352" lon="-1.127345"><ele>44.6</ele><time>2015-09-26T09:47:58.000Z</time></trkpt>
      <trkpt lat="52.659413" lon="-1.127397"><ele>43.0</ele><time>2015-09-26T09:48:04.000Z</time></trkpt>
      <trkpt lat="52.659566" lon="-1.127571"><ele>43.4</ele><time>2015-09-26T09:48:20.000Z</time></trkpt>
      <trkpt lat="52.659718" lon="-1.127734"><ele>45.4</ele><time>2015-09-26T09:48:34.000Z</time></trkpt>
      <trkpt lat="52.659884" lon="-1.127892"><ele>44.6</ele><time>2015-09-26T09:48:50.000Z</time></trkpt>
      <trkpt lat="52.659920" lon="-1.127917"><ele>44.4</ele><time>2015-09-26T09:48:53.000Z</time></trkpt>
      <trkpt lat="52.660062" lon="-1.128129"><ele>48.4</ele><time>2015-09-26T09:49:07.000Z</time></trkpt>
      <trkpt lat="52.660109" lon="-1.128214"><ele>46.2</ele><time>2015-09-26T09:49:12.000Z</time></trkpt>
      <trkpt lat="52.660252" lon="-1.128408"><ele>44.4</ele><time>2015-09-26T09:49:25.000Z</time></trkpt>
      <trkpt lat="52.660306" lon="-1.128500"><ele>42.8</ele><time>2015-09-26T09:49:31.000Z</time></trkpt>
      <trkpt lat="52.660466" lon="-1.128684"><ele>43.4</ele><time>2015-09-26T09:49:44.000Z</time></trkpt>
      <trkpt lat="52.660632" lon="-1.128817"><ele>46.6</ele><time>2015-09-26T09:49:57.000Z</time></trkpt>
      <trkpt lat="52.660722" lon="-1.128869"><ele>47.4</ele><time>2015-09-26T09:50:04.000Z</time></trkpt>
      <trkpt lat="52.660803" lon="-1.128849"><ele>48.0</ele><time>2015-09-26T09:50:13.000Z</time></trkpt>
      <trkpt lat="52.660792" lon="-1.128544"><ele>50.4</ele><time>2015-09-26T09:50:29.000Z</time></trkpt>
      <trkpt lat="52.660775" lon="-1.128238"><ele>49.0</ele><time>2015-09-26T09:50:45.000Z</time></trkpt>
      <trkpt lat="52.660775" lon="-1.128141"><ele>49.4</ele><time>2015-09-26T09:50:49.000Z</time></trkpt>
      <trkpt lat="52.660735" lon="-1.127967"><ele>47.0</ele><time>2015-09-26T09:50:58.000Z</time></trkpt>
      <trkpt lat="52.660715" lon="-1.127806"><ele>45.2</ele><time>2015-09-26T09:51:06.000Z</time></trkpt>
      <trkpt lat="52.660686" lon="-1.127677"><ele>46.6</ele><time>2015-09-26T09:51:14.000Z</time></trkpt>
      <trkpt lat="52.660849" lon="-1.127615"><ele>47.4</ele><time>2015-09-26T09:51:28.000Z</time></trkpt>
      <trkpt lat="52.661015" lon="-1.127738"><ele>47.0</ele><time>2015-09-26T09:51:40.000Z</time></trkpt>
      <trkpt lat="52.661133" lon="-1.127820"><ele>44.8</ele><time>2015-09-26T09:51:53.000Z</time></trkpt>
      <trkpt lat="52.661160" lon="-1.127834"><ele>44.4</ele><time>2015-09-26T09:51:56.000Z</time></trkpt>
      <trkpt lat="52.661180" lon="-1.127831"><ele>44.0</ele><time>2015-09-26T09:51:58.000Z</time></trkpt>
      <trkpt lat="52.661361" lon="-1.127790"><ele>43.8</ele><time>2015-09-26T09:52:14.000Z</time></trkpt>
      <trkpt lat="52.661538" lon="-1.127749"><ele>46.8</ele><time>2015-09-26T09:52:28.000Z</time></trkpt>
      <trkpt lat="52.661725" lon="-1.127729"><ele>47.2</ele><time>2015-09-26T09:52:38.000Z</time></trkpt>
      <trkpt lat="52.661897" lon="-1.127608"><ele>46.6</ele><time>2015-09-26T09:52:50.000Z</time></trkpt>
      <trkpt lat="52.662063" lon="-1.127465"><ele>46.6</ele><time>2015-09-26T09:53:02.000Z</time></trkpt>
      <trkpt lat="52.662228" lon="-1.127337"><ele>48.4</ele><time>2015-09-26T09:53:16.000Z</time></trkpt>
      <trkpt lat="52.662397" lon="-1.127224"><ele>48.2</ele><time>2015-09-26T09:53:30.000Z</time></trkpt>
      <trkpt lat="52.662564" lon="-1.127087"><ele>48.8</ele><time>2015-09-26T09:53:44.000Z</time></trkpt>
      <trkpt lat="52.662734" lon="-1.126947"><ele>52.2</ele><time>2015-09-26T09:53:55.000Z</time></trkpt>
      <trkpt lat="52.662907" lon="-1.126832"><ele>53.8</ele><time>2015-09-26T09:54:09.000Z</time></trkpt>
      <trkpt lat="52.663018" lon="-1.126613"><ele>53.6</ele><time>2015-09-26T09:54:23.000Z</time></trkpt>
      <trkpt lat="52.663023" lon="-1.126565"><ele>50.4</ele><time>2015-09-26T09:54:25.000Z</time></trkpt>
      <trkpt lat="52.663107" lon="-1.126442"><ele>47.6</ele><time>2015-09-26T09:54:34.000Z</time></trkpt>
      <trkpt lat="52.663214" lon="-1.126200"><ele>46.6</ele><time>2015-09-26T09:54:50.000Z</time></trkpt>
      <trkpt lat="52.663292" lon="-1.125957"><ele>40.2</ele><time>2015-09-26T09:55:16.000Z</time></trkpt>
      <trkpt lat="52.663405" lon="-1.125722"><ele>43.6</ele><time>2015-09-26T09:55:39.000Z</time></trkpt>
      <trkpt lat="52.663430" lon="-1.125632"><ele>44.2</ele><time>2015-09-26T09:55:43.000Z</time></trkpt>
      <trkpt lat="52.663435" lon="-1.125562"><ele>44.6</ele><time>2015-09-26T09:55:47.000Z</time></trkpt>
      <trkpt lat="52.663471" lon="-1.125401"><ele>44.8</ele><time>2015-09-26T09:55:56.000Z</time></trkpt>
      <trkpt lat="52.663472" lon="-1.125091"><ele>45.4</ele><time>2015-09-26T09:56:09.000Z</time></trkpt>
      <trkpt lat="52.663455" lon="-1.124907"><ele>45.6</ele><time>2015-09-26T09:56:17.000Z</time></trkpt>
      <trkpt lat="52.663402" lon="-1.124616"><ele>45.2</ele><time>2015-09-26T09:56:30.000Z</time></trkpt>
      <trkpt lat="52.663392" lon="-1.124313"><ele>45.0</ele><time>2015-09-26T09:56:44.000Z</time></trkpt>
      <trkpt lat="52.663442" lon="-1.124026"><ele>45.4</ele><time>2015-09-26T09:56:57.000Z</time></trkpt>
      <trkpt lat="52.663544" lon="-1.123769"><ele>44.8</ele><time>2015-09-26T09:57:11.000Z</time></trkpt>
      <trkpt lat="52.663691" lon="-1.123589"><ele>44.2</ele><time>2015-09-26T09:57:24.000Z</time></trkpt>
      <trkpt lat="52.663708" lon="-1.123551"><ele>43.4</ele><time>2015-09-26T09:57:27.000Z</time></trkpt>
      <trkpt lat="52.663856" lon="-1.123353"><ele>43.0</ele><time>2015-09-26T09:57:42.000Z</time></trkpt>
      <trkpt lat="52.664030" lon="-1.123201"><ele>43.8</ele><time>2015-09-26T09:57:56.000Z</time></trkpt>
      <trkpt lat="52.664077" lon="-1.123170"><ele>43.6</ele><time>2015-09-26T09:58:01.000Z</time></trkpt>
      <trkpt lat="52.664243" lon="-1.123018"><ele>43.2</ele><time>2015-09-26T09:58:17.000Z</time></trkpt>
      <trkpt lat="52.664392" lon="-1.122921"><ele>38.6</ele><time>2015-09-26T09:58:31.000Z</time></trkpt>
      <trkpt lat="52.664472" lon="-1.122823"><ele>41.2</ele><time>2015-09-26T09:58:37.000Z</time></trkpt>
      <trkpt lat="52.664608" lon="-1.122603"><ele>43.8</ele><time>2015-09-26T09:58:51.000Z</time></trkpt>
      <trkpt lat="52.664648" lon="-1.122507"><ele>45.0</ele><time>2015-09-26T09:58:56.000Z</time></trkpt>
      <trkpt lat="52.664681" lon="-1.122386"><ele>44.4</ele><time>2015-09-26T09:59:02.000Z</time></trkpt>
      <trkpt lat="52.664693" lon="-1.122210"><ele>45.2</ele><time>2015-09-26T09:59:10.000Z</time></trkpt>
      <trkpt lat="52.664706" lon="-1.121905"><ele>44.2</ele><time>2015-09-26T09:59:24.000Z</time></trkpt>
      <trkpt lat="52.664700" lon="-1.121605"><ele>42.0</ele><time>2015-09-26T09:59:38.000Z</time></trkpt>
      <trkpt lat="52.664698" lon="-1.121294"><ele>42.4</ele><time>2015-09-26T09:59:52.000Z</time></trkpt>
      <trkpt lat="52.664690" lon="-1.120982"><ele>43.0</ele><time>2015-09-26T10:00:06.000Z</time></trkpt>
      <trkpt lat="52.664689" lon="-1.120903"><ele>43.2</ele><time>2015-09-26T10:00:10.000Z</time></trkpt>
      <trkpt lat="52.664770" lon="-1.120625"><ele>44.4</ele><time>2015-09-26T10:00:24.000Z</time></trkpt>
      <trkpt lat="52.664840" lon="-1.120347"><ele>40.8</ele><time>2015-09-26T10:00:39.000Z</time></trkpt>
      <trkpt lat="52.664845" lon="-1.120318"><ele>41.2</ele><time>2015-09-26T10:00:41.000Z</time></trkpt>
      <trkpt lat="52.664887" lon="-1.120177"><ele>41.4</ele><time>2015-09-26T10:00:48.000Z</time></trkpt>
      <trkpt lat="52.664898" lon="-1.120036"><ele>41.2</ele><time>2015-09-26T10:00:55.000Z</time></trkpt>
      <trkpt lat="52.664896" lon="-1.119799"><ele>42.6</ele><time>2015-09-26T10:01:06.000Z</time></trkpt>
      <trkpt lat="52.664897" lon="-1.119733"><ele>42.6</ele><time>2015-09-26T10:01:09.000Z</time></trkpt>
      <trkpt lat="52.664880" lon="-1.119422"><ele>44.8</ele><time>2015-09-26T10:01:24.000Z</time></trkpt>
      <trkpt lat="52.664892" lon="-1.119111"><ele>45.6</ele><time>2015-09-26T10:01:37.000Z</time></trkpt>
      <trkpt lat="52.664941" lon="-1.118821"><ele>47.4</ele><time>2015-09-26T10:01:51.000Z</time></trkpt>
      <trkpt lat="52.664977" lon="-1.118511"><ele>47.8</ele><time>2015-09-26T10:02:04.000Z</time></trkpt>
      <trkpt lat="52.665048" lon="-1.118226"><ele>50.0</ele><time>2015-09-26T10:02:18.000Z</time></trkpt>
      <trkpt lat="52.665167" lon="-1.117991"><ele>48.0</ele><time>2015-09-26T10:02:33.000Z</time></trkpt>
      <trkpt lat="52.665240" lon="-1.117859"><ele>47.0</ele><time>2015-09-26T10:02:41.000Z</time></trkpt>
      <trkpt lat="52.665313" lon="-1.117762"><ele>47.2</ele><time>2015-09-26T10:02:48.000Z</time></trkpt>
      <trkpt lat="52.665457" lon="-1.117569"><ele>49.8</ele><time>2015-09-26T10:03:05.000Z</time></trkpt>
      <trkpt lat="52.665630" lon="-1.117474"><ele>54.2</ele><time>2015-09-26T10:03:20.000Z</time></trkpt>
      <trkpt lat="52.665819" lon="-1.117439"><ele>52.8</ele><time>2015-09-26T10:03:36.000Z</time></trkpt>
      <trkpt lat="52.666003" lon="-1.117495"><ele>52.4</ele><time>2015-09-26T10:03:50.000Z</time></trkpt>
      <trkpt lat="52.666080" lon="-1.117569"><ele>49.6</ele><time>2015-09-26T10:03:57.000Z</time></trkpt>
      <trkpt lat="52.666236" lon="-1.117734"><ele>47.4</ele><time>2015-09-26T10:04:11.000Z</time></trkpt>
      <trkpt lat="52.666379" lon="-1.117911"><ele>42.8</ele><time>2015-09-26T10:04:26.000Z</time></trkpt>
      <trkpt lat="52.666560" lon="-1.117982"><ele>42.2</ele><time>2015-09-26T10:04:40.000Z</time></trkpt>
      <trkpt lat="52.666696" lon="-1.118067"><ele>38.4</ele><time>2015-09-26T10:04:53.000Z</time></trkpt>
      <trkpt lat="52.666871" lon="-1.117975"><ele>41.6</ele><time>2015-09-26T10:05:04.000Z</time></trkpt>
      <trkpt lat="52.667062" lon="-1.117937"><ele>51.0</ele><time>2015-09-26T10:05:17.000Z</time></trkpt>
      <trkpt lat="52.667252" lon="-1.117965"><ele>50.8</ele><time>2015-09-26T10:05:31.000Z</time></trkpt>
      <trkpt lat="52.667442" lon="-1.118011"><ele>46.8</ele><time>2015-09-26T10:05:45.000Z</time></trkpt>
      <trkpt lat="52.667453" lon="-1.118008"><ele>46.6</ele><time>2015-09-26T10:05:46.000Z</time></trkpt>
      <trkpt lat="52.667626" lon="-1.117977"><ele>46.0</ele><time>2015-09-26T10:05:59.000Z</time></trkpt>
      <trkpt lat="52.667754" lon="-1.117970"><ele>46.0</ele><time>2015-09-26T10:06:08.000Z</time></trkpt>
      <trkpt lat="52.667875" lon="-1.117889"><ele>45.4</ele><time>2015-09-26T10:06:18.000Z</time></trkpt>
      <trkpt lat="52.668034" lon="-1.117729"><ele>49.2</ele><time>2015-09-26T10:06:31.000Z</time></trkpt>
      <trkpt lat="52.668182" lon="-1.117548"><ele>48.8</ele><time>2015-09-26T10:06:44.000Z</time></trkpt>
      <trkpt lat="52.668352" lon="-1.117447"><ele>47.4</ele><time>2015-09-26T10:06:57.000Z</time></trkpt>
      <trkpt lat="52.668536" lon="-1.117392"><ele>46.8</ele><time>2015-09-26T10:07:11.000Z</time></trkpt>
      <trkpt lat="52.668721" lon="-1.117436"><ele>46.6</ele><time>2015-09-26T10:07:26.000Z</time></trkpt>
      <trkpt lat="52.668730" lon="-1.117438"><ele>46.8</ele><time>2015-09-26T10:07:27.000Z</time></trkpt>
      <trkpt lat="52.668841" lon="-1.117434"><ele>45.4</ele><time>2015-09-26T10:07:35.000Z</time></trkpt>
      <trkpt lat="52.668858" lon="-1.117425"><ele>46.0</ele><time>2015-09-26T10:07:37.000Z</time></trkpt>
      <trkpt lat="52.669028" lon="-1.117312"><ele>47.2</ele><time>2015-09-26T10:07:49.000Z</time></trkpt>
      <trkpt lat="52.669188" lon="-1.117147"><ele>48.0</ele><time>2015-09-26T10:08:01.000Z</time></trkpt>
      <trkpt lat="52.669214" lon="-1.117101"><ele>48.2</ele><time>2015-09-26T10:08:04.000Z</time></trkpt>
      <trkpt lat="52.669233" lon="-1.117049"><ele>49.0</ele><time>2015-09-26T10:08:07.000Z</time></trkpt>
      <trkpt lat="52.669328" lon="-1.116862"><ele>53.2</ele><time>2015-09-26T10:08:17.000Z</time></trkpt>
      <trkpt lat="52.669401" lon="-1.116576"><ele>50.6</ele><time>2015-09-26T10:08:31.000Z</time></trkpt>
      <trkpt lat="52.669473" lon="-1.116307"><ele>48.2</ele><time>2015-09-26T10:08:44.000Z</time></trkpt>
      <trkpt lat="52.669613" lon="-1.116105"><ele>48.0</ele><time>2015-09-26T10:08:58.000Z</time></trkpt>
      <trkpt lat="52.669783" lon="-1.116063"><ele>45.8</ele><time>2015-09-26T10:09:11.000Z</time></trkpt>
      <trkpt lat="52.669804" lon="-1.116060"><ele>46.0</ele><time>2015-09-26T10:09:13.000Z</time></trkpt>
      <trkpt lat="52.669887" lon="-1.116121"><ele>47.6</ele><time>2015-09-26T10:09:23.000Z</time></trkpt>
      <trkpt lat="52.670036" lon="-1.116312"><ele>47.8</ele><time>2015-09-26T10:09:37.000Z</time></trkpt>
      <trkpt lat="52.670187" lon="-1.116481"><ele>46.0</ele><time>2015-09-26T10:09:50.000Z</time></trkpt>
      <trkpt lat="52.670221" lon="-1.116514"><ele>44.8</ele><time>2015-09-26T10:09:54.000Z</time></trkpt>
      <trkpt lat="52.670344" lon="-1.116577"><ele>44.2</ele><time>2015-09-26T10:10:04.000Z</time></trkpt>
      <trkpt lat="52.670476" lon="-1.116545"><ele>46.4</ele><time>2015-09-26T10:10:13.000Z</time></trkpt>
      <trkpt lat="52.670645" lon="-1.116435"><ele>50.2</ele><time>2015-09-26T10:10:25.000Z</time></trkpt>
      <trkpt lat="52.670795" lon="-1.116238"><ele>49.8</ele><time>2015-09-26T10:10:39.000Z</time></trkpt>
      <trkpt lat="52.670930" lon="-1.116043"><ele>49.6</ele><time>2015-09-26T10:10:54.000Z</time></trkpt>
      <trkpt lat="52.671070" lon="-1.115830"><ele>51.0</ele><time>2015-09-26T10:11:08.000Z</time></trkpt>
      <trkpt lat="52.671091" lon="-1.115805"><ele>50.4</ele><time>2015-09-26T10:11:10.000Z</time></trkpt>
      <trkpt lat="52.671220" lon="-1.115585"><ele>49.4</ele><time>2015-09-26T10:11:25.000Z</time></trkpt>
      <trkpt lat="52.671350" lon="-1.115374"><ele>49.4</ele><time>2015-09-26T10:11:37.000Z</time></trkpt>
      <trkpt lat="52.671467" lon="-1.115132"><ele>50.4</ele><time>2015-09-26T10:11:51.000Z</time></trkpt>
      <trkpt lat="52.671605" lon="-1.114938"><ele>44.2</ele><time>2015-09-26T10:12:06.000Z</time></trkpt>
      <trkpt lat="52.671719" lon="-1.114848"><ele>45.4</ele><time>2015-09-26T10:12:17.000Z</time></trkpt>
      <trkpt lat="52.671869" lon="-1.114672"><ele>50.0</ele><time>2015-09-26T10:12:30.000Z</time></trkpt>
      <trkpt lat="52.672007" lon="-1.114471"><ele>51.2</ele><time>2015-09-26T10:12:41.000Z</time></trkpt>
      <trkpt lat="52.672147" lon="-1.114284"><ele>50.8</ele><time>2015-09-26T10:12:53.000Z</time></trkpt>
      <trkpt lat="52.672277" lon="-1.114164"><ele>50.8</ele><time>2015-09-26T10:13:04.000Z</time></trkpt>
      <trkpt lat="52.672456" lon="-1.114138"><ele>48.2</ele><time>2015-09-26T10:13:20.000Z</time></trkpt>
      <trkpt lat="52.672630" lon="-1.114233"><ele>44.6</ele><time>2015-09-26T10:13:35.000Z</time></trkpt>
      <trkpt lat="52.672662" lon="-1.114263"><ele>44.2</ele><time>2015-09-26T10:13:38.000Z</time></trkpt>
      <trkpt lat="52.672789" lon="-1.114493"><ele>38.6</ele><time>2015-09-26T10:13:55.000Z</time></trkpt>
      <trkpt lat="52.672913" lon="-1.114739"><ele>41.4</ele><time>2015-09-26T10:14:08.000Z</time></trkpt>
      <trkpt lat="52.673037" lon="-1.114967"><ele>42.4</ele><time>2015-09-26T10:14:21.000Z</time></trkpt>
      <trkpt lat="52.673173" lon="-1.115179"><ele>44.2</ele><time>2015-09-26T10:14:34.000Z</time></trkpt>
      <trkpt lat="52.673298" lon="-1.115390"><ele>45.8</ele><time>2015-09-26T10:14:48.000Z</time></trkpt>
      <trkpt lat="52.673307" lon="-1.115402"><ele>46.0</ele><time>2015-09-26T10:14:49.000Z</time></trkpt>
      <trkpt lat="52.673452" lon="-1.115584"><ele>49.6</ele><time>2015-09-26T10:15:02.000Z</time></trkpt>
      <trkpt lat="52.673513" lon="-1.115669"><ele>50.2</ele><time>2015-09-26T10:15:08.000Z</time></trkpt>
      <trkpt lat="52.673668" lon="-1.115848"><ele>50.0</ele><time>2015-09-26T10:15:22.000Z</time></trkpt>
      <trkpt lat="52.673815" lon="-1.115973"><ele>50.6</ele><time>2015-09-26T10:15:34.000Z</time></trkpt>
      <trkpt lat="52.673832" lon="-1.115949"><ele>51.0</ele><time>2015-09-26T10:15:36.000Z</time></trkpt>
      <trkpt lat="52.673895" lon="-1.115816"><ele>52.6</ele><time>2015-09-26T10:15:44.000Z</time></trkpt>
      <trkpt lat="52.673994" lon="-1.115883"><ele>50.6</ele><time>2015-09-26T10:15:53.000Z</time></trkpt>
      <trkpt lat="52.674172" lon="-1.115851"><ele>46.0</ele><time>2015-09-26T10:16:08.000Z</time></trkpt>
      <trkpt lat="52.674364" lon="-1.115871"><ele>44.4</ele><time>2015-09-26T10:16:23.000Z</time></trkpt>
      <trkpt lat="52.674557" lon="-1.115850"><ele>44.4</ele><time>2015-09-26T10:16:37.000Z</time></trkpt>
      <trkpt lat="52.674752" lon="-1.115860"><ele>45.2</ele><time>2015-09-26T10:16:52.000Z</time></trkpt>
      <trkpt lat="52.674914" lon="-1.115727"><ele>45.2</ele><time>2015-09-26T10:17:06.000Z</time></trkpt>
      <trkpt lat="52.675039" lon="-1.115499"><ele>45.4</ele><time>2015-09-26T10:17:20.000Z</time></trkpt>
      <trkpt lat="52.675162" lon="-1.115269"><ele>45.0</ele><time>2015-09-26T10:17:36.000Z</time></trkpt>
      <trkpt lat="52.675279" lon="-1.115030"><ele>41.8</ele><time>2015-09-26T10:17:51.000Z</time></trkpt>
      <trkpt lat="52.675313" lon="-1.114718"><ele>43.6</ele><time>2015-09-26T10:18:05.000Z</time></trkpt>
      <trkpt lat="52.675299" lon="-1.114511"><ele>43.6</ele><time>2015-09-26T10:18:14.000Z</time></trkpt>
      <trkpt lat="52.675281" lon="-1.114319"><ele>41.8</ele><time>2015-09-26T10:18:24.000Z</time></trkpt>
      <trkpt lat="52.675277" lon="-1.114202"><ele>40.4</ele><time>2015-09-26T10:18:29.000Z</time></trkpt>
      <trkpt lat="52.675246" lon="-1.113895"><ele>38.4</ele><time>2015-09-26T10:18:43.000Z</time></trkpt>
      <trkpt lat="52.675214" lon="-1.113696"><ele>37.4</ele><time>2015-09-26T10:18:52.000Z</time></trkpt>
      <trkpt lat="52.675199" lon="-1.113626"><ele>39.4</ele><time>2015-09-26T10:18:56.000Z</time></trkpt>
      <trkpt lat="52.675169" lon="-1.113332"><ele>39.4</ele><time>2015-09-26T10:19:11.000Z</time></trkpt>
      <trkpt lat="52.675145" lon="-1.113014"><ele>40.8</ele><time>2015-09-26T10:19:26.000Z</time></trkpt>
      <trkpt lat="52.675110" lon="-1.112714"><ele>42.2</ele><time>2015-09-26T10:19:38.000Z</time></trkpt>
      <trkpt lat="52.675067" lon="-1.112405"><ele>46.4</ele><time>2015-09-26T10:19:51.000Z</time></trkpt>
      <trkpt lat="52.675033" lon="-1.112109"><ele>46.2</ele><time>2015-09-26T10:20:04.000Z</time></trkpt>
      <trkpt lat="52.675006" lon="-1.111798"><ele>46.2</ele><time>2015-09-26T10:20:18.000Z</time></trkpt>
      <trkpt lat="52.674983" lon="-1.111487"><ele>44.8</ele><time>2015-09-26T10:20:32.000Z</time></trkpt>
      <trkpt lat="52.674925" lon="-1.111193"><ele>44.4</ele><time>2015-09-26T10:20:46.000Z</time></trkpt>
      <trkpt lat="52.674829" lon="-1.110919"><ele>45.0</ele><time>2015-09-26T10:21:00.000Z</time></trkpt>
      <trkpt lat="52.674728" lon="-1.110662"><ele>44.8</ele><time>2015-09-26T10:21:14.000Z</time></trkpt>
      <trkpt lat="52.674613" lon="-1.110404"><ele>45.4</ele><time>2015-09-26T10:21:29.000Z</time></trkpt>
      <trkpt lat="52.674576" lon="-1.110312"><ele>44.4</ele><time>2015-09-26T10:21:34.000Z</time></trkpt>
      <trkpt lat="52.674489" lon="-1.110043"><ele>44.2</ele><time>2015-09-26T10:21:48.000Z</time></trkpt>
      <trkpt lat="52.674450" lon="-1.109917"><ele>43.2</ele><time>2015-09-26T10:21:54.000Z</time></trkpt>
      <trkpt lat="52.674364" lon="-1.109654"><ele>42.8</ele><time>2015-09-26T10:22:07.000Z</time></trkpt>
      <trkpt lat="52.674261" lon="-1.109386"><ele>43.0</ele><time>2015-09-26T10:22:20.000Z</time></trkpt>
      <trkpt lat="52.674168" lon="-1.109131"><ele>43.8</ele><time>2015-09-26T10:22:33.000Z</time></trkpt>
      <trkpt lat="52.674061" lon="-1.108868"><ele>43.8</ele><time>2015-09-26T10:22:47.000Z</time></trkpt>
      <trkpt lat="52.673978" lon="-1.108600"><ele>43.2</ele><time>2015-09-26T10:23:00.000Z</time></trkpt>
      <trkpt lat="52.673906" lon="-1.108436"><ele>43.6</ele><time>2015-09-26T10:23:09.000Z</time></trkpt>
      <trkpt lat="52.673728" lon="-1.108402"><ele>44.2</ele><time>2015-09-26T10:23:22.000Z</time></trkpt>
      <trkpt lat="52.673541" lon="-1.108442"><ele>45.8</ele><time>2015-09-26T10:23:35.000Z</time></trkpt>
      <trkpt lat="52.673361" lon="-1.108535"><ele>47.0</ele><time>2015-09-26T10:23:48.000Z</time></trkpt>
      <trkpt lat="52.673348" lon="-1.108545"><ele>47.0</ele><time>2015-09-26T10:23:49.000Z</time></trkpt>
      <trkpt lat="52.673192" lon="-1.108707"><ele>48.6</ele><time>2015-09-26T10:24:02.000Z</time></trkpt>
      <trkpt lat="52.673086" lon="-1.108955"><ele>49.6</ele><time>2015-09-26T10:24:17.000Z</time></trkpt>
      <trkpt lat="52.672976" lon="-1.109194"><ele>51.2</ele><time>2015-09-26T10:24:31.000Z</time></trkpt>
      <trkpt lat="52.672819" lon="-1.109352"><ele>53.4</ele><time>2015-09-26T10:24:45.000Z</time></trkpt>
      <trkpt lat="52.672660" lon="-1.109517"><ele>53.6</ele><time>2015-09-26T10:24:58.000Z</time></trkpt>
      <trkpt lat="52.672502" lon="-1.109664"><ele>51.8</ele><time>2015-09-26T10:25:11.000Z</time></trkpt>
      <trkpt lat="52.672338" lon="-1.109808"><ele>50.4</ele><time>2015-09-26T10:25:25.000Z</time></trkpt>
      <trkpt lat="52.672159" lon="-1.109856"><ele>48.0</ele><time>2015-09-26T10:25:39.000Z</time></trkpt>
      <trkpt lat="52.671985" lon="-1.109947"><ele>45.6</ele><time>2015-09-26T10:25:52.000Z</time></trkpt>
      <trkpt lat="52.671820" lon="-1.110086"><ele>45.6</ele><time>2015-09-26T10:26:05.000Z</time></trkpt>
      <trkpt lat="52.671766" lon="-1.110155"><ele>45.0</ele><time>2015-09-26T10:26:10.000Z</time></trkpt>
      <trkpt lat="52.671648" lon="-1.110316"><ele>46.8</ele><time>2015-09-26T10:26:22.000Z</time></trkpt>
      <trkpt lat="52.671519" lon="-1.110522"><ele>49.0</ele><time>2015-09-26T10:26:37.000Z</time></trkpt>
      <trkpt lat="52.671380" lon="-1.110734"><ele>48.8</ele><time>2015-09-26T10:26:52.000Z</time></trkpt>
      <trkpt lat="52.671243" lon="-1.110931"><ele>49.6</ele><time>2015-09-26T10:27:06.000Z</time></trkpt>
      <trkpt lat="52.671079" lon="-1.111079"><ele>49.2</ele><time>2015-09-26T10:27:20.000Z</time></trkpt>
      <trkpt lat="52.670935" lon="-1.111269"><ele>48.2</ele><time>2015-09-26T10:27:34.000Z</time></trkpt>
      <trkpt lat="52.670807" lon="-1.111484"><ele>47.4</ele><time>2015-09-26T10:27:48.000Z</time></trkpt>
      <trkpt lat="52.670757" lon="-1.111573"><ele>46.6</ele><time>2015-09-26T10:27:54.000Z</time></trkpt>
      <trkpt lat="52.670756" lon="-1.111582"><ele>46.4</ele><time>2015-09-26T10:27:56.000Z</time></trkpt>
      <trkpt lat="52.670642" lon="-1.111810"><ele>46.6</ele><time>2015-09-26T10:28:18.000Z</time></trkpt>
      <trkpt lat="52.670576" lon="-1.112084"><ele>45.4</ele><time>2015-09-26T10:28:31.000Z</time></trkpt>
      <trkpt lat="52.670619" lon="-1.112377"><ele>45.8</ele><time>2015-09-26T10:28:44.000Z</time></trkpt>
      <trkpt lat="52.670717" lon="-1.112645"><ele>45.2</ele><time>2015-09-26T10:28:58.000Z</time></trkpt>
      <trkpt lat="52.670758" lon="-1.112753"><ele>45.6</ele><time>2015-09-26T10:29:04.000Z</time></trkpt>
      <trkpt lat="52.670944" lon="-1.112773"><ele>45.0</ele><time>2015-09-26T10:29:17.000Z</time></trkpt>
      <trkpt lat="52.671127" lon="-1.112834"><ele>44.8</ele><time>2015-09-26T10:29:31.000Z</time></trkpt>
      <trkpt lat="52.671311" lon="-1.112924"><ele>45.2</ele><time>2015-09-26T10:29:46.000Z</time></trkpt>
      <trkpt lat="52.671481" lon="-1.113017"><ele>47.4</ele><time>2015-09-26T10:29:59.000Z</time></trkpt>
      <trkpt lat="52.671658" lon="-1.113062"><ele>50.2</ele><time>2015-09-26T10:30:12.000Z</time></trkpt>
      <trkpt lat="52.671824" lon="-1.113174"><ele>48.4</ele><time>2015-09-26T10:30:25.000Z</time></trkpt>
      <trkpt lat="52.671995" lon="-1.113265"><ele>47.0</ele><time>2015-09-26T10:30:39.000Z</time></trkpt>
      <trkpt lat="52.672166" lon="-1.113366"><ele>45.8</ele><time>2015-09-26T10:30:52.000Z</time></trkpt>
      <trkpt lat="52.672338" lon="-1.113455"><ele>46.6</ele><time>2015-09-26T10:31:06.000Z</time></trkpt>
      <trkpt lat="52.672519" lon="-1.113529"><ele>46.0</ele><time>2015-09-26T10:31:20.000Z</time></trkpt>
      <trkpt lat="52.672700" lon="-1.113582"><ele>42.8</ele><time>2015-09-26T10:31:34.000Z</time></trkpt>
      <trkpt lat="52.672877" lon="-1.113679"><ele>41.8</ele><time>2015-09-26T10:31:48.000Z</time></trkpt>
      <trkpt lat="52.673009" lon="-1.113897"><ele>40.6</ele><time>2015-09-26T10:32:02.000Z</time></trkpt>
      <trkpt lat="52.673111" lon="-1.114147"><ele>43.0</ele><time>2015-09-26T10:32:15.000Z</time></trkpt>
      <trkpt lat="52.673122" lon="-1.114192"><ele>43.4</ele><time>2015-09-26T10:32:17.000Z</time></trkpt>
      <trkpt lat="52.673207" lon="-1.114472"><ele>45.6</ele><time>2015-09-26T10:32:31.000Z</time></trkpt>
      <trkpt lat="52.673280" lon="-1.114745"><ele>44.0</ele><time>2015-09-26T10:32:45.000Z</time></trkpt>
      <trkpt lat="52.673389" lon="-1.115010"><ele>43.0</ele><time>2015-09-26T10:32:59.000Z</time></trkpt>
      <trkpt lat="52.673512" lon="-1.115243"><ele>42.0</ele><time>2015-09-26T10:33:13.000Z</time></trkpt>
      <trkpt lat="52.673648" lon="-1.115475"><ele>45.2</ele><time>2015-09-26T10:33:27.000Z</time></trkpt>
      <trkpt lat="52.673794" lon="-1.115660"><ele>43.2</ele><time>2015-09-26T10:33:40.000Z</time></trkpt>
      <trkpt lat="52.673958" lon="-1.115802"><ele>41.6</ele><time>2015-09-26T10:33:56.000Z</time></trkpt>
      <trkpt lat="52.673964" lon="-1.115813"><ele>41.8</ele><time>2015-09-26T10:33:57.000Z</time></trkpt>
      <trkpt lat="52.673939" lon="-1.115876"><ele>42.4</ele><time>2015-09-26T10:34:03.000Z</time></trkpt>
      <trkpt lat="52.673871" lon="-1.115845"><ele>42.8</ele><time>2015-09-26T10:34:09.000Z</time></trkpt>
      <trkpt lat="52.673855" lon="-1.115865"><ele>42.8</ele><time>2015-09-26T10:34:11.000Z</time></trkpt>
      <trkpt lat="52.673816" lon="-1.116020"><ele>43.2</ele><time>2015-09-26T10:34:20.000Z</time></trkpt>
      <trkpt lat="52.673773" lon="-1.116298"><ele>43.8</ele><time>2015-09-26T10:34:33.000Z</time></trkpt>
      <trkpt lat="52.673795" lon="-1.116352"><ele>44.2</ele><time>2015-09-26T10:34:36.000Z</time></trkpt>
      <trkpt lat="52.673958" lon="-1.116476"><ele>43.2</ele><time>2015-09-26T10:34:52.000Z</time></trkpt>
      <trkpt lat="52.674049" lon="-1.116503"><ele>44.6</ele><time>2015-09-26T10:34:59.000Z</time></trkpt>
      <trkpt lat="52.674226" lon="-1.116560"><ele>49.6</ele><time>2015-09-26T10:35:11.000Z</time></trkpt>
      <trkpt lat="52.674403" lon="-1.116668"><ele>49.2</ele><time>2015-09-26T10:35:25.000Z</time></trkpt>
      <trkpt lat="52.674573" lon="-1.116804"><ele>45.4</ele><time>2015-09-26T10:35:39.000Z</time></trkpt>
      <trkpt lat="52.674682" lon="-1.116890"><ele>44.4</ele><time>2015-09-26T10:35:49.000Z</time></trkpt>
      <trkpt lat="52.674854" lon="-1.116790"><ele>46.8</ele><time>2015-09-26T10:36:03.000Z</time></trkpt>
      <trkpt lat="52.674896" lon="-1.116771"><ele>47.2</ele><time>2015-09-26T10:36:09.000Z</time></trkpt>
      <trkpt lat="52.675079" lon="-1.116719"><ele>45.0</ele><time>2015-09-26T10:36:30.000Z</time></trkpt>
      <trkpt lat="52.675242" lon="-1.116592"><ele>45.6</ele><time>2015-09-26T10:36:45.000Z</time></trkpt>
      <trkpt lat="52.675416" lon="-1.116454"><ele>44.6</ele><time>2015-09-26T10:36:59.000Z</time></trkpt>
      <trkpt lat="52.675591" lon="-1.116325"><ele>45.6</ele><time>2015-09-26T10:37:14.000Z</time></trkpt>
      <trkpt lat="52.675708" lon="-1.116261"><ele>45.6</ele><time>2015-09-26T10:37:24.000Z</time></trkpt>
      <trkpt lat="52.675814" lon="-1.116163"><ele>46.0</ele><time>2015-09-26T10:37:34.000Z</time></trkpt>
      <trkpt lat="52.675970" lon="-1.115991"><ele>48.4</ele><time>2015-09-26T10:37:48.000Z</time></trkpt>
      <trkpt lat="52.676128" lon="-1.115845"><ele>49.8</ele><time>2015-09-26T10:38:02.000Z</time></trkpt>
      <trkpt lat="52.676290" lon="-1.115699"><ele>49.8</ele><time>2015-09-26T10:38:15.000Z</time></trkpt>
      <trkpt lat="52.676440" lon="-1.115514"><ele>49.0</ele><time>2015-09-26T10:38:30.000Z</time></trkpt>
      <trkpt lat="52.676593" lon="-1.115342"><ele>50.2</ele><time>2015-09-26T10:38:44.000Z</time></trkpt>
      <trkpt lat="52.676739" lon="-1.115166"><ele>48.4</ele><time>2015-09-26T10:39:00.000Z</time></trkpt>
      <trkpt lat="52.676769" lon="-1.115083"><ele>47.6</ele><time>2015-09-26T10:39:05.000Z</time></trkpt>
      <trkpt lat="52.676771" lon="-1.115034"><ele>46.8</ele><time>2015-09-26T10:39:09.000Z</time></trkpt>
      <trkpt lat="52.676828" lon="-1.114994"><ele>52.2</ele><time>2015-09-26T10:41:10.000Z</time></trkpt>
      <trkpt lat="52.676757" lon="-1.115158"><ele>49.2</ele><time>2015-09-26T10:42:22.000Z</time></trkpt>
      <trkpt lat="52.676629" lon="-1.115303"><ele>49.0</ele><time>2015-09-26T10:42:35.000Z</time></trkpt>
      <trkpt lat="52.676515" lon="-1.115451"><ele>44.2</ele><time>2015-09-26T10:43:08.000Z</time></trkpt>
      <trkpt lat="52.676369" lon="-1.115656"><ele>46.2</ele><time>2015-09-26T10:43:23.000Z</time></trkpt>
      <trkpt lat="52.676317" lon="-1.115702"><ele>46.0</ele><time>2015-09-26T10:43:27.000Z</time></trkpt>
      <trkpt lat="52.676147" lon="-1.115848"><ele>45.0</ele><time>2015-09-26T10:43:42.000Z</time></trkpt>
      <trkpt lat="52.675984" lon="-1.115996"><ele>43.6</ele><time>2015-09-26T10:44:01.000Z</time></trkpt>
      <trkpt lat="52.675831" lon="-1.116156"><ele>44.0</ele><time>2015-09-26T10:44:14.000Z</time></trkpt>
      <trkpt lat="52.675653" lon="-1.116264"><ele>45.6</ele><time>2015-09-26T10:44:30.000Z</time></trkpt>
      <trkpt lat="52.675603" lon="-1.116270"><ele>45.4</ele><time>2015-09-26T10:44:34.000Z</time></trkpt>
      <trkpt lat="52.675451" lon="-1.116440"><ele>43.2</ele><time>2015-09-26T10:44:46.000Z</time></trkpt>
      <trkpt lat="52.675288" lon="-1.116607"><ele>47.2</ele><time>2015-09-26T10:44:59.000Z</time></trkpt>
      <trkpt lat="52.675119" lon="-1.116703"><ele>50.0</ele><time>2015-09-26T10:45:13.000Z</time></trkpt>
      <trkpt lat="52.674941" lon="-1.116778"><ele>49.0</ele><time>2015-09-26T10:45:26.000Z</time></trkpt>
      <trkpt lat="52.674763" lon="-1.116867"><ele>49.6</ele><time>2015-09-26T10:45:41.000Z</time></trkpt>
      <trkpt lat="52.674736" lon="-1.116890"><ele>49.6</ele><time>2015-09-26T10:45:45.000Z</time></trkpt>
      <trkpt lat="52.674635" lon="-1.116897"><ele>48.8</ele><time>2015-09-26T10:45:57.000Z</time></trkpt>
      <trkpt lat="52.674460" lon="-1.116829"><ele>44.8</ele><time>2015-09-26T10:46:12.000Z</time></trkpt>
      <trkpt lat="52.674391" lon="-1.116819"><ele>43.0</ele><time>2015-09-26T10:46:18.000Z</time></trkpt>
      <trkpt lat="52.674213" lon="-1.116757"><ele>40.2</ele><time>2015-09-26T10:46:34.000Z</time></trkpt>
      <trkpt lat="52.674040" lon="-1.116623"><ele>42.2</ele><time>2015-09-26T10:46:46.000Z</time></trkpt>
      <trkpt lat="52.673983" lon="-1.116578"><ele>44.0</ele><time>2015-09-26T10:46:50.000Z</time></trkpt>
      <trkpt lat="52.673858" lon="-1.116450"><ele>47.4</ele><time>2015-09-26T10:47:02.000Z</time></trkpt>
      <trkpt lat="52.673809" lon="-1.116338"><ele>48.2</ele><time>2015-09-26T10:47:09.000Z</time></trkpt>
      <trkpt lat="52.673809" lon="-1.116259"><ele>48.0</ele><time>2015-09-26T10:47:12.000Z</time></trkpt>
      <trkpt lat="52.673835" lon="-1.116122"><ele>51.4</ele><time>2015-09-26T10:47:19.000Z</time></trkpt>
      <trkpt lat="52.673852" lon="-1.116069"><ele>53.2</ele><time>2015-09-26T10:47:23.000Z</time></trkpt>
      <trkpt lat="52.673704" lon="-1.115912"><ele>50.0</ele><time>2015-09-26T10:47:42.000Z</time></trkpt>
      <trkpt lat="52.673545" lon="-1.115759"><ele>45.0</ele><time>2015-09-26T10:47:57.000Z</time></trkpt>
      <trkpt lat="52.673515" lon="-1.115721"><ele>43.6</ele><time>2015-09-26T10:48:00.000Z</time></trkpt>
      <trkpt lat="52.673396" lon="-1.115550"><ele>41.2</ele><time>2015-09-26T10:48:11.000Z</time></trkpt>
      <trkpt lat="52.673264" lon="-1.115331"><ele>41.0</ele><time>2015-09-26T10:48:25.000Z</time></trkpt>
      <trkpt lat="52.673129" lon="-1.115129"><ele>41.0</ele><time>2015-09-26T10:48:39.000Z</time></trkpt>
      <trkpt lat="52.673005" lon="-1.114893"><ele>41.0</ele><time>2015-09-26T10:48:53.000Z</time></trkpt>
      <trkpt lat="52.672878" lon="-1.114664"><ele>43.4</ele><time>2015-09-26T10:49:06.000Z</time></trkpt>
      <trkpt lat="52.672765" lon="-1.114434"><ele>44.6</ele><time>2015-09-26T10:49:19.000Z</time></trkpt>
      <trkpt lat="52.672621" lon="-1.114260"><ele>43.2</ele><time>2015-09-26T10:49:33.000Z</time></trkpt>
      <trkpt lat="52.672501" lon="-1.114145"><ele>42.6</ele><time>2015-09-26T10:49:45.000Z</time></trkpt>
      <trkpt lat="52.672498" lon="-1.114142"><ele>43.2</ele><time>2015-09-26T10:49:47.000Z</time></trkpt>
      <trkpt lat="52.672338" lon="-1.114166"><ele>45.8</ele><time>2015-09-26T10:50:22.000Z</time></trkpt>
      <trkpt lat="52.672162" lon="-1.114249"><ele>45.6</ele><time>2015-09-26T10:50:37.000Z</time></trkpt>
      <trkpt lat="52.672011" lon="-1.114439"><ele>45.8</ele><time>2015-09-26T10:50:51.000Z</time></trkpt>
      <trkpt lat="52.671879" lon="-1.114644"><ele>47.4</ele><time>2015-09-26T10:51:06.000Z</time></trkpt>
      <trkpt lat="52.671724" lon="-1.114816"><ele>44.0</ele><time>2015-09-26T10:51:21.000Z</time></trkpt>
      <trkpt lat="52.671576" lon="-1.114996"><ele>46.0</ele><time>2015-09-26T10:51:37.000Z</time></trkpt>
      <trkpt lat="52.671439" lon="-1.115191"><ele>47.0</ele><time>2015-09-26T10:51:49.000Z</time></trkpt>
      <trkpt lat="52.671312" lon="-1.115415"><ele>50.4</ele><time>2015-09-26T10:52:01.000Z</time></trkpt>
      <trkpt lat="52.671181" lon="-1.115636"><ele>51.6</ele><time>2015-09-26T10:52:16.000Z</time></trkpt>
      <trkpt lat="52.671060" lon="-1.115856"><ele>51.2</ele><time>2015-09-26T10:52:31.000Z</time></trkpt>
      <trkpt lat="52.670921" lon="-1.116084"><ele>50.4</ele><time>2015-09-26T10:52:45.000Z</time></trkpt>
      <trkpt lat="52.670790" lon="-1.116294"><ele>51.4</ele><time>2015-09-26T10:52:59.000Z</time></trkpt>
      <trkpt lat="52.670642" lon="-1.116473"><ele>50.8</ele><time>2015-09-26T10:53:15.000Z</time></trkpt>
      <trkpt lat="52.670472" lon="-1.116589"><ele>47.6</ele><time>2015-09-26T10:53:28.000Z</time></trkpt>
      <trkpt lat="52.670296" lon="-1.116559"><ele>43.6</ele><time>2015-09-26T10:53:42.000Z</time></trkpt>
      <trkpt lat="52.670188" lon="-1.116460"><ele>42.2</ele><time>2015-09-26T10:53:52.000Z</time></trkpt>
      <trkpt lat="52.670161" lon="-1.116449"><ele>42.6</ele><time>2015-09-26T10:53:54.000Z</time></trkpt>
      <trkpt lat="52.670147" lon="-1.116447"><ele>43.4</ele><time>2015-09-26T10:53:56.000Z</time></trkpt>
      <trkpt lat="52.670141" lon="-1.116428"><ele>43.2</ele><time>2015-09-26T10:53:58.000Z</time></trkpt>
      <trkpt lat="52.670005" lon="-1.116231"><ele>45.4</ele><time>2015-09-26T10:54:11.000Z</time></trkpt>
      <trkpt lat="52.669916" lon="-1.116127"><ele>45.6</ele><time>2015-09-26T10:54:20.000Z</time></trkpt>
      <trkpt lat="52.669730" lon="-1.116107"><ele>42.4</ele><time>2015-09-26T10:54:34.000Z</time></trkpt>
      <trkpt lat="52.669553" lon="-1.116202"><ele>45.4</ele><time>2015-09-26T10:54:48.000Z</time></trkpt>
      <trkpt lat="52.669459" lon="-1.116453"><ele>44.4</ele><time>2015-09-26T10:55:03.000Z</time></trkpt>
      <trkpt lat="52.669398" lon="-1.116731"><ele>49.2</ele><time>2015-09-26T10:55:19.000Z</time></trkpt>
      <trkpt lat="52.669307" lon="-1.116995"><ele>52.2</ele><time>2015-09-26T10:55:44.000Z</time></trkpt>
      <trkpt lat="52.669300" lon="-1.117011"><ele>51.8</ele><time>2015-09-26T10:55:45.000Z</time></trkpt>
      <trkpt lat="52.669169" lon="-1.117215"><ele>49.4</ele><time>2015-09-26T10:55:57.000Z</time></trkpt>
      <trkpt lat="52.669006" lon="-1.117343"><ele>47.8</ele><time>2015-09-26T10:56:10.000Z</time></trkpt>
      <trkpt lat="52.668827" lon="-1.117417"><ele>45.8</ele><time>2015-09-26T10:56:23.000Z</time></trkpt>
      <trkpt lat="52.668702" lon="-1.117419"><ele>44.4</ele><time>2015-09-26T10:56:33.000Z</time></trkpt>
      <trkpt lat="52.668688" lon="-1.117420"><ele>43.8</ele><time>2015-09-26T10:56:35.000Z</time></trkpt>
      <trkpt lat="52.668504" lon="-1.117435"><ele>43.2</ele><time>2015-09-26T10:56:48.000Z</time></trkpt>
      <trkpt lat="52.668325" lon="-1.117477"><ele>41.2</ele><time>2015-09-26T10:57:01.000Z</time></trkpt>
      <trkpt lat="52.668154" lon="-1.117606"><ele>40.6</ele><time>2015-09-26T10:57:15.000Z</time></trkpt>
      <trkpt lat="52.668009" lon="-1.117785"><ele>39.8</ele><time>2015-09-26T10:57:28.000Z</time></trkpt>
      <trkpt lat="52.667848" lon="-1.117912"><ele>40.8</ele><time>2015-09-26T10:57:43.000Z</time></trkpt>
      <trkpt lat="52.667663" lon="-1.117988"><ele>39.8</ele><time>2015-09-26T10:57:57.000Z</time></trkpt>
      <trkpt lat="52.667480" lon="-1.117995"><ele>37.8</ele><time>2015-09-26T10:58:11.000Z</time></trkpt>
      <trkpt lat="52.667287" lon="-1.117995"><ele>39.0</ele><time>2015-09-26T10:58:25.000Z</time></trkpt>
      <trkpt lat="52.667109" lon="-1.117934"><ele>40.0</ele><time>2015-09-26T10:58:39.000Z</time></trkpt>
      <trkpt lat="52.667112" lon="-1.117913"><ele>40.2</ele><time>2015-09-26T10:58:41.000Z</time></trkpt>
      <trkpt lat="52.666937" lon="-1.117933"><ele>39.4</ele><time>2015-09-26T10:59:12.000Z</time></trkpt>
      <trkpt lat="52.666790" lon="-1.117977"><ele>38.0</ele><time>2015-09-26T10:59:24.000Z</time></trkpt>
      <trkpt lat="52.666670" lon="-1.117893"><ele>38.2</ele><time>2015-09-26T10:59:35.000Z</time></trkpt>
      <trkpt lat="52.666515" lon="-1.117736"><ele>40.2</ele><time>2015-09-26T10:59:50.000Z</time></trkpt>
      <trkpt lat="52.666413" lon="-1.117613"><ele>40.4</ele><time>2015-09-26T10:59:59.000Z</time></trkpt>
      <trkpt lat="52.666231" lon="-1.117518"><ele>42.2</ele><time>2015-09-26T11:00:13.000Z</time></trkpt>
      <trkpt lat="52.666048" lon="-1.117413"><ele>43.4</ele><time>2015-09-26T11:00:27.000Z</time></trkpt>
      <trkpt lat="52.665871" lon="-1.117325"><ele>42.2</ele><time>2015-09-26T11:00:41.000Z</time></trkpt>
      <trkpt lat="52.665693" lon="-1.117236"><ele>39.2</ele><time>2015-09-26T11:00:56.000Z</time></trkpt>
      <trkpt lat="52.665512" lon="-1.117330"><ele>41.0</ele><time>2015-09-26T11:01:14.000Z</time></trkpt>
      <trkpt lat="52.665378" lon="-1.117531"><ele>41.6</ele><time>2015-09-26T11:01:28.000Z</time></trkpt>
      <trkpt lat="52.665255" lon="-1.117779"><ele>41.2</ele><time>2015-09-26T11:01:39.000Z</time></trkpt>
      <trkpt lat="52.665137" lon="-1.118029"><ele>42.6</ele><time>2015-09-26T11:01:52.000Z</time></trkpt>
      <trkpt lat="52.665045" lon="-1.118306"><ele>45.2</ele><time>2015-09-26T11:02:07.000Z</time></trkpt>
      <trkpt lat="52.665019" lon="-1.118411"><ele>45.8</ele><time>2015-09-26T11:02:12.000Z</time></trkpt>
      <trkpt lat="52.664974" lon="-1.118694"><ele>47.2</ele><time>2015-09-26T11:02:25.000Z</time></trkpt>
      <trkpt lat="52.664940" lon="-1.119001"><ele>46.4</ele><time>2015-09-26T11:02:38.000Z</time></trkpt>
      <trkpt lat="52.664922" lon="-1.119303"><ele>46.0</ele><time>2015-09-26T11:02:52.000Z</time></trkpt>
      <trkpt lat="52.664921" lon="-1.119319"><ele>46.0</ele><time>2015-09-26T11:02:53.000Z</time></trkpt>
      <trkpt lat="52.664926" lon="-1.119492"><ele>44.4</ele><time>2015-09-26T11:03:01.000Z</time></trkpt>
      <trkpt lat="52.664935" lon="-1.119713"><ele>43.2</ele><time>2015-09-26T11:03:11.000Z</time></trkpt>
      <trkpt lat="52.664942" lon="-1.119745"><ele>43.6</ele><time>2015-09-26T11:03:13.000Z</time></trkpt>
      <trkpt lat="52.664944" lon="-1.119794"><ele>43.8</ele><time>2015-09-26T11:03:15.000Z</time></trkpt>
      <trkpt lat="52.664932" lon="-1.120028"><ele>44.8</ele><time>2015-09-26T11:03:25.000Z</time></trkpt>
      <trkpt lat="52.664896" lon="-1.120181"><ele>44.2</ele><time>2015-09-26T11:03:32.000Z</time></trkpt>
      <trkpt lat="52.664809" lon="-1.120460"><ele>43.2</ele><time>2015-09-26T11:03:46.000Z</time></trkpt>
      <trkpt lat="52.664750" lon="-1.120746"><ele>42.2</ele><time>2015-09-26T11:03:59.000Z</time></trkpt>
      <trkpt lat="52.664724" lon="-1.120942"><ele>44.0</ele><time>2015-09-26T11:04:09.000Z</time></trkpt>
      <trkpt lat="52.664738" lon="-1.120973"><ele>44.8</ele><time>2015-09-26T11:04:11.000Z</time></trkpt>
      <trkpt lat="52.664724" lon="-1.121151"><ele>45.6</ele><time>2015-09-26T11:04:19.000Z</time></trkpt>
      <trkpt lat="52.664739" lon="-1.121203"><ele>45.8</ele><time>2015-09-26T11:04:22.000Z</time></trkpt>
      <trkpt lat="52.664721" lon="-1.121403"><ele>43.8</ele><time>2015-09-26T11:04:31.000Z</time></trkpt>
      <trkpt lat="52.664702" lon="-1.121547"><ele>42.0</ele><time>2015-09-26T11:04:37.000Z</time></trkpt>
      <trkpt lat="52.664712" lon="-1.121590"><ele>42.8</ele><time>2015-09-26T11:04:39.000Z</time></trkpt>
      <trkpt lat="52.664731" lon="-1.121897"><ele>44.4</ele><time>2015-09-26T11:04:53.000Z</time></trkpt>
      <trkpt lat="52.664705" lon="-1.122140"><ele>45.0</ele><time>2015-09-26T11:05:06.000Z</time></trkpt>
      <trkpt lat="52.664672" lon="-1.122424"><ele>41.2</ele><time>2015-09-26T11:05:28.000Z</time></trkpt>
      <trkpt lat="52.664575" lon="-1.122673"><ele>41.8</ele><time>2015-09-26T11:05:42.000Z</time></trkpt>
      <trkpt lat="52.664419" lon="-1.122828"><ele>41.6</ele><time>2015-09-26T11:05:57.000Z</time></trkpt>
      <trkpt lat="52.664262" lon="-1.122980"><ele>43.6</ele><time>2015-09-26T11:06:12.000Z</time></trkpt>
      <trkpt lat="52.664168" lon="-1.123059"><ele>42.0</ele><time>2015-09-26T11:06:22.000Z</time></trkpt>
      <trkpt lat="52.663993" lon="-1.123212"><ele>41.4</ele><time>2015-09-26T11:06:35.000Z</time></trkpt>
      <trkpt lat="52.663829" lon="-1.123355"><ele>41.0</ele><time>2015-09-26T11:06:48.000Z</time></trkpt>
      <trkpt lat="52.663798" lon="-1.123386"><ele>41.6</ele><time>2015-09-26T11:06:51.000Z</time></trkpt>
      <trkpt lat="52.663655" lon="-1.123582"><ele>44.8</ele><time>2015-09-26T11:07:08.000Z</time></trkpt>
      <trkpt lat="52.663554" lon="-1.123826"><ele>47.2</ele><time>2015-09-26T11:07:21.000Z</time></trkpt>
      <trkpt lat="52.663507" lon="-1.123969"><ele>47.8</ele><time>2015-09-26T11:07:30.000Z</time></trkpt>
      <trkpt lat="52.663443" lon="-1.124158"><ele>45.8</ele><time>2015-09-26T11:07:49.000Z</time></trkpt>
      <trkpt lat="52.663429" lon="-1.124398"><ele>46.6</ele><time>2015-09-26T11:07:59.000Z</time></trkpt>
      <trkpt lat="52.663436" lon="-1.124691"><ele>45.4</ele><time>2015-09-26T11:08:13.000Z</time></trkpt>
      <trkpt lat="52.663475" lon="-1.124990"><ele>44.2</ele><time>2015-09-26T11:08:27.000Z</time></trkpt>
      <trkpt lat="52.663504" lon="-1.125128"><ele>44.2</ele><time>2015-09-26T11:08:34.000Z</time></trkpt>
      <trkpt lat="52.663496" lon="-1.125327"><ele>43.8</ele><time>2015-09-26T11:08:43.000Z</time></trkpt>
      <trkpt lat="52.663440" lon="-1.125622"><ele>42.2</ele><time>2015-09-26T11:08:57.000Z</time></trkpt>
      <trkpt lat="52.663358" lon="-1.125893"><ele>41.8</ele><time>2015-09-26T11:09:13.000Z</time></trkpt>
      <trkpt lat="52.663252" lon="-1.126135"><ele>39.2</ele><time>2015-09-26T11:09:28.000Z</time></trkpt>
      <trkpt lat="52.663134" lon="-1.126360"><ele>35.6</ele><time>2015-09-26T11:09:44.000Z</time></trkpt>
      <trkpt lat="52.663050" lon="-1.126504"><ele>38.6</ele><time>2015-09-26T11:09:53.000Z</time></trkpt>
      <trkpt lat="52.662936" lon="-1.126731"><ele>41.2</ele><time>2015-09-26T11:10:07.000Z</time></trkpt>
      <trkpt lat="52.662909" lon="-1.126763"><ele>40.6</ele><time>2015-09-26T11:10:09.000Z</time></trkpt>
      <trkpt lat="52.662853" lon="-1.126785"><ele>39.8</ele><time>2015-09-26T11:10:13.000Z</time></trkpt>
      <trkpt lat="52.662783" lon="-1.126840"><ele>41.4</ele><time>2015-09-26T11:10:18.000Z</time></trkpt>
      <trkpt lat="52.662760" lon="-1.126836"><ele>41.6</ele><time>2015-09-26T11:10:20.000Z</time></trkpt>
      <trkpt lat="52.662620" lon="-1.127019"><ele>43.8</ele><time>2015-09-26T11:10:36.000Z</time></trkpt>
      <trkpt lat="52.662457" lon="-1.127170"><ele>42.0</ele><time>2015-09-26T11:10:51.000Z</time></trkpt>
      <trkpt lat="52.662293" lon="-1.127295"><ele>41.2</ele><time>2015-09-26T11:11:06.000Z</time></trkpt>
      <trkpt lat="52.662125" lon="-1.127429"><ele>41.2</ele><time>2015-09-26T11:11:19.000Z</time></trkpt>
      <trkpt lat="52.661972" lon="-1.127613"><ele>44.4</ele><time>2015-09-26T11:11:31.000Z</time></trkpt>
      <trkpt lat="52.661807" lon="-1.127732"><ele>44.4</ele><time>2015-09-26T11:11:44.000Z</time></trkpt>
      <trkpt lat="52.661630" lon="-1.127753"><ele>41.8</ele><time>2015-09-26T11:11:59.000Z</time></trkpt>
      <trkpt lat="52.661508" lon="-1.127753"><ele>40.8</ele><time>2015-09-26T11:12:09.000Z</time></trkpt>
      <trkpt lat="52.661323" lon="-1.127803"><ele>41.8</ele><time>2015-09-26T11:12:24.000Z</time></trkpt>
      <trkpt lat="52.661128" lon="-1.127767"><ele>40.8</ele><time>2015-09-26T11:12:39.000Z</time></trkpt>
      <trkpt lat="52.660963" lon="-1.127647"><ele>38.6</ele><time>2015-09-26T11:12:52.000Z</time></trkpt>
      <trkpt lat="52.660837" lon="-1.127575"><ele>40.6</ele><time>2015-09-26T11:13:02.000Z</time></trkpt>
      <trkpt lat="52.660744" lon="-1.127694"><ele>45.0</ele><time>2015-09-26T11:13:13.000Z</time></trkpt>
      <trkpt lat="52.660773" lon="-1.127985"><ele>47.2</ele><time>2015-09-26T11:13:26.000Z</time></trkpt>
      <trkpt lat="52.660776" lon="-1.128111"><ele>46.6</ele><time>2015-09-26T11:13:32.000Z</time></trkpt>
      <trkpt lat="52.660797" lon="-1.128412"><ele>45.2</ele><time>2015-09-26T11:13:46.000Z</time></trkpt>
      <trkpt lat="52.660801" lon="-1.128466"><ele>45.4</ele><time>2015-09-26T11:13:48.000Z</time></trkpt>
      <trkpt lat="52.660825" lon="-1.128773"><ele>41.4</ele><time>2015-09-26T11:14:02.000Z</time></trkpt>
      <trkpt lat="52.660839" lon="-1.128825"><ele>41.4</ele><time>2015-09-26T11:14:05.000Z</time></trkpt>
      <trkpt lat="52.660826" lon="-1.128890"><ele>41.6</ele><time>2015-09-26T11:14:08.000Z</time></trkpt>
      <trkpt lat="52.660808" lon="-1.128899"><ele>41.6</ele><time>2015-09-26T11:14:10.000Z</time></trkpt>
      <trkpt lat="52.660793" lon="-1.128890"><ele>42.6</ele><time>2015-09-26T11:14:13.000Z</time></trkpt>
      <trkpt lat="52.660631" lon="-1.128830"><ele>37.4</ele><time>2015-09-26T11:14:38.000Z</time></trkpt>
      <trkpt lat="52.660468" lon="-1.128683"><ele>33.6</ele><time>2015-09-26T11:14:53.000Z</time></trkpt>
      <trkpt lat="52.660452" lon="-1.128671"><ele>34.0</ele><time>2015-09-26T11:14:55.000Z</time></trkpt>
      <trkpt lat="52.660294" lon="-1.128523"><ele>38.6</ele><time>2015-09-26T11:15:10.000Z</time></trkpt>
      <trkpt lat="52.660276" lon="-1.128503"><ele>39.8</ele><time>2015-09-26T11:15:12.000Z</time></trkpt>
      <trkpt lat="52.660259" lon="-1.128480"><ele>40.8</ele><time>2015-09-26T11:15:14.000Z</time></trkpt>
      <trkpt lat="52.660236" lon="-1.128458"><ele>41.4</ele><time>2015-09-26T11:15:16.000Z</time></trkpt>
      <trkpt lat="52.660108" lon="-1.128223"><ele>40.6</ele><time>2015-09-26T11:15:29.000Z</time></trkpt>
      <trkpt lat="52.659975" lon="-1.128019"><ele>40.8</ele><time>2015-09-26T11:15:44.000Z</time></trkpt>
      <trkpt lat="52.659810" lon="-1.127879"><ele>42.4</ele><time>2015-09-26T11:15:58.000Z</time></trkpt>
      <trkpt lat="52.659656" lon="-1.127710"><ele>42.0</ele><time>2015-09-26T11:16:12.000Z</time></trkpt>
      <trkpt lat="52.659519" lon="-1.127500"><ele>41.8</ele><time>2015-09-26T11:16:26.000Z</time></trkpt>
      <trkpt lat="52.659345" lon="-1.127377"><ele>39.0</ele><time>2015-09-26T11:16:39.000Z</time></trkpt>
      <trkpt lat="52.659157" lon="-1.127313"><ele>40.8</ele><time>2015-09-26T11:16:52.000Z</time></trkpt>
      <trkpt lat="52.658978" lon="-1.127276"><ele>42.6</ele><time>2015-09-26T11:17:09.000Z</time></trkpt>
      <trkpt lat="52.658797" lon="-1.127247"><ele>42.0</ele><time>2015-09-26T11:17:24.000Z</time></trkpt>
      <trkpt lat="52.658616" lon="-1.127158"><ele>38.8</ele><time>2015-09-26T11:17:40.000Z</time></trkpt>
      <trkpt lat="52.658449" lon="-1.127029"><ele>37.8</ele><time>2015-09-26T11:17:55.000Z</time></trkpt>
      <trkpt lat="52.658278" lon="-1.126880"><ele>38.4</ele><time>2015-09-26T11:18:09.000Z</time></trkpt>
      <trkpt lat="52.658134" lon="-1.126683"><ele>41.6</ele><time>2015-09-26T11:18:22.000Z</time></trkpt>
      <trkpt lat="52.657980" lon="-1.126526"><ele>39.8</ele><time>2015-09-26T11:18:34.000Z</time></trkpt>
      <trkpt lat="52.657842" lon="-1.126363"><ele>40.8</ele><time>2015-09-26T11:18:47.000Z</time></trkpt>
      <trkpt lat="52.657675" lon="-1.126204"><ele>33.2</ele><time>2015-09-26T11:19:04.000Z</time></trkpt>
      <trkpt lat="52.657506" lon="-1.126055"><ele>33.6</ele><time>2015-09-26T11:19:20.000Z</time></trkpt>
      <trkpt lat="52.657355" lon="-1.125891"><ele>33.6</ele><time>2015-09-26T11:19:35.000Z</time></trkpt>
      <trkpt lat="52.657194" lon="-1.125741"><ele>32.6</ele><time>2015-09-26T11:19:48.000Z</time></trkpt>
      <trkpt lat="52.657028" lon="-1.125603"><ele>35.2</ele><time>2015-09-26T11:20:04.000Z</time></trkpt>
      <trkpt lat="52.656864" lon="-1.125471"><ele>36.4</ele><time>2015-09-26T11:20:18.000Z</time></trkpt>
      <trkpt lat="52.656691" lon="-1.125332"><ele>39.6</ele><time>2015-09-26T11:20:31.000Z</time></trkpt>
      <trkpt lat="52.656520" lon="-1.125226"><ele>40.4</ele><time>2015-09-26T11:20:43.000Z</time></trkpt>
      <trkpt lat="52.656329" lon="-1.125250"><ele>44.0</ele><time>2015-09-26T11:20:54.000Z</time></trkpt>
      <trkpt lat="52.656155" lon="-1.125338"><ele>44.6</ele><time>2015-09-26T11:21:07.000Z</time></trkpt>
      <trkpt lat="52.656010" lon="-1.125515"><ele>45.4</ele><time>2015-09-26T11:21:22.000Z</time></trkpt>
      <trkpt lat="52.655830" lon="-1.125598"><ele>42.8</ele><time>2015-09-26T11:21:35.000Z</time></trkpt>
      <trkpt lat="52.655729" lon="-1.125637"><ele>42.4</ele><time>2015-09-26T11:21:43.000Z</time></trkpt>
      <trkpt lat="52.655654" lon="-1.125653"><ele>44.6</ele><time>2015-09-26T11:21:49.000Z</time></trkpt>
      <trkpt lat="52.655481" lon="-1.125511"><ele>44.4</ele><time>2015-09-26T11:22:04.000Z</time></trkpt>
      <trkpt lat="52.655370" lon="-1.125413"><ele>38.4</ele><time>2015-09-26T11:22:14.000Z</time></trkpt>
      <trkpt lat="52.655337" lon="-1.125518"><ele>36.4</ele><time>2015-09-26T11:22:19.000Z</time></trkpt>
      <trkpt lat="52.655283" lon="-1.125720"><ele>33.8</ele><time>2015-09-26T11:22:30.000Z</time></trkpt>
      <trkpt lat="52.655254" lon="-1.125780"><ele>33.2</ele><time>2015-09-26T11:22:33.000Z</time></trkpt>
      <trkpt lat="52.655222" lon="-1.125941"><ele>33.8</ele><time>2015-09-26T11:22:40.000Z</time></trkpt>
      <trkpt lat="52.655193" lon="-1.126059"><ele>35.8</ele><time>2015-09-26T11:22:47.000Z</time></trkpt>
      <trkpt lat="52.655108" lon="-1.126329"><ele>45.2</ele><time>2015-09-26T11:23:01.000Z</time></trkpt>
      <trkpt lat="52.655012" lon="-1.126604"><ele>48.4</ele><time>2015-09-26T11:23:15.000Z</time></trkpt>
      <trkpt lat="52.654888" lon="-1.126843"><ele>44.8</ele><time>2015-09-26T11:23:31.000Z</time></trkpt>
      <trkpt lat="52.654772" lon="-1.127090"><ele>47.2</ele><time>2015-09-26T11:23:45.000Z</time></trkpt>
      <trkpt lat="52.654640" lon="-1.127316"><ele>45.2</ele><time>2015-09-26T11:23:59.000Z</time></trkpt>
      <trkpt lat="52.654504" lon="-1.127510"><ele>44.4</ele><time>2015-09-26T11:24:12.000Z</time></trkpt>
      <trkpt lat="52.654360" lon="-1.127724"><ele>43.8</ele><time>2015-09-26T11:24:26.000Z</time></trkpt>
      <trkpt lat="52.654255" lon="-1.127922"><ele>44.4</ele><time>2015-09-26T11:24:38.000Z</time></trkpt>
      <trkpt lat="52.654110" lon="-1.128128"><ele>42.0</ele><time>2015-09-26T11:24:52.000Z</time></trkpt>
      <trkpt lat="52.654055" lon="-1.128178"><ele>40.4</ele><time>2015-09-26T11:24:57.000Z</time></trkpt>
      <trkpt lat="52.653942" lon="-1.128361"><ele>42.2</ele><time>2015-09-26T11:25:11.000Z</time></trkpt>
      <trkpt lat="52.653837" lon="-1.128423"><ele>43.6</ele><time>2015-09-26T11:25:20.000Z</time></trkpt>
      <trkpt lat="52.653825" lon="-1.128450"><ele>43.6</ele><time>2015-09-26T11:25:22.000Z</time></trkpt>
      <trkpt lat="52.653863" lon="-1.128746"><ele>45.0</ele><time>2015-09-26T11:25:35.000Z</time></trkpt>
      <trkpt lat="52.653855" lon="-1.128776"><ele>44.8</ele><time>2015-09-26T11:25:37.000Z</time></trkpt>
      <trkpt lat="52.653717" lon="-1.128958"><ele>42.0</ele><time>2015-09-26T11:25:53.000Z</time></trkpt>
      <trkpt lat="52.653573" lon="-1.129162"><ele>42.0</ele><time>2015-09-26T11:26:09.000Z</time></trkpt>
      <trkpt lat="52.653423" lon="-1.129358"><ele>48.0</ele><time>2015-09-26T11:26:24.000Z</time></trkpt>
      <trkpt lat="52.653269" lon="-1.129531"><ele>47.0</ele><time>2015-09-26T11:26:37.000Z</time></trkpt>
      <trkpt lat="52.653114" lon="-1.129715"><ele>46.0</ele><time>2015-09-26T11:26:50.000Z</time></trkpt>
      <trkpt lat="52.653051" lon="-1.129771"><ele>47.0</ele><time>2015-09-26T11:26:55.000Z</time></trkpt>
      <trkpt lat="52.653024" lon="-1.129785"><ele>47.8</ele><time>2015-09-26T11:26:57.000Z</time></trkpt>
      <trkpt lat="52.652856" lon="-1.129944"><ele>48.6</ele><time>2015-09-26T11:27:10.000Z</time></trkpt>
      <trkpt lat="52.652685" lon="-1.130038"><ele>47.6</ele><time>2015-09-26T11:27:23.000Z</time></trkpt>
      <trkpt lat="52.652514" lon="-1.130136"><ele>49.0</ele><time>2015-09-26T11:27:48.000Z</time></trkpt>
      <trkpt lat="52.652323" lon="-1.130124"><ele>45.6</ele><time>2015-09-26T11:28:03.000Z</time></trkpt>
      <trkpt lat="52.652137" lon="-1.130130"><ele>43.0</ele><time>2015-09-26T11:28:18.000Z</time></trkpt>
      <trkpt lat="52.651948" lon="-1.130137"><ele>45.0</ele><time>2015-09-26T11:28:31.000Z</time></trkpt>
      <trkpt lat="52.651766" lon="-1.130114"><ele>43.8</ele><time>2015-09-26T11:28:46.000Z</time></trkpt>
      <trkpt lat="52.651587" lon="-1.130134"><ele>43.4</ele><time>2015-09-26T11:28:59.000Z</time></trkpt>
      <trkpt lat="52.651406" lon="-1.130160"><ele>46.2</ele><time>2015-09-26T11:29:12.000Z</time></trkpt>
      <trkpt lat="52.651218" lon="-1.130236"><ele>47.2</ele><time>2015-09-26T11:29:26.000Z</time></trkpt>
      <trkpt lat="52.651039" lon="-1.130289"><ele>45.8</ele><time>2015-09-26T11:29:40.000Z</time></trkpt>
      <trkpt lat="52.650855" lon="-1.130329"><ele>45.2</ele><time>2015-09-26T11:29:54.000Z</time></trkpt>
      <trkpt lat="52.650669" lon="-1.130330"><ele>44.2</ele><time>2015-09-26T11:30:08.000Z</time></trkpt>
      <trkpt lat="52.650563" lon="-1.130334"><ele>44.2</ele><time>2015-09-26T11:30:16.000Z</time></trkpt>
      <trkpt lat="52.650374" lon="-1.130279"><ele>44.4</ele><time>2015-09-26T11:30:31.000Z</time></trkpt>
      <trkpt lat="52.650198" lon="-1.130213"><ele>37.8</ele><time>2015-09-26T11:30:45.000Z</time></trkpt>
      <trkpt lat="52.650112" lon="-1.130149"><ele>37.4</ele><time>2015-09-26T11:30:55.000Z</time></trkpt>
      <trkpt lat="52.649938" lon="-1.130009"><ele>34.8</ele><time>2015-09-26T11:31:10.000Z</time></trkpt>
      <trkpt lat="52.649790" lon="-1.129841"><ele>34.2</ele><time>2015-09-26T11:31:24.000Z</time></trkpt>
      <trkpt lat="52.649634" lon="-1.129664"><ele>33.6</ele><time>2015-09-26T11:31:39.000Z</time></trkpt>
      <trkpt lat="52.649460" lon="-1.129561"><ele>35.2</ele><time>2015-09-26T11:31:53.000Z</time></trkpt>
      <trkpt lat="52.649280" lon="-1.129497"><ele>42.6</ele><time>2015-09-26T11:32:07.000Z</time></trkpt>
      <trkpt lat="52.649096" lon="-1.129418"><ele>41.2</ele><time>2015-09-26T11:32:22.000Z</time></trkpt>
      <trkpt lat="52.648915" lon="-1.129340"><ele>37.2</ele><time>2015-09-26T11:32:37.000Z</time></trkpt>
      <trkpt lat="52.648726" lon="-1.129302"><ele>35.6</ele><time>2015-09-26T11:32:50.000Z</time></trkpt>
      <trkpt lat="52.648542" lon="-1.129247"><ele>38.4</ele><time>2015-09-26T11:33:06.000Z</time></trkpt>
      <trkpt lat="52.648364" lon="-1.129155"><ele>36.8</ele><time>2015-09-26T11:33:20.000Z</time></trkpt>
      <trkpt lat="52.648200" lon="-1.129024"><ele>38.4</ele><time>2015-09-26T11:33:34.000Z</time></trkpt>
      <trkpt lat="52.648032" lon="-1.128895"><ele>38.4</ele><time>2015-09-26T11:33:48.000Z</time></trkpt>
      <trkpt lat="52.647868" lon="-1.128754"><ele>36.6</ele><time>2015-09-26T11:34:02.000Z</time></trkpt>
      <trkpt lat="52.647706" lon="-1.128611"><ele>38.4</ele><time>2015-09-26T11:34:16.000Z</time></trkpt>
      <trkpt lat="52.647551" lon="-1.128431"><ele>39.2</ele><time>2015-09-26T11:34:30.000Z</time></trkpt>
      <trkpt lat="52.647513" lon="-1.128397"><ele>40.4</ele><time>2015-09-26T11:34:33.000Z</time></trkpt>
      <trkpt lat="52.647354" lon="-1.128248"><ele>42.2</ele><time>2015-09-26T11:34:46.000Z</time></trkpt>
      <trkpt lat="52.647273" lon="-1.128196"><ele>43.0</ele><time>2015-09-26T11:34:53.000Z</time></trkpt>
      <trkpt lat="52.647095" lon="-1.128105"><ele>43.0</ele><time>2015-09-26T11:35:06.000Z</time></trkpt>
      <trkpt lat="52.646904" lon="-1.128074"><ele>44.0</ele><time>2015-09-26T11:35:21.000Z</time></trkpt>
      <trkpt lat="52.646779" lon="-1.128049"><ele>45.0</ele><time>2015-09-26T11:35:30.000Z</time></trkpt>
      <trkpt lat="52.646726" lon="-1.128056"><ele>46.0</ele><time>2015-09-26T11:35:35.000Z</time></trkpt>
      <trkpt lat="52.646573" lon="-1.128059"><ele>48.6</ele><time>2015-09-26T11:35:47.000Z</time></trkpt>
      <trkpt lat="52.646395" lon="-1.128134"><ele>51.0</ele><time>2015-09-26T11:36:00.000Z</time></trkpt>
      <trkpt lat="52.646368" lon="-1.128138"><ele>50.2</ele><time>2015-09-26T11:36:03.000Z</time></trkpt>
      <trkpt lat="52.646211" lon="-1.128191"><ele>49.2</ele><time>2015-09-26T11:36:18.000Z</time></trkpt>
      <trkpt lat="52.646138" lon="-1.128487"><ele>48.8</ele><time>2015-09-26T11:36:26.000Z</time></trkpt>
      <trkpt lat="52.646213" lon="-1.128626"><ele>52.4</ele><time>2015-09-26T11:37:07.000Z</time></trkpt>
      <trkpt lat="52.646160" lon="-1.128407"><ele>49.6</ele><time>2015-09-26T11:37:27.000Z</time></trkpt>
      <trkpt lat="52.646027" lon="-1.128191"><ele>47.6</ele><time>2015-09-26T11:37:41.000Z</time></trkpt>
      <trkpt lat="52.645886" lon="-1.127982"><ele>46.0</ele><time>2015-09-26T11:37:58.000Z</time></trkpt>
      <trkpt lat="52.645812" lon="-1.127854"><ele>41.8</ele><time>2015-09-26T11:38:06.000Z</time></trkpt>
      <trkpt lat="52.645719" lon="-1.127588"><ele>44.2</ele><time>2015-09-26T11:38:21.000Z</time></trkpt>
      <trkpt lat="52.645594" lon="-1.127366"><ele>48.4</ele><time>2015-09-26T11:38:36.000Z</time></trkpt>
      <trkpt lat="52.645419" lon="-1.127277"><ele>49.2</ele><time>2015-09-26T11:38:49.000Z</time></trkpt>
      <trkpt lat="52.645238" lon="-1.127276"><ele>46.6</ele><time>2015-09-26T11:39:04.000Z</time></trkpt>
      <trkpt lat="52.645052" lon="-1.127273"><ele>46.0</ele><time>2015-09-26T11:39:18.000Z</time></trkpt>
      <trkpt lat="52.644885" lon="-1.127130"><ele>42.4</ele><time>2015-09-26T11:39:36.000Z</time></trkpt>
      <trkpt lat="52.644722" lon="-1.126975"><ele>41.4</ele><time>2015-09-26T11:39:51.000Z</time></trkpt>
      <trkpt lat="52.644544" lon="-1.126968"><ele>45.4</ele><time>2015-09-26T11:40:04.000Z</time></trkpt>
      <trkpt lat="52.644372" lon="-1.127090"><ele>44.4</ele><time>2015-09-26T11:40:19.000Z</time></trkpt>
      <trkpt lat="52.644215" lon="-1.127266"><ele>42.6</ele><time>2015-09-26T11:40:34.000Z</time></trkpt>
      <trkpt lat="52.644054" lon="-1.127415"><ele>42.8</ele><time>2015-09-26T11:40:48.000Z</time></trkpt>
      <trkpt lat="52.643945" lon="-1.127512"><ele>44.6</ele><time>2015-09-26T11:40:57.000Z</time></trkpt>
      <trkpt lat="52.643780" lon="-1.127658"><ele>48.2</ele><time>2015-09-26T11:41:10.000Z</time></trkpt>
      <trkpt lat="52.643599" lon="-1.127747"><ele>50.8</ele><time>2015-09-26T11:41:25.000Z</time></trkpt>
      <trkpt lat="52.643423" lon="-1.127838"><ele>50.8</ele><time>2015-09-26T11:41:40.000Z</time></trkpt>
      <trkpt lat="52.643250" lon="-1.127933"><ele>51.0</ele><time>2015-09-26T11:41:54.000Z</time></trkpt>
      <trkpt lat="52.643087" lon="-1.128058"><ele>50.0</ele><time>2015-09-26T11:42:07.000Z</time></trkpt>
      <trkpt lat="52.642965" lon="-1.128270"><ele>47.4</ele><time>2015-09-26T11:42:20.000Z</time></trkpt>
      <trkpt lat="52.642845" lon="-1.128308"><ele>47.4</ele><time>2015-09-26T11:42:29.000Z</time></trkpt>
      <trkpt lat="52.642679" lon="-1.128448"><ele>44.4</ele><time>2015-09-26T11:42:43.000Z</time></trkpt>
      <trkpt lat="52.642513" lon="-1.128584"><ele>46.8</ele><time>2015-09-26T11:42:57.000Z</time></trkpt>
      <trkpt lat="52.642351" lon="-1.128724"><ele>46.4</ele><time>2015-09-26T11:43:10.000Z</time></trkpt>
      <trkpt lat="52.642198" lon="-1.128911"><ele>45.8</ele><time>2015-09-26T11:43:25.000Z</time></trkpt>
      <trkpt lat="52.642055" lon="-1.129089"><ele>47.4</ele><time>2015-09-26T11:43:40.000Z</time></trkpt>
      <trkpt lat="52.641888" lon="-1.129226"><ele>47.8</ele><time>2015-09-26T11:43:54.000Z</time></trkpt>
      <trkpt lat="52.641777" lon="-1.129181"><ele>49.0</ele><time>2015-09-26T11:44:42.000Z</time></trkpt>
      <trkpt lat="52.641641" lon="-1.129219"><ele>48.2</ele><time>2015-09-26T11:44:53.000Z</time></trkpt>
      <trkpt lat="52.641634" lon="-1.129217"><ele>49.0</ele><time>2015-09-26T11:44:55.000Z</time></trkpt>
      <trkpt lat="52.641593" lon="-1.129012"><ele>47.0</ele><time>2015-09-26T11:45:24.000Z</time></trkpt>
      <trkpt lat="52.641575" lon="-1.128997"><ele>46.2</ele><time>2015-09-26T11:45:26.000Z</time></trkpt>
      <trkpt lat="52.641526" lon="-1.128999"><ele>42.8</ele><time>2015-09-26T11:45:31.000Z</time></trkpt>
      <trkpt lat="52.641507" lon="-1.128975"><ele>41.4</ele><time>2015-09-26T11:45:33.000Z</time></trkpt>
      <trkpt lat="52.641460" lon="-1.128925"><ele>40.0</ele><time>2015-09-26T11:45:38.000Z</time></trkpt>
      <trkpt lat="52.641337" lon="-1.128849"><ele>36.8</ele><time>2015-09-26T11:45:48.000Z</time></trkpt>
      <trkpt lat="52.641315" lon="-1.128830"><ele>35.8</ele><time>2015-09-26T11:45:50.000Z</time></trkpt>
      <trkpt lat="52.641282" lon="-1.128782"><ele>32.4</ele><time>2015-09-26T11:45:54.000Z</time></trkpt>
      <trkpt lat="52.641115" lon="-1.128635"><ele>34.0</ele><time>2015-09-26T11:46:09.000Z</time></trkpt>
      <trkpt lat="52.640981" lon="-1.128413"><ele>43.8</ele><time>2015-09-26T11:46:24.000Z</time></trkpt>
      <trkpt lat="52.640885" lon="-1.128160"><ele>49.4</ele><time>2015-09-26T11:46:36.000Z</time></trkpt>
      <trkpt lat="52.640855" lon="-1.128063"><ele>51.2</ele><time>2015-09-26T11:46:41.000Z</time></trkpt>
      <trkpt lat="52.640716" lon="-1.127850"><ele>52.4</ele><time>2015-09-26T11:46:55.000Z</time></trkpt>
      <trkpt lat="52.640609" lon="-1.127594"><ele>52.2</ele><time>2015-09-26T11:47:10.000Z</time></trkpt>
      <trkpt lat="52.640496" lon="-1.127345"><ele>51.0</ele><time>2015-09-26T11:47:24.000Z</time></trkpt>
      <trkpt lat="52.640378" lon="-1.127111"><ele>54.4</ele><time>2015-09-26T11:47:38.000Z</time></trkpt>
      <trkpt lat="52.640337" lon="-1.126999"><ele>55.8</ele><time>2015-09-26T11:47:44.000Z</time></trkpt>
      <trkpt lat="52.640222" lon="-1.126762"><ele>51.4</ele><time>2015-09-26T11:47:59.000Z</time></trkpt>
      <trkpt lat="52.640088" lon="-1.126543"><ele>46.4</ele><time>2015-09-26T11:48:13.000Z</time></trkpt>
      <trkpt lat="52.639961" lon="-1.126317"><ele>44.0</ele><time>2015-09-26T11:48:27.000Z</time></trkpt>
      <trkpt lat="52.639826" lon="-1.126100"><ele>39.2</ele><time>2015-09-26T11:48:41.000Z</time></trkpt>
      <trkpt lat="52.639707" lon="-1.125853"><ele>44.0</ele><time>2015-09-26T11:48:56.000Z</time></trkpt>
      <trkpt lat="52.639587" lon="-1.125628"><ele>48.8</ele><time>2015-09-26T11:49:11.000Z</time></trkpt>
      <trkpt lat="52.639426" lon="-1.125442"><ele>56.0</ele><time>2015-09-26T11:49:26.000Z</time></trkpt>
      <trkpt lat="52.639293" lon="-1.125239"><ele>56.0</ele><time>2015-09-26T11:49:39.000Z</time></trkpt>
      <trkpt lat="52.639172" lon="-1.125018"><ele>56.0</ele><time>2015-09-26T11:49:52.000Z</time></trkpt>
      <trkpt lat="52.639070" lon="-1.124802"><ele>50.2</ele><time>2015-09-26T11:50:04.000Z</time></trkpt>
      <trkpt lat="52.638934" lon="-1.124584"><ele>51.0</ele><time>2015-09-26T11:50:19.000Z</time></trkpt>
      <trkpt lat="52.638796" lon="-1.124379"><ele>52.6</ele><time>2015-09-26T11:50:33.000Z</time></trkpt>
      <trkpt lat="52.638668" lon="-1.124176"><ele>50.8</ele><time>2015-09-26T11:50:47.000Z</time></trkpt>
      <trkpt lat="52.638550" lon="-1.123936"><ele>51.2</ele><time>2015-09-26T11:51:01.000Z</time></trkpt>
      <trkpt lat="52.638419" lon="-1.123713"><ele>50.2</ele><time>2015-09-26T11:51:15.000Z</time></trkpt>
      <trkpt lat="52.638275" lon="-1.123525"><ele>48.2</ele><time>2015-09-26T11:51:29.000Z</time></trkpt>
      <trkpt lat="52.638111" lon="-1.123369"><ele>51.6</ele><time>2015-09-26T11:51:43.000Z</time></trkpt>
      <trkpt lat="52.638014" lon="-1.123119"><ele>51.2</ele><time>2015-09-26T11:51:56.000Z</time></trkpt>
      <trkpt lat="52.637940" lon="-1.122832"><ele>51.8</ele><time>2015-09-26T11:52:10.000Z</time></trkpt>
      <trkpt lat="52.637888" lon="-1.122547"><ele>51.6</ele><time>2015-09-26T11:52:24.000Z</time></trkpt>
      <trkpt lat="52.637872" lon="-1.122331"><ele>51.2</ele><time>2015-09-26T11:52:36.000Z</time></trkpt>
      <trkpt lat="52.637714" lon="-1.122351"><ele>51.6</ele><time>2015-09-26T11:53:32.000Z</time></trkpt>
      <trkpt lat="52.637642" lon="-1.122402"><ele>52.4</ele><time>2015-09-26T11:53:38.000Z</time></trkpt>
      <trkpt lat="52.637526" lon="-1.122271"><ele>46.8</ele><time>2015-09-26T11:54:08.000Z</time></trkpt>
      <trkpt lat="52.637350" lon="-1.122366"><ele>44.6</ele><time>2015-09-26T11:54:24.000Z</time></trkpt>
      <trkpt lat="52.637172" lon="-1.122427"><ele>48.0</ele><time>2015-09-26T11:54:39.000Z</time></trkpt>
      <trkpt lat="52.636993" lon="-1.122375"><ele>51.8</ele><time>2015-09-26T11:54:52.000Z</time></trkpt>
      <trkpt lat="52.636822" lon="-1.122472"><ele>55.2</ele><time>2015-09-26T11:55:05.000Z</time></trkpt>
      <trkpt lat="52.636751" lon="-1.122423"><ele>56.0</ele><time>2015-09-26T11:55:11.000Z</time></trkpt>
      <trkpt lat="52.636681" lon="-1.122148"><ele>56.2</ele><time>2015-09-26T11:55:26.000Z</time></trkpt>
      <trkpt lat="52.636614" lon="-1.121849"><ele>58.2</ele><time>2015-09-26T11:55:40.000Z</time></trkpt>
      <trkpt lat="52.636559" lon="-1.121555"><ele>57.4</ele><time>2015-09-26T11:55:54.000Z</time></trkpt>
      <trkpt lat="52.636455" lon="-1.121314"><ele>57.6</ele><time>2015-09-26T11:56:08.000Z</time></trkpt>
      <trkpt lat="52.636356" lon="-1.121063"><ele>56.6</ele><time>2015-09-26T11:56:22.000Z</time></trkpt>
      <trkpt lat="52.636298" lon="-1.120935"><ele>56.6</ele><time>2015-09-26T11:56:30.000Z</time></trkpt>
      <trkpt lat="52.636128" lon="-1.121002"><ele>58.0</ele><time>2015-09-26T11:56:57.000Z</time></trkpt>
      <trkpt lat="52.636062" lon="-1.121057"><ele>58.6</ele><time>2015-09-26T11:57:10.000Z</time></trkpt>
      <trkpt lat="52.636063" lon="-1.121023"><ele>61.0</ele><time>2015-09-26T11:57:37.000Z</time></trkpt>
    </trkseg>
  </trk>
</gpx>
