<?xml version="1.0" encoding="UTF-8"?>
<gpx version="1.1" creator="walkingwithember" xmlns="http://www.topografix.com/GPX/1/1">
  <metadata>
    <name>Walk 2025-03-05</name>
    <time>2025-03-05T12:29:04.000Z</time>
  </metadata>
  <trk>
    <name>Walk 2025-03-05</name>
    <trkseg>
      <trkpt lat="52.696850" lon="-1.198590"><ele>0.0</ele><time>2025-03-05T12:29:04.000Z</time></trkpt>
      <trkpt lat="52.696820" lon="-1.198590"><ele>0.0</ele><time>2025-03-05T12:29:07.000Z</time></trkpt>
      <trkpt lat="52.696780" lon="-1.198570"><ele>0.0</ele><time>2025-03-05T12:29:10.000Z</time></trkpt>
      <trkpt lat="52.696750" lon="-1.198580"><ele>0.0</ele><time>2025-03-05T12:29:13.000Z</time></trkpt>
      <trkpt lat="52.696710" lon="-1.198550"><ele>0.0</ele><time>2025-03-05T12:29:16.000Z</time></trkpt>
      <trkpt lat="52.696680" lon="-1.198520"><ele>0.0</ele><time>2025-03-05T12:29:19.000Z</time></trkpt>
      <trkpt lat="52.696650" lon="-1.198500"><ele>0.0</ele><time>2025-03-05T12:29:22.000Z</time></trkpt>
      <trkpt lat="52.696620" lon="-1.198480"><ele>0.0</ele><time>2025-03-05T12:29:25.000Z</time></trkpt>
      <trkpt lat="52.696590" lon="-1.198460"><ele>0.0</ele><time>2025-03-05T12:29:29.000Z</time></trkpt>
      <trkpt lat="52.696560" lon="-1.198450"><ele>0.0</ele><time>2025-03-05T12:29:33.000Z</time></trkpt>
      <trkpt lat="52.696530" lon="-1.198440"><ele>0.0</ele><time>2025-03-05T12:29:37.000Z</time></trkpt>
      <trkpt lat="52.696500" lon="-1.198420"><ele>0.0</ele><time>2025-03-05T12:29:40.000Z</time></trkpt>
      <trkpt lat="52.696480" lon="-1.198400"><ele>0.0</ele><time>2025-03-05T12:29:44.000Z</time></trkpt>
      <trkpt lat="52.696450" lon="-1.198390"><ele>0.0</ele><time>2025-03-05T12:29:47.000Z</time></trkpt>
      <trkpt lat="52.696420" lon="-1.198380"><ele>0.0</ele><time>2025-03-05T12:29:51.000Z</time></trkpt>
      <trkpt lat="52.696390" lon="-1.198370"><ele>0.0</ele><time>2025-03-05T12:29:55.000Z</time></trkpt>
      <trkpt lat="52.696360" lon="-1.198380"><ele>0.0</ele><time>2025-03-05T12:30:49.000Z</time></trkpt>
      <trkpt lat="52.696330" lon="-1.198350"><ele>0.0</ele><time>2025-03-05T12:31:09.000Z</time></trkpt>
      <trkpt lat="52.696300" lon="-1.198340"><ele>0.0</ele><time>2025-03-05T12:31:15.000Z</time></trkpt>
      <trkpt lat="52.696260" lon="-1.198330"><ele>0.0</ele><time>2025-03-05T12:31:19.000Z</time></trkpt>
      <trkpt lat="52.696230" lon="-1.198320"><ele>0.0</ele><time>2025-03-05T12:31:23.000Z</time></trkpt>
      <trkpt lat="52.696210" lon="-1.198300"><ele>0.0</ele><time>2025-03-05T12:31:28.000Z</time></trkpt>
      <trkpt lat="52.696180" lon="-1.198290"><ele>0.0</ele><time>2025-03-05T12:31:31.000Z</time></trkpt>
      <trkpt lat="52.696150" lon="-1.198290"><ele>0.0</ele><time>2025-03-05T12:31:34.000Z</time></trkpt>
      <trkpt lat="52.696120" lon="-1.198280"><ele>0.0</ele><time>2025-03-05T12:31:37.000Z</time></trkpt>
      <trkpt lat="52.696080" lon="-1.198260"><ele>0.0</ele><time>2025-03-05T12:31:42.000Z</time></trkpt>
      <trkpt lat="52.696060" lon="-1.198250"><ele>0.0</ele><time>2025-03-05T12:31:45.000Z</time></trkpt>
      <trkpt lat="52.696030" lon="-1.198250"><ele>0.0</ele><time>2025-03-05T12:31:48.000Z</time></trkpt>
      <trkpt lat="52.695990" lon="-1.198250"><ele>0.0</ele><time>2025-03-05T12:31:52.000Z</time></trkpt>
      <trkpt lat="52.695960" lon="-1.198230"><ele>0.0</ele><time>2025-03-05T12:31:56.000Z</time></trkpt>
      <trkpt lat="52.695930" lon="-1.198230"><ele>0.0</ele><time>2025-03-05T12:32:00.000Z</time></trkpt>
      <trkpt lat="52.695900" lon="-1.198220"><ele>0.0</ele><time>2025-03-05T12:32:04.000Z</time></trkpt>
      <trkpt lat="52.695870" lon="-1.198220"><ele>0.0</ele><time>2025-03-05T12:32:08.000Z</time></trkpt>
      <trkpt lat="52.695830" lon="-1.198200"><ele>0.0</ele><time>2025-03-05T12:32:12.000Z</time></trkpt>
      <trkpt lat="52.695800" lon="-1.198200"><ele>0.0</ele><time>2025-03-05T12:32:15.000Z</time></trkpt>
      <trkpt lat="52.695770" lon="-1.198190"><ele>0.0</ele><time>2025-03-05T12:32:19.000Z</time></trkpt>
      <trkpt lat="52.695740" lon="-1.198180"><ele>0.0</ele><time>2025-03-05T12:32:24.000Z</time></trkpt>
      <trkpt lat="52.695700" lon="-1.198180"><ele>0.0</ele><time>2025-03-05T12:32:29.000Z</time></trkpt>
      <trkpt lat="52.695670" lon="-1.198170"><ele>0.0</ele><time>2025-03-05T12:32:32.000Z</time></trkpt>
      <trkpt lat="52.695640" lon="-1.198160"><ele>0.0</ele><time>2025-03-05T12:32:36.000Z</time></trkpt>
      <trkpt lat="52.695610" lon="-1.198150"><ele>0.0</ele><time>2025-03-05T12:32:40.000Z</time></trkpt>
      <trkpt lat="52.695580" lon="-1.198140"><ele>0.0</ele><time>2025-03-05T12:32:44.000Z</time></trkpt>
      <trkpt lat="52.695550" lon="-1.198130"><ele>0.0</ele><time>2025-03-05T12:32:48.000Z</time></trkpt>
      <trkpt lat="52.695520" lon="-1.198120"><ele>0.0</ele><time>2025-03-05T12:32:52.000Z</time></trkpt>
      <trkpt lat="52.695490" lon="-1.198110"><ele>0.0</ele><time>2025-03-05T12:33:06.000Z</time></trkpt>
      <trkpt lat="52.695460" lon="-1.198100"><ele>0.0</ele><time>2025-03-05T12:33:10.000Z</time></trkpt>
      <trkpt lat="52.695430" lon="-1.198100"><ele>0.0</ele><time>2025-03-05T12:33:14.000Z</time></trkpt>
      <trkpt lat="52.695390" lon="-1.198090"><ele>0.0</ele><time>2025-03-05T12:33:18.000Z</time></trkpt>
      <trkpt lat="52.695360" lon="-1.198070"><ele>0.0</ele><time>2025-03-05T12:33:22.000Z</time></trkpt>
      <trkpt lat="52.695330" lon="-1.198060"><ele>0.0</ele><time>2025-03-05T12:33:26.000Z</time></trkpt>
      <trkpt lat="52.695290" lon="-1.198030"><ele>0.0</ele><time>2025-03-05T12:33:31.000Z</time></trkpt>
      <trkpt lat="52.695270" lon="-1.198020"><ele>0.0</ele><time>2025-03-05T12:33:34.000Z</time></trkpt>
      <trkpt lat="52.695230" lon="-1.198010"><ele>0.0</ele><time>2025-03-05T12:33:38.000Z</time></trkpt>
      <trkpt lat="52.695200" lon="-1.198000"><ele>0.0</ele><time>2025-03-05T12:33:42.000Z</time></trkpt>
      <trkpt lat="52.695170" lon="-1.197990"><ele>0.0</ele><time>2025-03-05T12:33:47.000Z</time></trkpt>
      <trkpt lat="52.695140" lon="-1.197980"><ele>0.0</ele><time>2025-03-05T12:33:50.000Z</time></trkpt>
      <trkpt lat="52.695110" lon="-1.197960"><ele>0.0</ele><time>2025-03-05T12:33:54.000Z</time></trkpt>
      <trkpt lat="52.695080" lon="-1.197960"><ele>0.0</ele><time>2025-03-05T12:33:57.000Z</time></trkpt>
      <trkpt lat="52.695050" lon="-1.197950"><ele>0.0</ele><time>2025-03-05T12:34:03.000Z</time></trkpt>
      <trkpt lat="52.695020" lon="-1.197940"><ele>0.0</ele><time>2025-03-05T12:34:05.000Z</time></trkpt>
      <trkpt lat="52.694990" lon="-1.197940"><ele>0.0</ele><time>2025-03-05T12:34:09.000Z</time></trkpt>
      <trkpt lat="52.694960" lon="-1.197920"><ele>0.0</ele><time>2025-03-05T12:34:13.000Z</time></trkpt>
      <trkpt lat="52.694930" lon="-1.197920"><ele>0.0</ele><time>2025-03-05T12:34:18.000Z</time></trkpt>
      <trkpt lat="52.694900" lon="-1.197900"><ele>0.0</ele><time>2025-03-05T12:34:35.000Z</time></trkpt>
      <trkpt lat="52.694870" lon="-1.197910"><ele>0.0</ele><time>2025-03-05T12:34:48.000Z</time></trkpt>
      <trkpt lat="52.694830" lon="-1.197910"><ele>0.0</ele><time>2025-03-05T12:34:52.000Z</time></trkpt>
      <trkpt lat="52.694800" lon="-1.197900"><ele>0.0</ele><time>2025-03-05T12:34:55.000Z</time></trkpt>
      <trkpt lat="52.694760" lon="-1.197900"><ele>0.0</ele><time>2025-03-05T12:34:59.000Z</time></trkpt>
      <trkpt lat="52.694730" lon="-1.197890"><ele>0.0</ele><time>2025-03-05T12:35:02.000Z</time></trkpt>
      <trkpt lat="52.694690" lon="-1.197890"><ele>0.0</ele><time>2025-03-05T12:35:05.000Z</time></trkpt>
      <trkpt lat="52.694670" lon="-1.197890"><ele>0.0</ele><time>2025-03-05T12:35:08.000Z</time></trkpt>
      <trkpt lat="52.694630" lon="-1.197880"><ele>0.0</ele><time>2025-03-05T12:35:11.000Z</time></trkpt>
      <trkpt lat="52.694590" lon="-1.197890"><ele>0.0</ele><time>2025-03-05T12:35:15.000Z</time></trkpt>
      <trkpt lat="52.694550" lon="-1.197900"><ele>0.0</ele><time>2025-03-05T12:35:19.000Z</time></trkpt>
      <trkpt lat="52.694520" lon="-1.197910"><ele>0.0</ele><time>2025-03-05T12:35:23.000Z</time></trkpt>
      <trkpt lat="52.694490" lon="-1.197920"><ele>0.0</ele><time>2025-03-05T12:35:26.000Z</time></trkpt>
      <trkpt lat="52.694460" lon="-1.197930"><ele>0.0</ele><time>2025-03-05T12:35:30.000Z</time></trkpt>
      <trkpt lat="52.694430" lon="-1.197930"><ele>0.0</ele><time>2025-03-05T12:35:35.000Z</time></trkpt>
      <trkpt lat="52.694400" lon="-1.197940"><ele>0.0</ele><time>2025-03-05T12:35:40.000Z</time></trkpt>
      <trkpt lat="52.694370" lon="-1.197940"><ele>0.0</ele><time>2025-03-05T12:35:43.000Z</time></trkpt>
      <trkpt lat="52.694350" lon="-1.197950"><ele>0.0</ele><time>2025-03-05T12:35:45.000Z</time></trkpt>
      <trkpt lat="52.694320" lon="-1.197970"><ele>0.0</ele><time>2025-03-05T12:35:49.000Z</time></trkpt>
      <trkpt lat="52.694280" lon="-1.197980"><ele>0.0</ele><time>2025-03-05T12:35:52.000Z</time></trkpt>
      <trkpt lat="52.694250" lon="-1.198000"><ele>0.0</ele><time>2025-03-05T12:35:56.000Z</time></trkpt>
      <trkpt lat="52.694220" lon="-1.198010"><ele>0.0</ele><time>2025-03-05T12:36:01.000Z</time></trkpt>
      <trkpt lat="52.694190" lon="-1.198030"><ele>0.0</ele><time>2025-03-05T12:36:06.000Z</time></trkpt>
      <trkpt lat="52.694160" lon="-1.198050"><ele>0.0</ele><time>2025-03-05T12:36:10.000Z</time></trkpt>
      <trkpt lat="52.694130" lon="-1.198060"><ele>0.0</ele><time>2025-03-05T12:36:13.000Z</time></trkpt>
      <trkpt lat="52.694100" lon="-1.198070"><ele>0.0</ele><time>2025-03-05T12:36:17.000Z</time></trkpt>
      <trkpt lat="52.694070" lon="-1.198090"><ele>0.0</ele><time>2025-03-05T12:36:22.000Z</time></trkpt>
      <trkpt lat="52.694050" lon="-1.198110"><ele>0.0</ele><time>2025-03-05T12:36:25.000Z</time></trkpt>
      <trkpt lat="52.694020" lon="-1.198120"><ele>0.0</ele><time>2025-03-05T12:36:27.000Z</time></trkpt>
      <trkpt lat="52.693980" lon="-1.198130"><ele>0.0</ele><time>2025-03-05T12:36:37.000Z</time></trkpt>
      <trkpt lat="52.693960" lon="-1.198150"><ele>0.0</ele><time>2025-03-05T12:36:40.000Z</time></trkpt>
      <trkpt lat="52.693930" lon="-1.198170"><ele>0.0</ele><time>2025-03-05T12:36:42.000Z</time></trkpt>
      <trkpt lat="52.693900" lon="-1.198200"><ele>0.0</ele><time>2025-03-05T12:36:46.000Z</time></trkpt>
      <trkpt lat="52.693870" lon="-1.198220"><ele>0.0</ele><time>2025-03-05T12:36:49.000Z</time></trkpt>
      <trkpt lat="52.693850" lon="-1.198250"><ele>0.0</ele><time>2025-03-05T12:36:54.000Z</time></trkpt>
      <trkpt lat="52.693820" lon="-1.198270"><ele>0.0</ele><time>2025-03-05T12:36:58.000Z</time></trkpt>
      <trkpt lat="52.693790" lon="-1.198290"><ele>0.0</ele><time>2025-03-05T12:37:01.000Z</time></trkpt>
      <trkpt lat="52.693760" lon="-1.198310"><ele>0.0</ele><time>2025-03-05T12:37:04.000Z</time></trkpt>
      <trkpt lat="52.693730" lon="-1.198350"><ele>0.0</ele><time>2025-03-05T12:37:08.000Z</time></trkpt>
      <trkpt lat="52.693700" lon="-1.198370"><ele>0.0</ele><time>2025-03-05T12:37:13.000Z</time></trkpt>
      <trkpt lat="52.693680" lon="-1.198380"><ele>0.0</ele><time>2025-03-05T12:37:22.000Z</time></trkpt>
      <trkpt lat="52.693640" lon="-1.198420"><ele>0.0</ele><time>2025-03-05T12:37:26.000Z</time></trkpt>
      <trkpt lat="52.693610" lon="-1.198440"><ele>0.0</ele><time>2025-03-05T12:37:32.000Z</time></trkpt>
      <trkpt lat="52.693580" lon="-1.198460"><ele>0.0</ele><time>2025-03-05T12:37:36.000Z</time></trkpt>
      <trkpt lat="52.693550" lon="-1.198480"><ele>0.0</ele><time>2025-03-05T12:37:41.000Z</time></trkpt>
      <trkpt lat="52.693520" lon="-1.198510"><ele>0.0</ele><time>2025-03-05T12:37:45.000Z</time></trkpt>
      <trkpt lat="52.693490" lon="-1.198530"><ele>0.0</ele><time>2025-03-05T12:37:49.000Z</time></trkpt>
      <trkpt lat="52.693460" lon="-1.198550"><ele>0.0</ele><time>2025-03-05T12:37:52.000Z</time></trkpt>
      <trkpt lat="52.693440" lon="-1.198580"><ele>0.0</ele><time>2025-03-05T12:37:56.000Z</time></trkpt>
      <trkpt lat="52.693410" lon="-1.198610"><ele>0.0</ele><time>2025-03-05T12:38:00.000Z</time></trkpt>
      <trkpt lat="52.693380" lon="-1.198630"><ele>0.0</ele><time>2025-03-05T12:38:03.000Z</time></trkpt>
      <trkpt lat="52.693350" lon="-1.198640"><ele>0.0</ele><time>2025-03-05T12:38:08.000Z</time></trkpt>
      <trkpt lat="52.693320" lon="-1.198670"><ele>0.0</ele><time>2025-03-05T12:38:13.000Z</time></trkpt>
      <trkpt lat="52.693290" lon="-1.198680"><ele>0.0</ele><time>2025-03-05T12:38:17.000Z</time></trkpt>
      <trkpt lat="52.693270" lon="-1.198710"><ele>0.0</ele><time>2025-03-05T12:38:21.000Z</time></trkpt>
      <trkpt lat="52.693240" lon="-1.198730"><ele>0.0</ele><time>2025-03-05T12:38:25.000Z</time></trkpt>
      <trkpt lat="52.693220" lon="-1.198750"><ele>0.0</ele><time>2025-03-05T12:38:28.000Z</time></trkpt>
      <trkpt lat="52.693190" lon="-1.198760"><ele>0.0</ele><time>2025-03-05T12:38:32.000Z</time></trkpt>
      <trkpt lat="52.693160" lon="-1.198800"><ele>0.0</ele><time>2025-03-05T12:38:36.000Z</time></trkpt>
      <trkpt lat="52.693140" lon="-1.198830"><ele>0.0</ele><time>2025-03-05T12:38:40.000Z</time></trkpt>
      <trkpt lat="52.693110" lon="-1.198850"><ele>0.0</ele><time>2025-03-05T12:38:43.000Z</time></trkpt>
      <trkpt lat="52.693080" lon="-1.198870"><ele>0.0</ele><time>2025-03-05T12:38:48.000Z</time></trkpt>
      <trkpt lat="52.693050" lon="-1.198900"><ele>0.0</ele><time>2025-03-05T12:38:52.000Z</time></trkpt>
      <trkpt lat="52.693020" lon="-1.198920"><ele>0.0</ele><time>2025-03-05T12:38:56.000Z</time></trkpt>
      <trkpt lat="52.692990" lon="-1.198940"><ele>0.0</ele><time>2025-03-05T12:39:00.000Z</time></trkpt>
      <trkpt lat="52.692960" lon="-1.198960"><ele>0.0</ele><time>2025-03-05T12:39:04.000Z</time></trkpt>
      <trkpt lat="52.692930" lon="-1.198990"><ele>0.0</ele><time>2025-03-05T12:39:08.000Z</time></trkpt>
      <trkpt lat="52.692890" lon="-1.199010"><ele>0.0</ele><time>2025-03-05T12:39:13.000Z</time></trkpt>
      <trkpt lat="52.692870" lon="-1.199040"><ele>0.0</ele><time>2025-03-05T12:39:18.000Z</time></trkpt>
      <trkpt lat="52.692840" lon="-1.199060"><ele>0.0</ele><time>2025-03-05T12:39:22.000Z</time></trkpt>
      <trkpt lat="52.692810" lon="-1.199040"><ele>0.0</ele><time>2025-03-05T12:39:28.000Z</time></trkpt>
      <trkpt lat="52.692780" lon="-1.198980"><ele>0.0</ele><time>2025-03-05T12:40:04.000Z</time></trkpt>
      <trkpt lat="52.692770" lon="-1.199040"><ele>0.0</ele><time>2025-03-05T12:40:17.000Z</time></trkpt>
      <trkpt lat="52.692760" lon="-1.199100"><ele>0.0</ele><time>2025-03-05T12:40:18.000Z</time></trkpt>
      <trkpt lat="52.692740" lon="-1.199130"><ele>0.0</ele><time>2025-03-05T12:40:21.000Z</time></trkpt>
      <trkpt lat="52.692720" lon="-1.199170"><ele>0.0</ele><time>2025-03-05T12:40:24.000Z</time></trkpt>
      <trkpt lat="52.692690" lon="-1.199210"><ele>0.0</ele><time>2025-03-05T12:40:28.000Z</time></trkpt>
      <trkpt lat="52.692660" lon="-1.199220"><ele>0.0</ele><time>2025-03-05T12:40:32.000Z</time></trkpt>
      <trkpt lat="52.692630" lon="-1.199250"><ele>0.0</ele><time>2025-03-05T12:40:37.000Z</time></trkpt>
      <trkpt lat="52.692600" lon="-1.199240"><ele>0.0</ele><time>2025-03-05T12:40:56.000Z</time></trkpt>
      <trkpt lat="52.692570" lon="-1.199240"><ele>0.0</ele><time>2025-03-05T12:41:09.000Z</time></trkpt>
      <trkpt lat="52.692560" lon="-1.199300"><ele>0.0</ele><time>2025-03-05T12:41:11.000Z</time></trkpt>
      <trkpt lat="52.692550" lon="-1.199340"><ele>0.0</ele><time>2025-03-05T12:41:12.000Z</time></trkpt>
      <trkpt lat="52.692520" lon="-1.199370"><ele>0.0</ele><time>2025-03-05T12:41:14.000Z</time></trkpt>
      <trkpt lat="52.692490" lon="-1.199370"><ele>0.0</ele><time>2025-03-05T12:41:17.000Z</time></trkpt>
      <trkpt lat="52.692460" lon="-1.199400"><ele>0.0</ele><time>2025-03-05T12:41:20.000Z</time></trkpt>
      <trkpt lat="52.692420" lon="-1.199430"><ele>0.0</ele><time>2025-03-05T12:41:23.000Z</time></trkpt>
      <trkpt lat="52.692390" lon="-1.199460"><ele>0.0</ele><time>2025-03-05T12:41:27.000Z</time></trkpt>
      <trkpt lat="52.692360" lon="-1.199490"><ele>0.0</ele><time>2025-03-05T12:41:29.000Z</time></trkpt>
      <trkpt lat="52.692330" lon="-1.199530"><ele>0.0</ele><time>2025-03-05T12:41:34.000Z</time></trkpt>
      <trkpt lat="52.692290" lon="-1.199560"><ele>0.0</ele><time>2025-03-05T12:41:37.000Z</time></trkpt>
      <trkpt lat="52.692260" lon="-1.199590"><ele>0.0</ele><time>2025-03-05T12:41:39.000Z</time></trkpt>
      <trkpt lat="52.692230" lon="-1.199620"><ele>0.0</ele><time>2025-03-05T12:41:42.000Z</time></trkpt>
      <trkpt lat="52.692200" lon="-1.199650"><ele>0.0</ele><time>2025-03-05T12:41:45.000Z</time></trkpt>
      <trkpt lat="52.692180" lon="-1.199680"><ele>0.0</ele><time>2025-03-05T12:41:48.000Z</time></trkpt>
      <trkpt lat="52.692150" lon="-1.199710"><ele>0.0</ele><time>2025-03-05T12:41:51.000Z</time></trkpt>
      <trkpt lat="52.692120" lon="-1.199740"><ele>0.0</ele><time>2025-03-05T12:41:54.000Z</time></trkpt>
      <trkpt lat="52.692100" lon="-1.199770"><ele>0.0</ele><time>2025-03-05T12:41:57.000Z</time></trkpt>
      <trkpt lat="52.692070" lon="-1.199790"><ele>0.0</ele><time>2025-03-05T12:42:00.000Z</time></trkpt>
      <trkpt lat="52.692050" lon="-1.199820"><ele>0.0</ele><time>2025-03-05T12:42:03.000Z</time></trkpt>
      <trkpt lat="52.692020" lon="-1.199850"><ele>0.0</ele><time>2025-03-05T12:42:06.000Z</time></trkpt>
      <trkpt lat="52.692000" lon="-1.199870"><ele>0.0</ele><time>2025-03-05T12:42:09.000Z</time></trkpt>
      <trkpt lat="52.691970" lon="-1.199890"><ele>0.0</ele><time>2025-03-05T12:42:12.000Z</time></trkpt>
      <trkpt lat="52.691930" lon="-1.199930"><ele>0.0</ele><time>2025-03-05T12:42:15.000Z</time></trkpt>
      <trkpt lat="52.691910" lon="-1.199960"><ele>0.0</ele><time>2025-03-05T12:42:18.000Z</time></trkpt>
      <trkpt lat="52.691890" lon="-1.200000"><ele>0.0</ele><time>2025-03-05T12:42:21.000Z</time></trkpt>
      <trkpt lat="52.691860" lon="-1.200040"><ele>0.0</ele><time>2025-03-05T12:42:24.000Z</time></trkpt>
      <trkpt lat="52.691840" lon="-1.200090"><ele>0.0</ele><time>2025-03-05T12:42:27.000Z</time></trkpt>
      <trkpt lat="52.691820" lon="-1.200120"><ele>0.0</ele><time>2025-03-05T12:42:29.000Z</time></trkpt>
      <trkpt lat="52.691790" lon="-1.200150"><ele>0.0</ele><time>2025-03-05T12:42:32.000Z</time></trkpt>
      <trkpt lat="52.691760" lon="-1.200170"><ele>0.0</ele><time>2025-03-05T12:42:35.000Z</time></trkpt>
      <trkpt lat="52.691740" lon="-1.200150"><ele>0.0</ele><time>2025-03-05T12:42:37.000Z</time></trkpt>
      <trkpt lat="52.691710" lon="-1.200190"><ele>0.0</ele><time>2025-03-05T12:42:42.000Z</time></trkpt>
      <trkpt lat="52.691690" lon="-1.200230"><ele>0.0</ele><time>2025-03-05T12:42:46.000Z</time></trkpt>
      <trkpt lat="52.691660" lon="-1.200250"><ele>0.0</ele><time>2025-03-05T12:42:49.000Z</time></trkpt>
      <trkpt lat="52.691650" lon="-1.200290"><ele>0.0</ele><time>2025-03-05T12:42:50.000Z</time></trkpt>
      <trkpt lat="52.691620" lon="-1.200310"><ele>0.0</ele><time>2025-03-05T12:42:55.000Z</time></trkpt>
      <trkpt lat="52.691590" lon="-1.200330"><ele>0.0</ele><time>2025-03-05T12:42:58.000Z</time></trkpt>
      <trkpt lat="52.691570" lon="-1.200380"><ele>0.0</ele><time>2025-03-05T12:43:03.000Z</time></trkpt>
      <trkpt lat="52.691540" lon="-1.200410"><ele>0.0</ele><time>2025-03-05T12:43:09.000Z</time></trkpt>
      <trkpt lat="52.691510" lon="-1.200420"><ele>0.0</ele><time>2025-03-05T12:43:13.000Z</time></trkpt>
      <trkpt lat="52.691480" lon="-1.200470"><ele>0.0</ele><time>2025-03-05T12:43:17.000Z</time></trkpt>
      <trkpt lat="52.691450" lon="-1.200500"><ele>0.0</ele><time>2025-03-05T12:43:22.000Z</time></trkpt>
      <trkpt lat="52.691420" lon="-1.200540"><ele>0.0</ele><time>2025-03-05T12:43:27.000Z</time></trkpt>
      <trkpt lat="52.691400" lon="-1.200570"><ele>0.0</ele><time>2025-03-05T12:43:32.000Z</time></trkpt>
      <trkpt lat="52.691390" lon="-1.200640"><ele>0.0</ele><time>2025-03-05T12:43:41.000Z</time></trkpt>
      <trkpt lat="52.691380" lon="-1.200680"><ele>0.0</ele><time>2025-03-05T12:43:48.000Z</time></trkpt>
      <trkpt lat="52.691400" lon="-1.200740"><ele>0.0</ele><time>2025-03-05T12:43:52.000Z</time></trkpt>
      <trkpt lat="52.691410" lon="-1.200790"><ele>0.0</ele><time>2025-03-05T12:43:56.000Z</time></trkpt>
      <trkpt lat="52.691420" lon="-1.200840"><ele>0.0</ele><time>2025-03-05T12:44:03.000Z</time></trkpt>
      <trkpt lat="52.691430" lon="-1.200890"><ele>0.0</ele><time>2025-03-05T12:44:11.000Z</time></trkpt>
      <trkpt lat="52.691460" lon="-1.200930"><ele>0.0</ele><time>2025-03-05T12:44:24.000Z</time></trkpt>
      <trkpt lat="52.691490" lon="-1.200960"><ele>0.0</ele><time>2025-03-05T12:44:28.000Z</time></trkpt>
      <trkpt lat="52.691500" lon="-1.201010"><ele>0.0</ele><time>2025-03-05T12:44:38.000Z</time></trkpt>
      <trkpt lat="52.691510" lon="-1.201050"><ele>0.0</ele><time>2025-03-05T12:44:43.000Z</time></trkpt>
      <trkpt lat="52.691520" lon="-1.201110"><ele>0.0</ele><time>2025-03-05T12:44:48.000Z</time></trkpt>
      <trkpt lat="52.691540" lon="-1.201160"><ele>0.0</ele><time>2025-03-05T12:44:55.000Z</time></trkpt>
      <trkpt lat="52.691560" lon="-1.201140"><ele>0.0</ele><time>2025-03-05T12:44:58.000Z</time></trkpt>
      <trkpt lat="52.691530" lon="-1.201130"><ele>0.0</ele><time>2025-03-05T12:45:00.000Z</time></trkpt>
      <trkpt lat="52.691580" lon="-1.201120"><ele>0.0</ele><time>2025-03-05T12:45:02.000Z</time></trkpt>
      <trkpt lat="52.691620" lon="-1.201090"><ele>0.0</ele><time>2025-03-05T12:45:08.000Z</time></trkpt>
      <trkpt lat="52.691600" lon="-1.201150"><ele>0.0</ele><time>2025-03-05T12:45:10.000Z</time></trkpt>
      <trkpt lat="52.691620" lon="-1.201190"><ele>0.0</ele><time>2025-03-05T12:45:15.000Z</time></trkpt>
      <trkpt lat="52.691630" lon="-1.201140"><ele>0.0</ele><time>2025-03-05T12:45:16.000Z</time></trkpt>
      <trkpt lat="52.691660" lon="-1.201100"><ele>0.0</ele><time>2025-03-05T12:45:17.000Z</time></trkpt>
      <trkpt lat="52.691690" lon="-1.200990"><ele>0.0</ele><time>2025-03-05T12:45:18.000Z</time></trkpt>
      <trkpt lat="52.691650" lon="-1.201000"><ele>0.0</ele><time>2025-03-05T12:45:20.000Z</time></trkpt>
      <trkpt lat="52.691670" lon="-1.200940"><ele>0.0</ele><time>2025-03-05T12:45:22.000Z</time></trkpt>
      <trkpt lat="52.691680" lon="-1.200890"><ele>0.0</ele><time>2025-03-05T12:45:31.000Z</time></trkpt>
      <trkpt lat="52.691690" lon="-1.200830"><ele>0.0</ele><time>2025-03-05T12:45:35.000Z</time></trkpt>
      <trkpt lat="52.691720" lon="-1.200840"><ele>0.0</ele><time>2025-03-05T12:45:37.000Z</time></trkpt>
      <trkpt lat="52.691750" lon="-1.200850"><ele>0.0</ele><time>2025-03-05T12:45:38.000Z</time></trkpt>
      <trkpt lat="52.691720" lon="-1.200870"><ele>0.0</ele><time>2025-03-05T12:45:49.000Z</time></trkpt>
      <trkpt lat="52.691740" lon="-1.200920"><ele>0.0</ele><time>2025-03-05T12:45:53.000Z</time></trkpt>
      <trkpt lat="52.691770" lon="-1.200930"><ele>0.0</ele><time>2025-03-05T12:45:54.000Z</time></trkpt>
      <trkpt lat="52.691800" lon="-1.200920"><ele>0.0</ele><time>2025-03-05T12:45:55.000Z</time></trkpt>
      <trkpt lat="52.691780" lon="-1.200880"><ele>0.0</ele><time>2025-03-05T12:47:21.000Z</time></trkpt>
      <trkpt lat="52.691810" lon="-1.200920"><ele>0.0</ele><time>2025-03-05T12:49:24.000Z</time></trkpt>
      <trkpt lat="52.691800" lon="-1.200970"><ele>0.0</ele><time>2025-03-05T12:49:40.000Z</time></trkpt>
      <trkpt lat="52.691820" lon="-1.200920"><ele>0.0</ele><time>2025-03-05T12:49:49.000Z</time></trkpt>
      <trkpt lat="52.691840" lon="-1.200860"><ele>0.0</ele><time>2025-03-05T12:51:32.000Z</time></trkpt>
      <trkpt lat="52.691820" lon="-1.200890"><ele>0.0</ele><time>2025-03-05T12:51:36.000Z</time></trkpt>
      <trkpt lat="52.691790" lon="-1.200920"><ele>0.0</ele><time>2025-03-05T12:51:42.000Z</time></trkpt>
      <trkpt lat="52.691760" lon="-1.200930"><ele>0.0</ele><time>2025-03-05T12:51:44.000Z</time></trkpt>
      <trkpt lat="52.691790" lon="-1.200900"><ele>0.0</ele><time>2025-03-05T12:51:53.000Z</time></trkpt>
      <trkpt lat="52.691750" lon="-1.200900"><ele>0.0</ele><time>2025-03-05T12:51:56.000Z</time></trkpt>
      <trkpt lat="52.691720" lon="-1.200880"><ele>0.0</ele><time>2025-03-05T12:52:00.000Z</time></trkpt>
      <trkpt lat="52.691690" lon="-1.200870"><ele>0.0</ele><time>2025-03-05T12:52:05.000Z</time></trkpt>
      <trkpt lat="52.691660" lon="-1.200900"><ele>0.0</ele><time>2025-03-05T12:52:08.000Z</time></trkpt>
      <trkpt lat="52.691660" lon="-1.200940"><ele>0.0</ele><time>2025-03-05T12:52:13.000Z</time></trkpt>
      <trkpt lat="52.691660" lon="-1.200990"><ele>0.0</ele><time>2025-03-05T12:52:17.000Z</time></trkpt>
      <trkpt lat="52.691650" lon="-1.201040"><ele>0.0</ele><time>2025-03-05T12:52:19.000Z</time></trkpt>
      <trkpt lat="52.691650" lon="-1.201080"><ele>0.0</ele><time>2025-03-05T12:52:26.000Z</time></trkpt>
      <trkpt lat="52.691630" lon="-1.201120"><ele>0.0</ele><time>2025-03-05T12:52:29.000Z</time></trkpt>
      <trkpt lat="52.691600" lon="-1.201150"><ele>0.0</ele><time>2025-03-05T12:52:32.000Z</time></trkpt>
      <trkpt lat="52.691570" lon="-1.201190"><ele>0.0</ele><time>2025-03-05T12:52:45.000Z</time></trkpt>
      <trkpt lat="52.691550" lon="-1.201190"><ele>0.0</ele><time>2025-03-05T12:52:49.000Z</time></trkpt>
      <trkpt lat="52.691560" lon="-1.201150"><ele>0.0</ele><time>2025-03-05T12:52:59.000Z</time></trkpt>
      <trkpt lat="52.691540" lon="-1.201120"><ele>0.0</ele><time>2025-03-05T12:53:07.000Z</time></trkpt>
      <trkpt lat="52.691510" lon="-1.201120"><ele>0.0</ele><time>2025-03-05T12:53:13.000Z</time></trkpt>
      <trkpt lat="52.691490" lon="-1.201050"><ele>0.0</ele><time>2025-03-05T12:53:15.000Z</time></trkpt>
      <trkpt lat="52.691460" lon="-1.201010"><ele>0.0</ele><time>2025-03-05T12:53:27.000Z</time></trkpt>
      <trkpt lat="52.691440" lon="-1.200980"><ele>0.0</ele><time>2025-03-05T12:53:34.000Z</time></trkpt>
      <trkpt lat="52.691420" lon="-1.200940"><ele>0.0</ele><time>2025-03-05T12:53:38.000Z</time></trkpt>
      <trkpt lat="52.691390" lon="-1.200880"><ele>0.0</ele><time>2025-03-05T12:53:41.000Z</time></trkpt>
      <trkpt lat="52.691390" lon="-1.200830"><ele>0.0</ele><time>2025-03-05T12:53:47.000Z</time></trkpt>
      <trkpt lat="52.691430" lon="-1.200800"><ele>0.0</ele><time>2025-03-05T12:53:50.000Z</time></trkpt>
      <trkpt lat="52.691380" lon="-1.200760"><ele>0.0</ele><time>2025-03-05T12:53:52.000Z</time></trkpt>
      <trkpt lat="52.691350" lon="-1.200760"><ele>0.0</ele><time>2025-03-05T12:53:56.000Z</time></trkpt>
      <trkpt lat="52.691340" lon="-1.200720"><ele>0.0</ele><time>2025-03-05T12:54:01.000Z</time></trkpt>
      <trkpt lat="52.691310" lon="-1.200700"><ele>0.0</ele><time>2025-03-05T12:54:04.000Z</time></trkpt>
      <trkpt lat="52.691280" lon="-1.200680"><ele>0.0</ele><time>2025-03-05T12:54:08.000Z</time></trkpt>
      <trkpt lat="52.691250" lon="-1.200690"><ele>0.0</ele><time>2025-03-05T12:54:12.000Z</time></trkpt>
      <trkpt lat="52.691220" lon="-1.200710"><ele>0.0</ele><time>2025-03-05T12:54:17.000Z</time></trkpt>
      <trkpt lat="52.691200" lon="-1.200720"><ele>0.0</ele><time>2025-03-05T12:54:22.000Z</time></trkpt>
      <trkpt lat="52.691160" lon="-1.200780"><ele>0.0</ele><time>2025-03-05T12:54:28.000Z</time></trkpt>
      <trkpt lat="52.691150" lon="-1.200830"><ele>0.0</ele><time>2025-03-05T12:54:29.000Z</time></trkpt>
      <trkpt lat="52.691140" lon="-1.200870"><ele>0.0</ele><time>2025-03-05T12:54:32.000Z</time></trkpt>
      <trkpt lat="52.691120" lon="-1.200890"><ele>0.0</ele><time>2025-03-05T12:54:37.000Z</time></trkpt>
      <trkpt lat="52.691090" lon="-1.200900"><ele>0.0</ele><time>2025-03-05T12:54:41.000Z</time></trkpt>
      <trkpt lat="52.691050" lon="-1.200930"><ele>0.0</ele><time>2025-03-05T12:54:47.000Z</time></trkpt>
      <trkpt lat="52.691050" lon="-1.200970"><ele>0.0</ele><time>2025-03-05T12:54:48.000Z</time></trkpt>
      <trkpt lat="52.691020" lon="-1.200990"><ele>0.0</ele><time>2025-03-05T12:54:51.000Z</time></trkpt>
      <trkpt lat="52.691000" lon="-1.201020"><ele>0.0</ele><time>2025-03-05T12:54:54.000Z</time></trkpt>
      <trkpt lat="52.690980" lon="-1.201060"><ele>0.0</ele><time>2025-03-05T12:54:58.000Z</time></trkpt>
      <trkpt lat="52.690950" lon="-1.201090"><ele>0.0</ele><time>2025-03-05T12:55:03.000Z</time></trkpt>
      <trkpt lat="52.690910" lon="-1.201120"><ele>0.0</ele><time>2025-03-05T12:55:08.000Z</time></trkpt>
      <trkpt lat="52.690890" lon="-1.201150"><ele>0.0</ele><time>2025-03-05T12:55:13.000Z</time></trkpt>
      <trkpt lat="52.690860" lon="-1.201180"><ele>0.0</ele><time>2025-03-05T12:55:16.000Z</time></trkpt>
      <trkpt lat="52.690820" lon="-1.201180"><ele>0.0</ele><time>2025-03-05T12:55:20.000Z</time></trkpt>
      <trkpt lat="52.690820" lon="-1.201240"><ele>0.0</ele><time>2025-03-05T12:55:26.000Z</time></trkpt>
      <trkpt lat="52.690830" lon="-1.201290"><ele>0.0</ele><time>2025-03-05T12:55:27.000Z</time></trkpt>
      <trkpt lat="52.690810" lon="-1.201320"><ele>0.0</ele><time>2025-03-05T12:55:32.000Z</time></trkpt>
      <trkpt lat="52.690780" lon="-1.201320"><ele>0.0</ele><time>2025-03-05T12:55:36.000Z</time></trkpt>
      <trkpt lat="52.690740" lon="-1.201350"><ele>0.0</ele><time>2025-03-05T12:55:39.000Z</time></trkpt>
      <trkpt lat="52.690720" lon="-1.201390"><ele>0.0</ele><time>2025-03-05T12:55:42.000Z</time></trkpt>
      <trkpt lat="52.690690" lon="-1.201420"><ele>0.0</ele><time>2025-03-05T12:55:47.000Z</time></trkpt>
      <trkpt lat="52.690670" lon="-1.201460"><ele>0.0</ele><time>2025-03-05T12:55:59.000Z</time></trkpt>
      <trkpt lat="52.690650" lon="-1.201490"><ele>0.0</ele><time>2025-03-05T12:56:04.000Z</time></trkpt>
      <trkpt lat="52.690610" lon="-1.201500"><ele>0.0</ele><time>2025-03-05T12:56:07.000Z</time></trkpt>
      <trkpt lat="52.690580" lon="-1.201510"><ele>0.0</ele><time>2025-03-05T12:56:12.000Z</time></trkpt>
      <trkpt lat="52.690550" lon="-1.201540"><ele>0.0</ele><time>2025-03-05T12:56:15.000Z</time></trkpt>
      <trkpt lat="52.690520" lon="-1.201560"><ele>0.0</ele><time>2025-03-05T12:56:21.000Z</time></trkpt>
      <trkpt lat="52.690490" lon="-1.201590"><ele>0.0</ele><time>2025-03-05T12:56:25.000Z</time></trkpt>
      <trkpt lat="52.690460" lon="-1.201610"><ele>0.0</ele><time>2025-03-05T12:56:30.000Z</time></trkpt>
      <trkpt lat="52.690440" lon="-1.201640"><ele>0.0</ele><time>2025-03-05T12:56:46.000Z</time></trkpt>
      <trkpt lat="52.690400" lon="-1.201670"><ele>0.0</ele><time>2025-03-05T12:56:52.000Z</time></trkpt>
      <trkpt lat="52.690370" lon="-1.201690"><ele>0.0</ele><time>2025-03-05T12:56:56.000Z</time></trkpt>
      <trkpt lat="52.690340" lon="-1.201730"><ele>0.0</ele><time>2025-03-05T12:56:59.000Z</time></trkpt>
      <trkpt lat="52.690310" lon="-1.201750"><ele>0.0</ele><time>2025-03-05T12:57:05.000Z</time></trkpt>
      <trkpt lat="52.690290" lon="-1.201780"><ele>0.0</ele><time>2025-03-05T12:57:07.000Z</time></trkpt>
      <trkpt lat="52.690260" lon="-1.201810"><ele>0.0</ele><time>2025-03-05T12:57:12.000Z</time></trkpt>
      <trkpt lat="52.690230" lon="-1.201840"><ele>0.0</ele><time>2025-03-05T12:57:18.000Z</time></trkpt>
      <trkpt lat="52.690200" lon="-1.201840"><ele>0.0</ele><time>2025-03-05T12:57:24.000Z</time></trkpt>
      <trkpt lat="52.690180" lon="-1.201880"><ele>0.0</ele><time>2025-03-05T12:57:30.000Z</time></trkpt>
      <trkpt lat="52.690150" lon="-1.201910"><ele>0.0</ele><time>2025-03-05T12:57:33.000Z</time></trkpt>
      <trkpt lat="52.690120" lon="-1.201950"><ele>0.0</ele><time>2025-03-05T12:57:37.000Z</time></trkpt>
      <trkpt lat="52.690110" lon="-1.202000"><ele>0.0</ele><time>2025-03-05T12:57:50.000Z</time></trkpt>
      <trkpt lat="52.690080" lon="-1.202020"><ele>0.0</ele><time>2025-03-05T12:57:54.000Z</time></trkpt>
      <trkpt lat="52.690060" lon="-1.202040"><ele>0.0</ele><time>2025-03-05T12:57:58.000Z</time></trkpt>
      <trkpt lat="52.690030" lon="-1.202070"><ele>0.0</ele><time>2025-03-05T12:58:04.000Z</time></trkpt>
      <trkpt lat="52.690000" lon="-1.202100"><ele>0.0</ele><time>2025-03-05T12:58:08.000Z</time></trkpt>
      <trkpt lat="52.689970" lon="-1.202130"><ele>0.0</ele><time>2025-03-05T12:58:13.000Z</time></trkpt>
      <trkpt lat="52.689950" lon="-1.202160"><ele>0.0</ele><time>2025-03-05T12:58:19.000Z</time></trkpt>
      <trkpt lat="52.689920" lon="-1.202190"><ele>0.0</ele><time>2025-03-05T12:58:25.000Z</time></trkpt>
      <trkpt lat="52.689900" lon="-1.202220"><ele>0.0</ele><time>2025-03-05T12:58:28.000Z</time></trkpt>
      <trkpt lat="52.689870" lon="-1.202240"><ele>0.0</ele><time>2025-03-05T12:58:31.000Z</time></trkpt>
      <trkpt lat="52.689840" lon="-1.202250"><ele>0.0</ele><time>2025-03-05T12:58:35.000Z</time></trkpt>
      <trkpt lat="52.689810" lon="-1.202280"><ele>0.0</ele><time>2025-03-05T12:58:37.000Z</time></trkpt>
      <trkpt lat="52.689790" lon="-1.202330"><ele>0.0</ele><time>2025-03-05T12:58:44.000Z</time></trkpt>
      <trkpt lat="52.689760" lon="-1.202360"><ele>0.0</ele><time>2025-03-05T12:58:47.000Z</time></trkpt>
      <trkpt lat="52.689740" lon="-1.202390"><ele>0.0</ele><time>2025-03-05T12:58:50.000Z</time></trkpt>
      <trkpt lat="52.689710" lon="-1.202410"><ele>0.0</ele><time>2025-03-05T12:58:55.000Z</time></trkpt>
      <trkpt lat="52.689690" lon="-1.202440"><ele>0.0</ele><time>2025-03-05T12:59:07.000Z</time></trkpt>
      <trkpt lat="52.689670" lon="-1.202470"><ele>0.0</ele><time>2025-03-05T12:59:10.000Z</time></trkpt>
      <trkpt lat="52.689640" lon="-1.202510"><ele>0.0</ele><time>2025-03-05T12:59:17.000Z</time></trkpt>
      <trkpt lat="52.689610" lon="-1.202510"><ele>0.0</ele><time>2025-03-05T12:59:28.000Z</time></trkpt>
      <trkpt lat="52.689580" lon="-1.202540"><ele>0.0</ele><time>2025-03-05T12:59:33.000Z</time></trkpt>
      <trkpt lat="52.689560" lon="-1.202570"><ele>0.0</ele><time>2025-03-05T12:59:38.000Z</time></trkpt>
      <trkpt lat="52.689530" lon="-1.202600"><ele>0.0</ele><time>2025-03-05T12:59:43.000Z</time></trkpt>
      <trkpt lat="52.689500" lon="-1.202610"><ele>0.0</ele><time>2025-03-05T12:59:49.000Z</time></trkpt>
      <trkpt lat="52.689480" lon="-1.202640"><ele>0.0</ele><time>2025-03-05T12:59:55.000Z</time></trkpt>
      <trkpt lat="52.689450" lon="-1.202680"><ele>0.0</ele><time>2025-03-05T13:00:00.000Z</time></trkpt>
      <trkpt lat="52.689430" lon="-1.202700"><ele>0.0</ele><time>2025-03-05T13:00:03.000Z</time></trkpt>
      <trkpt lat="52.689410" lon="-1.202730"><ele>0.0</ele><time>2025-03-05T13:00:06.000Z</time></trkpt>
      <trkpt lat="52.689380" lon="-1.202770"><ele>0.0</ele><time>2025-03-05T13:00:10.000Z</time></trkpt>
      <trkpt lat="52.689360" lon="-1.202800"><ele>0.0</ele><time>2025-03-05T13:00:17.000Z</time></trkpt>
      <trkpt lat="52.689330" lon="-1.202830"><ele>0.0</ele><time>2025-03-05T13:00:22.000Z</time></trkpt>
      <trkpt lat="52.689300" lon="-1.202850"><ele>0.0</ele><time>2025-03-05T13:00:25.000Z</time></trkpt>
      <trkpt lat="52.689290" lon="-1.202900"><ele>0.0</ele><time>2025-03-05T13:00:30.000Z</time></trkpt>
      <trkpt lat="52.689260" lon="-1.202910"><ele>0.0</ele><time>2025-03-05T13:00:33.000Z</time></trkpt>
      <trkpt lat="52.689240" lon="-1.202940"><ele>0.0</ele><time>2025-03-05T13:00:37.000Z</time></trkpt>
      <trkpt lat="52.689210" lon="-1.202950"><ele>0.0</ele><time>2025-03-05T13:00:43.000Z</time></trkpt>
      <trkpt lat="52.689190" lon="-1.202980"><ele>0.0</ele><time>2025-03-05T13:00:47.000Z</time></trkpt>
      <trkpt lat="52.689160" lon="-1.203000"><ele>0.0</ele><time>2025-03-05T13:00:51.000Z</time></trkpt>
      <trkpt lat="52.689120" lon="-1.203030"><ele>0.0</ele><time>2025-03-05T13:00:54.000Z</time></trkpt>
      <trkpt lat="52.689100" lon="-1.203060"><ele>0.0</ele><time>2025-03-05T13:01:00.000Z</time></trkpt>
      <trkpt lat="52.689070" lon="-1.203070"><ele>0.0</ele><time>2025-03-05T13:01:04.000Z</time></trkpt>
      <trkpt lat="52.689040" lon="-1.203120"><ele>0.0</ele><time>2025-03-05T13:01:12.000Z</time></trkpt>
      <trkpt lat="52.689020" lon="-1.203140"><ele>0.0</ele><time>2025-03-05T13:01:17.000Z</time></trkpt>
      <trkpt lat="52.688990" lon="-1.203160"><ele>0.0</ele><time>2025-03-05T13:01:20.000Z</time></trkpt>
      <trkpt lat="52.688960" lon="-1.203180"><ele>0.0</ele><time>2025-03-05T13:01:26.000Z</time></trkpt>
      <trkpt lat="52.688930" lon="-1.203210"><ele>0.0</ele><time>2025-03-05T13:01:29.000Z</time></trkpt>
      <trkpt lat="52.688900" lon="-1.203240"><ele>0.0</ele><time>2025-03-05T13:01:33.000Z</time></trkpt>
      <trkpt lat="52.688870" lon="-1.203240"><ele>0.0</ele><time>2025-03-05T13:01:38.000Z</time></trkpt>
      <trkpt lat="52.688850" lon="-1.203270"><ele>0.0</ele><time>2025-03-05T13:01:42.000Z</time></trkpt>
      <trkpt lat="52.688820" lon="-1.203290"><ele>0.0</ele><time>2025-03-05T13:01:47.000Z</time></trkpt>
      <trkpt lat="52.688790" lon="-1.203330"><ele>0.0</ele><time>2025-03-05T13:01:51.000Z</time></trkpt>
      <trkpt lat="52.688770" lon="-1.203370"><ele>0.0</ele><time>2025-03-05T13:01:56.000Z</time></trkpt>
      <trkpt lat="52.688760" lon="-1.203410"><ele>0.0</ele><time>2025-03-05T13:02:00.000Z</time></trkpt>
      <trkpt lat="52.688730" lon="-1.203420"><ele>0.0</ele><time>2025-03-05T13:02:06.000Z</time></trkpt>
      <trkpt lat="52.688710" lon="-1.203460"><ele>0.0</ele><time>2025-03-05T13:02:10.000Z</time></trkpt>
      <trkpt lat="52.688680" lon="-1.203490"><ele>0.0</ele><time>2025-03-05T13:02:15.000Z</time></trkpt>
      <trkpt lat="52.688650" lon="-1.203510"><ele>0.0</ele><time>2025-03-05T13:02:19.000Z</time></trkpt>
      <trkpt lat="52.688620" lon="-1.203520"><ele>0.0</ele><time>2025-03-05T13:02:24.000Z</time></trkpt>
      <trkpt lat="52.688600" lon="-1.203540"><ele>0.0</ele><time>2025-03-05T13:02:28.000Z</time></trkpt>
      <trkpt lat="52.688560" lon="-1.203520"><ele>0.0</ele><time>2025-03-05T13:02:33.000Z</time></trkpt>
      <trkpt lat="52.688530" lon="-1.203530"><ele>0.0</ele><time>2025-03-05T13:02:37.000Z</time></trkpt>
      <trkpt lat="52.688500" lon="-1.203520"><ele>0.0</ele><time>2025-03-05T13:02:41.000Z</time></trkpt>
      <trkpt lat="52.688460" lon="-1.203520"><ele>0.0</ele><time>2025-03-05T13:02:47.000Z</time></trkpt>
      <trkpt lat="52.688430" lon="-1.203520"><ele>0.0</ele><time>2025-03-05T13:02:52.000Z</time></trkpt>
      <trkpt lat="52.688410" lon="-1.203500"><ele>0.0</ele><time>2025-03-05T13:02:56.000Z</time></trkpt>
      <trkpt lat="52.688380" lon="-1.203500"><ele>0.0</ele><time>2025-03-05T13:03:01.000Z</time></trkpt>
      <trkpt lat="52.688340" lon="-1.203480"><ele>0.0</ele><time>2025-03-05T13:03:06.000Z</time></trkpt>
      <trkpt lat="52.688360" lon="-1.203450"><ele>0.0</ele><time>2025-03-05T13:04:31.000Z</time></trkpt>
      <trkpt lat="52.688370" lon="-1.203480"><ele>0.0</ele><time>2025-03-05T13:04:58.000Z</time></trkpt>
      <trkpt lat="52.688340" lon="-1.203460"><ele>0.0</ele><time>2025-03-05T13:05:24.000Z</time></trkpt>
      <trkpt lat="52.688330" lon="-1.203510"><ele>0.0</ele><time>2025-03-05T13:06:28.000Z</time></trkpt>
      <trkpt lat="52.688340" lon="-1.203490"><ele>0.0</ele><time>2025-03-05T13:06:39.000Z</time></trkpt>
      <trkpt lat="52.688340" lon="-1.203500"><ele>0.0</ele><time>2025-03-05T13:06:50.000Z</time></trkpt>
      <trkpt lat="52.688330" lon="-1.203450"><ele>0.0</ele><time>2025-03-05T13:07:26.000Z</time></trkpt>
      <trkpt lat="52.688330" lon="-1.203470"><ele>0.0</ele><time>2025-03-05T13:08:15.000Z</time></trkpt>
      <trkpt lat="52.688340" lon="-1.203490"><ele>0.0</ele><time>2025-03-05T13:08:28.000Z</time></trkpt>
      <trkpt lat="52.688350" lon="-1.203410"><ele>0.0</ele><time>2025-03-05T13:08:37.000Z</time></trkpt>
      <trkpt lat="52.688350" lon="-1.203500"><ele>0.0</ele><time>2025-03-05T13:08:51.000Z</time></trkpt>
      <trkpt lat="52.688330" lon="-1.203530"><ele>0.0</ele><time>2025-03-05T13:09:29.000Z</time></trkpt>
      <trkpt lat="52.688310" lon="-1.203490"><ele>0.0</ele><time>2025-03-05T13:09:54.000Z</time></trkpt>
      <trkpt lat="52.688280" lon="-1.203470"><ele>0.0</ele><time>2025-03-05T13:10:56.000Z</time></trkpt>
      <trkpt lat="52.688310" lon="-1.203520"><ele>0.0</ele><time>2025-03-05T13:11:17.000Z</time></trkpt>
      <trkpt lat="52.688310" lon="-1.203520"><ele>0.0</ele><time>2025-03-05T13:11:31.000Z</time></trkpt>
      <trkpt lat="52.688300" lon="-1.203460"><ele>0.0</ele><time>2025-03-05T13:12:34.000Z</time></trkpt>
      <trkpt lat="52.688300" lon="-1.203510"><ele>0.0</ele><time>2025-03-05T13:12:57.000Z</time></trkpt>
      <trkpt lat="52.688330" lon="-1.203530"><ele>0.0</ele><time>2025-03-05T13:13:04.000Z</time></trkpt>
      <trkpt lat="52.688330" lon="-1.203500"><ele>0.0</ele><time>2025-03-05T13:13:30.000Z</time></trkpt>
      <trkpt lat="52.688340" lon="-1.203550"><ele>0.0</ele><time>2025-03-05T13:14:09.000Z</time></trkpt>
      <trkpt lat="52.688320" lon="-1.203500"><ele>0.0</ele><time>2025-03-05T13:15:20.000Z</time></trkpt>
      <trkpt lat="52.688340" lon="-1.203540"><ele>0.0</ele><time>2025-03-05T13:15:31.000Z</time></trkpt>
      <trkpt lat="52.688340" lon="-1.203490"><ele>0.0</ele><time>2025-03-05T13:20:55.000Z</time></trkpt>
      <trkpt lat="52.688300" lon="-1.203490"><ele>0.0</ele><time>2025-03-05T13:39:23.000Z</time></trkpt>
      <trkpt lat="52.688290" lon="-1.203550"><ele>0.0</ele><time>2025-03-05T13:39:40.000Z</time></trkpt>
      <trkpt lat="52.688320" lon="-1.203520"><ele>0.0</ele><time>2025-03-05T13:39:48.000Z</time></trkpt>
      <trkpt lat="52.688340" lon="-1.203490"><ele>0.0</ele><time>2025-03-05T13:40:02.000Z</time></trkpt>
      <trkpt lat="52.688360" lon="-1.203520"><ele>0.0</ele><time>2025-03-05T13:40:49.000Z</time></trkpt>
      <trkpt lat="52.688380" lon="-1.203570"><ele>0.0</ele><time>2025-03-05T13:40:53.000Z</time></trkpt>
      <trkpt lat="52.688380" lon="-1.203620"><ele>0.0</ele><time>2025-03-05T13:40:58.000Z</time></trkpt>
      <trkpt lat="52.688400" lon="-1.203660"><ele>0.0</ele><time>2025-03-05T13:41:03.000Z</time></trkpt>
      <trkpt lat="52.688420" lon="-1.203690"><ele>0.0</ele><time>2025-03-05T13:41:09.000Z</time></trkpt>
      <trkpt lat="52.688450" lon="-1.203710"><ele>0.0</ele><time>2025-03-05T13:41:15.000Z</time></trkpt>
      <trkpt lat="52.688480" lon="-1.203700"><ele>0.0</ele><time>2025-03-05T13:41:20.000Z</time></trkpt>
      <trkpt lat="52.688510" lon="-1.203680"><ele>0.0</ele><time>2025-03-05T13:41:24.000Z</time></trkpt>
      <trkpt lat="52.688550" lon="-1.203670"><ele>0.0</ele><time>2025-03-05T13:41:28.000Z</time></trkpt>
      <trkpt lat="52.688570" lon="-1.203650"><ele>0.0</ele><time>2025-03-05T13:41:31.000Z</time></trkpt>
      <trkpt lat="52.688600" lon="-1.203640"><ele>0.0</ele><time>2025-03-05T13:41:33.000Z</time></trkpt>
      <trkpt lat="52.688650" lon="-1.203600"><ele>0.0</ele><time>2025-03-05T13:41:37.000Z</time></trkpt>
      <trkpt lat="52.688670" lon="-1.203570"><ele>0.0</ele><time>2025-03-05T13:41:44.000Z</time></trkpt>
      <trkpt lat="52.688700" lon="-1.203540"><ele>0.0</ele><time>2025-03-05T13:41:48.000Z</time></trkpt>
      <trkpt lat="52.688720" lon="-1.203510"><ele>0.0</ele><time>2025-03-05T13:42:12.000Z</time></trkpt>
      <trkpt lat="52.688740" lon="-1.203490"><ele>0.0</ele><time>2025-03-05T13:42:16.000Z</time></trkpt>
      <trkpt lat="52.688770" lon="-1.203460"><ele>0.0</ele><time>2025-03-05T13:42:20.000Z</time></trkpt>
      <trkpt lat="52.688800" lon="-1.203440"><ele>0.0</ele><time>2025-03-05T13:42:25.000Z</time></trkpt>
      <trkpt lat="52.688830" lon="-1.203410"><ele>0.0</ele><time>2025-03-05T13:42:29.000Z</time></trkpt>
      <trkpt lat="52.688860" lon="-1.203370"><ele>0.0</ele><time>2025-03-05T13:42:33.000Z</time></trkpt>
      <trkpt lat="52.688880" lon="-1.203360"><ele>0.0</ele><time>2025-03-05T13:42:37.000Z</time></trkpt>
      <trkpt lat="52.688910" lon="-1.203330"><ele>0.0</ele><time>2025-03-05T13:42:41.000Z</time></trkpt>
      <trkpt lat="52.688930" lon="-1.203290"><ele>0.0</ele><time>2025-03-05T13:42:46.000Z</time></trkpt>
      <trkpt lat="52.688950" lon="-1.203270"><ele>0.0</ele><time>2025-03-05T13:42:51.000Z</time></trkpt>
      <trkpt lat="52.688990" lon="-1.203250"><ele>0.0</ele><time>2025-03-05T13:42:57.000Z</time></trkpt>
      <trkpt lat="52.689010" lon="-1.203210"><ele>0.0</ele><time>2025-03-05T13:43:01.000Z</time></trkpt>
      <trkpt lat="52.689040" lon="-1.203190"><ele>0.0</ele><time>2025-03-05T13:43:04.000Z</time></trkpt>
      <trkpt lat="52.689070" lon="-1.203170"><ele>0.0</ele><time>2025-03-05T13:43:08.000Z</time></trkpt>
      <trkpt lat="52.689090" lon="-1.203130"><ele>0.0</ele><time>2025-03-05T13:43:12.000Z</time></trkpt>
      <trkpt lat="52.689120" lon="-1.203100"><ele>0.0</ele><time>2025-03-05T13:43:16.000Z</time></trkpt>
      <trkpt lat="52.689140" lon="-1.203080"><ele>0.0</ele><time>2025-03-05T13:43:36.000Z</time></trkpt>
      <trkpt lat="52.689170" lon="-1.203050"><ele>0.0</ele><time>2025-03-05T13:43:41.000Z</time></trkpt>
      <trkpt lat="52.689200" lon="-1.203030"><ele>0.0</ele><time>2025-03-05T13:43:45.000Z</time></trkpt>
      <trkpt lat="52.689230" lon="-1.203010"><ele>0.0</ele><time>2025-03-05T13:43:50.000Z</time></trkpt>
      <trkpt lat="52.689250" lon="-1.202980"><ele>0.0</ele><time>2025-03-05T13:43:55.000Z</time></trkpt>
      <trkpt lat="52.689280" lon="-1.202950"><ele>0.0</ele><time>2025-03-05T13:43:59.000Z</time></trkpt>
      <trkpt lat="52.689300" lon="-1.202910"><ele>0.0</ele><time>2025-03-05T13:44:03.000Z</time></trkpt>
      <trkpt lat="52.689320" lon="-1.202890"><ele>0.0</ele><time>2025-03-05T13:44:07.000Z</time></trkpt>
      <trkpt lat="52.689350" lon="-1.202860"><ele>0.0</ele><time>2025-03-05T13:44:12.000Z</time></trkpt>
      <trkpt lat="52.689380" lon="-1.202830"><ele>0.0</ele><time>2025-03-05T13:44:18.000Z</time></trkpt>
      <trkpt lat="52.689400" lon="-1.202800"><ele>0.0</ele><time>2025-03-05T13:44:22.000Z</time></trkpt>
      <trkpt lat="52.689430" lon="-1.202780"><ele>0.0</ele><time>2025-03-05T13:44:28.000Z</time></trkpt>
      <trkpt lat="52.689460" lon="-1.202780"><ele>0.0</ele><time>2025-03-05T13:44:32.000Z</time></trkpt>
      <trkpt lat="52.689470" lon="-1.202730"><ele>0.0</ele><time>2025-03-05T13:44:36.000Z</time></trkpt>
      <trkpt lat="52.689490" lon="-1.202690"><ele>0.0</ele><time>2025-03-05T13:44:40.000Z</time></trkpt>
      <trkpt lat="52.689530" lon="-1.202680"><ele>0.0</ele><time>2025-03-05T13:44:43.000Z</time></trkpt>
      <trkpt lat="52.689560" lon="-1.202660"><ele>0.0</ele><time>2025-03-05T13:44:48.000Z</time></trkpt>
      <trkpt lat="52.689580" lon="-1.202620"><ele>0.0</ele><time>2025-03-05T13:44:55.000Z</time></trkpt>
      <trkpt lat="52.689600" lon="-1.202590"><ele>0.0</ele><time>2025-03-05T13:45:00.000Z</time></trkpt>
      <trkpt lat="52.689620" lon="-1.202560"><ele>0.0</ele><time>2025-03-05T13:45:04.000Z</time></trkpt>
      <trkpt lat="52.689650" lon="-1.202520"><ele>0.0</ele><time>2025-03-05T13:45:07.000Z</time></trkpt>
      <trkpt lat="52.689680" lon="-1.202510"><ele>0.0</ele><time>2025-03-05T13:45:09.000Z</time></trkpt>
      <trkpt lat="52.689710" lon="-1.202500"><ele>0.0</ele><time>2025-03-05T13:45:41.000Z</time></trkpt>
      <trkpt lat="52.689730" lon="-1.202470"><ele>0.0</ele><time>2025-03-05T13:45:45.000Z</time></trkpt>
      <trkpt lat="52.689760" lon="-1.202440"><ele>0.0</ele><time>2025-03-05T13:45:51.000Z</time></trkpt>
      <trkpt lat="52.689790" lon="-1.202410"><ele>0.0</ele><time>2025-03-05T13:45:53.000Z</time></trkpt>
      <trkpt lat="52.689810" lon="-1.202370"><ele>0.0</ele><time>2025-03-05T13:45:57.000Z</time></trkpt>
      <trkpt lat="52.689830" lon="-1.202330"><ele>0.0</ele><time>2025-03-05T13:46:01.000Z</time></trkpt>
      <trkpt lat="52.689860" lon="-1.202310"><ele>0.0</ele><time>2025-03-05T13:46:05.000Z</time></trkpt>
      <trkpt lat="52.689890" lon="-1.202300"><ele>0.0</ele><time>2025-03-05T13:46:09.000Z</time></trkpt>
      <trkpt lat="52.689910" lon="-1.202270"><ele>0.0</ele><time>2025-03-05T13:46:13.000Z</time></trkpt>
      <trkpt lat="52.689930" lon="-1.202240"><ele>0.0</ele><time>2025-03-05T13:46:19.000Z</time></trkpt>
      <trkpt lat="52.689950" lon="-1.202190"><ele>0.0</ele><time>2025-03-05T13:46:24.000Z</time></trkpt>
      <trkpt lat="52.689980" lon="-1.202150"><ele>0.0</ele><time>2025-03-05T13:46:29.000Z</time></trkpt>
      <trkpt lat="52.690010" lon="-1.202130"><ele>0.0</ele><time>2025-03-05T13:46:36.000Z</time></trkpt>
      <trkpt lat="52.690040" lon="-1.202110"><ele>0.0</ele><time>2025-03-05T13:46:41.000Z</time></trkpt>
      <trkpt lat="52.690060" lon="-1.202090"><ele>0.0</ele><time>2025-03-05T13:46:44.000Z</time></trkpt>
      <trkpt lat="52.690090" lon="-1.202070"><ele>0.0</ele><time>2025-03-05T13:46:47.000Z</time></trkpt>
      <trkpt lat="52.690110" lon="-1.202020"><ele>0.0</ele><time>2025-03-05T13:46:51.000Z</time></trkpt>
      <trkpt lat="52.690130" lon="-1.201990"><ele>0.0</ele><time>2025-03-05T13:46:55.000Z</time></trkpt>
      <trkpt lat="52.690160" lon="-1.201970"><ele>0.0</ele><time>2025-03-05T13:47:02.000Z</time></trkpt>
      <trkpt lat="52.690190" lon="-1.201930"><ele>0.0</ele><time>2025-03-05T13:47:06.000Z</time></trkpt>
      <trkpt lat="52.690210" lon="-1.201900"><ele>0.0</ele><time>2025-03-05T13:47:09.000Z</time></trkpt>
      <trkpt lat="52.690260" lon="-1.201860"><ele>0.0</ele><time>2025-03-05T13:47:13.000Z</time></trkpt>
      <trkpt lat="52.690280" lon="-1.201840"><ele>0.0</ele><time>2025-03-05T13:47:17.000Z</time></trkpt>
      <trkpt lat="52.690310" lon="-1.201810"><ele>0.0</ele><time>2025-03-05T13:47:21.000Z</time></trkpt>
      <trkpt lat="52.690340" lon="-1.201780"><ele>0.0</ele><time>2025-03-05T13:47:25.000Z</time></trkpt>
      <trkpt lat="52.690370" lon="-1.201770"><ele>0.0</ele><time>2025-03-05T13:47:29.000Z</time></trkpt>
      <trkpt lat="52.690400" lon="-1.201740"><ele>0.0</ele><time>2025-03-05T13:47:36.000Z</time></trkpt>
      <trkpt lat="52.690420" lon="-1.201720"><ele>0.0</ele><time>2025-03-05T13:47:40.000Z</time></trkpt>
      <trkpt lat="52.690450" lon="-1.201700"><ele>0.0</ele><time>2025-03-05T13:47:43.000Z</time></trkpt>
      <trkpt lat="52.690480" lon="-1.201680"><ele>0.0</ele><time>2025-03-05T13:47:47.000Z</time></trkpt>
      <trkpt lat="52.690520" lon="-1.201660"><ele>0.0</ele><time>2025-03-05T13:47:53.000Z</time></trkpt>
      <trkpt lat="52.690550" lon="-1.201630"><ele>0.0</ele><time>2025-03-05T13:47:59.000Z</time></trkpt>
      <trkpt lat="52.690580" lon="-1.201590"><ele>0.0</ele><time>2025-03-05T13:48:04.000Z</time></trkpt>
      <trkpt lat="52.690600" lon="-1.201560"><ele>0.0</ele><time>2025-03-05T13:48:09.000Z</time></trkpt>
      <trkpt lat="52.690630" lon="-1.201530"><ele>0.0</ele><time>2025-03-05T13:48:13.000Z</time></trkpt>
      <trkpt lat="52.690660" lon="-1.201520"><ele>0.0</ele><time>2025-03-05T13:48:18.000Z</time></trkpt>
      <trkpt lat="52.690690" lon="-1.201490"><ele>0.0</ele><time>2025-03-05T13:48:21.000Z</time></trkpt>
      <trkpt lat="52.690710" lon="-1.201450"><ele>0.0</ele><time>2025-03-05T13:48:25.000Z</time></trkpt>
      <trkpt lat="52.690740" lon="-1.201410"><ele>0.0</ele><time>2025-03-05T13:48:29.000Z</time></trkpt>
      <trkpt lat="52.690760" lon="-1.201390"><ele>0.0</ele><time>2025-03-05T13:48:34.000Z</time></trkpt>
      <trkpt lat="52.690780" lon="-1.201340"><ele>0.0</ele><time>2025-03-05T13:48:39.000Z</time></trkpt>
      <trkpt lat="52.690800" lon="-1.201310"><ele>0.0</ele><time>2025-03-05T13:48:43.000Z</time></trkpt>
      <trkpt lat="52.690820" lon="-1.201270"><ele>0.0</ele><time>2025-03-05T13:48:47.000Z</time></trkpt>
      <trkpt lat="52.690840" lon="-1.201250"><ele>0.0</ele><time>2025-03-05T13:48:52.000Z</time></trkpt>
      <trkpt lat="52.690860" lon="-1.201210"><ele>0.0</ele><time>2025-03-05T13:48:56.000Z</time></trkpt>
      <trkpt lat="52.690890" lon="-1.201180"><ele>0.0</ele><time>2025-03-05T13:49:02.000Z</time></trkpt>
      <trkpt lat="52.690910" lon="-1.201140"><ele>0.0</ele><time>2025-03-05T13:49:08.000Z</time></trkpt>
      <trkpt lat="52.690940" lon="-1.201110"><ele>0.0</ele><time>2025-03-05T13:49:13.000Z</time></trkpt>
      <trkpt lat="52.690970" lon="-1.201080"><ele>0.0</ele><time>2025-03-05T13:49:18.000Z</time></trkpt>
      <trkpt lat="52.691000" lon="-1.201060"><ele>0.0</ele><time>2025-03-05T13:49:21.000Z</time></trkpt>
      <trkpt lat="52.691020" lon="-1.201020"><ele>0.0</ele><time>2025-03-05T13:49:25.000Z</time></trkpt>
      <trkpt lat="52.691030" lon="-1.200970"><ele>0.0</ele><time>2025-03-05T13:49:30.000Z</time></trkpt>
      <trkpt lat="52.691060" lon="-1.200940"><ele>0.0</ele><time>2025-03-05T13:49:35.000Z</time></trkpt>
      <trkpt lat="52.691090" lon="-1.200900"><ele>0.0</ele><time>2025-03-05T13:49:41.000Z</time></trkpt>
      <trkpt lat="52.691110" lon="-1.200870"><ele>0.0</ele><time>2025-03-05T13:49:45.000Z</time></trkpt>
      <trkpt lat="52.691140" lon="-1.200850"><ele>0.0</ele><time>2025-03-05T13:49:48.000Z</time></trkpt>
      <trkpt lat="52.691170" lon="-1.200820"><ele>0.0</ele><time>2025-03-05T13:49:51.000Z</time></trkpt>
      <trkpt lat="52.691210" lon="-1.200820"><ele>0.0</ele><time>2025-03-05T13:49:54.000Z</time></trkpt>
      <trkpt lat="52.691240" lon="-1.200780"><ele>0.0</ele><time>2025-03-05T13:49:59.000Z</time></trkpt>
      <trkpt lat="52.691270" lon="-1.200750"><ele>0.0</ele><time>2025-03-05T13:50:00.000Z</time></trkpt>
      <trkpt lat="52.691290" lon="-1.200760"><ele>0.0</ele><time>2025-03-05T13:50:03.000Z</time></trkpt>
      <trkpt lat="52.691320" lon="-1.200730"><ele>0.0</ele><time>2025-03-05T13:50:07.000Z</time></trkpt>
      <trkpt lat="52.691340" lon="-1.200710"><ele>0.0</ele><time>2025-03-05T13:50:11.000Z</time></trkpt>
      <trkpt lat="52.691360" lon="-1.200650"><ele>0.0</ele><time>2025-03-05T13:50:32.000Z</time></trkpt>
      <trkpt lat="52.691370" lon="-1.200620"><ele>0.0</ele><time>2025-03-05T13:50:37.000Z</time></trkpt>
      <trkpt lat="52.691390" lon="-1.200580"><ele>0.0</ele><time>2025-03-05T13:50:42.000Z</time></trkpt>
      <trkpt lat="52.691410" lon="-1.200560"><ele>0.0</ele><time>2025-03-05T13:50:49.000Z</time></trkpt>
      <trkpt lat="52.691440" lon="-1.200540"><ele>0.0</ele><time>2025-03-05T13:50:52.000Z</time></trkpt>
      <trkpt lat="52.691460" lon="-1.200510"><ele>0.0</ele><time>2025-03-05T13:50:56.000Z</time></trkpt>
      <trkpt lat="52.691490" lon="-1.200490"><ele>0.0</ele><time>2025-03-05T13:50:58.000Z</time></trkpt>
      <trkpt lat="52.691520" lon="-1.200460"><ele>0.0</ele><time>2025-03-05T13:51:00.000Z</time></trkpt>
      <trkpt lat="52.691560" lon="-1.200430"><ele>0.0</ele><time>2025-03-05T13:51:07.000Z</time></trkpt>
      <trkpt lat="52.691590" lon="-1.200420"><ele>0.0</ele><time>2025-03-05T13:51:12.000Z</time></trkpt>
      <trkpt lat="52.691610" lon="-1.200370"><ele>0.0</ele><time>2025-03-05T13:51:19.000Z</time></trkpt>
      <trkpt lat="52.691630" lon="-1.200350"><ele>0.0</ele><time>2025-03-05T13:51:21.000Z</time></trkpt>
      <trkpt lat="52.691660" lon="-1.200320"><ele>0.0</ele><time>2025-03-05T13:51:24.000Z</time></trkpt>
      <trkpt lat="52.691680" lon="-1.200300"><ele>0.0</ele><time>2025-03-05T13:51:28.000Z</time></trkpt>
      <trkpt lat="52.691710" lon="-1.200270"><ele>0.0</ele><time>2025-03-05T13:51:32.000Z</time></trkpt>
      <trkpt lat="52.691740" lon="-1.200250"><ele>0.0</ele><time>2025-03-05T13:51:36.000Z</time></trkpt>
      <trkpt lat="52.691760" lon="-1.200230"><ele>0.0</ele><time>2025-03-05T13:51:40.000Z</time></trkpt>
      <trkpt lat="52.691790" lon="-1.200200"><ele>0.0</ele><time>2025-03-05T13:51:44.000Z</time></trkpt>
      <trkpt lat="52.691830" lon="-1.200190"><ele>0.0</ele><time>2025-03-05T13:51:48.000Z</time></trkpt>
      <trkpt lat="52.691850" lon="-1.200160"><ele>0.0</ele><time>2025-03-05T13:51:52.000Z</time></trkpt>
      <trkpt lat="52.691870" lon="-1.200130"><ele>0.0</ele><time>2025-03-05T13:51:56.000Z</time></trkpt>
      <trkpt lat="52.691900" lon="-1.200120"><ele>0.0</ele><time>2025-03-05T13:52:00.000Z</time></trkpt>
      <trkpt lat="52.691930" lon="-1.200080"><ele>0.0</ele><time>2025-03-05T13:52:05.000Z</time></trkpt>
      <trkpt lat="52.691920" lon="-1.200040"><ele>0.0</ele><time>2025-03-05T13:52:11.000Z</time></trkpt>
      <trkpt lat="52.691940" lon="-1.200000"><ele>0.0</ele><time>2025-03-05T13:52:23.000Z</time></trkpt>
      <trkpt lat="52.691970" lon="-1.199990"><ele>0.0</ele><time>2025-03-05T13:52:28.000Z</time></trkpt>
      <trkpt lat="52.691990" lon="-1.199960"><ele>0.0</ele><time>2025-03-05T13:52:32.000Z</time></trkpt>
      <trkpt lat="52.692020" lon="-1.199930"><ele>0.0</ele><time>2025-03-05T13:52:36.000Z</time></trkpt>
      <trkpt lat="52.692050" lon="-1.199920"><ele>0.0</ele><time>2025-03-05T13:52:39.000Z</time></trkpt>
      <trkpt lat="52.692070" lon="-1.199880"><ele>0.0</ele><time>2025-03-05T13:52:46.000Z</time></trkpt>
      <trkpt lat="52.692090" lon="-1.199850"><ele>0.0</ele><time>2025-03-05T13:52:50.000Z</time></trkpt>
      <trkpt lat="52.692120" lon="-1.199820"><ele>0.0</ele><time>2025-03-05T13:52:55.000Z</time></trkpt>
      <trkpt lat="52.692150" lon="-1.199810"><ele>0.0</ele><time>2025-03-05T13:52:59.000Z</time></trkpt>
      <trkpt lat="52.692180" lon="-1.199790"><ele>0.0</ele><time>2025-03-05T13:53:02.000Z</time></trkpt>
      <trkpt lat="52.692190" lon="-1.199740"><ele>0.0</ele><time>2025-03-05T13:53:07.000Z</time></trkpt>
      <trkpt lat="52.692220" lon="-1.199730"><ele>0.0</ele><time>2025-03-05T13:53:10.000Z</time></trkpt>
      <trkpt lat="52.692240" lon="-1.199680"><ele>0.0</ele><time>2025-03-05T13:53:15.000Z</time></trkpt>
      <trkpt lat="52.692260" lon="-1.199650"><ele>0.0</ele><time>2025-03-05T13:53:19.000Z</time></trkpt>
      <trkpt lat="52.692290" lon="-1.199630"><ele>0.0</ele><time>2025-03-05T13:53:24.000Z</time></trkpt>
      <trkpt lat="52.692310" lon="-1.199600"><ele>0.0</ele><time>2025-03-05T13:53:28.000Z</time></trkpt>
      <trkpt lat="52.692330" lon="-1.199580"><ele>0.0</ele><time>2025-03-05T13:53:32.000Z</time></trkpt>
      <trkpt lat="52.692370" lon="-1.199560"><ele>0.0</ele><time>2025-03-05T13:53:37.000Z</time></trkpt>
      <trkpt lat="52.692390" lon="-1.199530"><ele>0.0</ele><time>2025-03-05T13:53:42.000Z</time></trkpt>
      <trkpt lat="52.692420" lon="-1.199500"><ele>0.0</ele><time>2025-03-05T13:53:48.000Z</time></trkpt>
      <trkpt lat="52.692450" lon="-1.199470"><ele>0.0</ele><time>2025-03-05T13:53:53.000Z</time></trkpt>
      <trkpt lat="52.692470" lon="-1.199440"><ele>0.0</ele><time>2025-03-05T13:53:54.000Z</time></trkpt>
      <trkpt lat="52.692500" lon="-1.199410"><ele>0.0</ele><time>2025-03-05T13:53:59.000Z</time></trkpt>
      <trkpt lat="52.692520" lon="-1.199400"><ele>0.0</ele><time>2025-03-05T13:54:03.000Z</time></trkpt>
      <trkpt lat="52.692550" lon="-1.199370"><ele>0.0</ele><time>2025-03-05T13:54:09.000Z</time></trkpt>
      <trkpt lat="52.692580" lon="-1.199340"><ele>0.0</ele><time>2025-03-05T13:54:13.000Z</time></trkpt>
      <trkpt lat="52.692600" lon="-1.199310"><ele>0.0</ele><time>2025-03-05T13:54:19.000Z</time></trkpt>
      <trkpt lat="52.692620" lon="-1.199270"><ele>0.0</ele><time>2025-03-05T13:54:23.000Z</time></trkpt>
      <trkpt lat="52.692640" lon="-1.199240"><ele>0.0</ele><time>2025-03-05T13:54:27.000Z</time></trkpt>
      <trkpt lat="52.692670" lon="-1.199220"><ele>0.0</ele><time>2025-03-05T13:54:32.000Z</time></trkpt>
      <trkpt lat="52.692700" lon="-1.199190"><ele>0.0</ele><time>2025-03-05T13:54:37.000Z</time></trkpt>
      <trkpt lat="52.692720" lon="-1.199170"><ele>0.0</ele><time>2025-03-05T13:54:42.000Z</time></trkpt>
      <trkpt lat="52.692760" lon="-1.199150"><ele>0.0</ele><time>2025-03-05T13:54:47.000Z</time></trkpt>
      <trkpt lat="52.692780" lon="-1.199120"><ele>0.0</ele><time>2025-03-05T13:54:50.000Z</time></trkpt>
      <trkpt lat="52.692790" lon="-1.199070"><ele>0.0</ele><time>2025-03-05T13:55:03.000Z</time></trkpt>
      <trkpt lat="52.692760" lon="-1.199070"><ele>0.0</ele><time>2025-03-05T13:55:11.000Z</time></trkpt>
      <trkpt lat="52.692790" lon="-1.199090"><ele>0.0</ele><time>2025-03-05T13:55:37.000Z</time></trkpt>
      <trkpt lat="52.692810" lon="-1.199050"><ele>0.0</ele><time>2025-03-05T13:55:44.000Z</time></trkpt>
      <trkpt lat="52.692780" lon="-1.199040"><ele>0.0</ele><time>2025-03-05T13:56:05.000Z</time></trkpt>
      <trkpt lat="52.692770" lon="-1.199050"><ele>0.0</ele><time>2025-03-05T13:56:27.000Z</time></trkpt>
      <trkpt lat="52.692790" lon="-1.199070"><ele>0.0</ele><time>2025-03-05T13:56:54.000Z</time></trkpt>
      <trkpt lat="52.692820" lon="-1.199060"><ele>0.0</ele><time>2025-03-05T13:56:57.000Z</time></trkpt>
      <trkpt lat="52.692850" lon="-1.199040"><ele>0.0</ele><time>2025-03-05T13:57:01.000Z</time></trkpt>
      <trkpt lat="52.692880" lon="-1.199020"><ele>0.0</ele><time>2025-03-05T13:57:05.000Z</time></trkpt>
      <trkpt lat="52.692910" lon="-1.199000"><ele>0.0</ele><time>2025-03-05T13:57:10.000Z</time></trkpt>
      <trkpt lat="52.692940" lon="-1.198980"><ele>0.0</ele><time>2025-03-05T13:57:16.000Z</time></trkpt>
      <trkpt lat="52.692970" lon="-1.198980"><ele>0.0</ele><time>2025-03-05T13:57:18.000Z</time></trkpt>
      <trkpt lat="52.693000" lon="-1.198980"><ele>0.0</ele><time>2025-03-05T13:57:26.000Z</time></trkpt>
      <trkpt lat="52.692970" lon="-1.198970"><ele>0.0</ele><time>2025-03-05T13:58:12.000Z</time></trkpt>
      <trkpt lat="52.693010" lon="-1.198980"><ele>0.0</ele><time>2025-03-05T13:58:21.000Z</time></trkpt>
      <trkpt lat="52.693030" lon="-1.198950"><ele>0.0</ele><time>2025-03-05T13:58:27.000Z</time></trkpt>
      <trkpt lat="52.693060" lon="-1.198930"><ele>0.0</ele><time>2025-03-05T13:58:30.000Z</time></trkpt>
      <trkpt lat="52.693090" lon="-1.198920"><ele>0.0</ele><time>2025-03-05T13:58:34.000Z</time></trkpt>
      <trkpt lat="52.693120" lon="-1.198900"><ele>0.0</ele><time>2025-03-05T13:58:37.000Z</time></trkpt>
      <trkpt lat="52.693140" lon="-1.198860"><ele>0.0</ele><time>2025-03-05T13:58:43.000Z</time></trkpt>
      <trkpt lat="52.693170" lon="-1.198840"><ele>0.0</ele><time>2025-03-05T13:58:47.000Z</time></trkpt>
      <trkpt lat="52.693200" lon="-1.198830"><ele>0.0</ele><time>2025-03-05T13:58:51.000Z</time></trkpt>
      <trkpt lat="52.693230" lon="-1.198790"><ele>0.0</ele><time>2025-03-05T13:58:55.000Z</time></trkpt>
      <trkpt lat="52.693250" lon="-1.198780"><ele>0.0</ele><time>2025-03-05T13:59:00.000Z</time></trkpt>
      <trkpt lat="52.693280" lon="-1.198750"><ele>0.0</ele><time>2025-03-05T13:59:03.000Z</time></trkpt>
      <trkpt lat="52.693310" lon="-1.198730"><ele>0.0</ele><time>2025-03-05T13:59:07.000Z</time></trkpt>
      <trkpt lat="52.693350" lon="-1.198680"><ele>0.0</ele><time>2025-03-05T13:59:13.000Z</time></trkpt>
      <trkpt lat="52.693370" lon="-1.198670"><ele>0.0</ele><time>2025-03-05T13:59:17.000Z</time></trkpt>
      <trkpt lat="52.693400" lon="-1.198660"><ele>0.0</ele><time>2025-03-05T13:59:20.000Z</time></trkpt>
      <trkpt lat="52.693430" lon="-1.198620"><ele>0.0</ele><time>2025-03-05T13:59:25.000Z</time></trkpt>
      <trkpt lat="52.693460" lon="-1.198600"><ele>0.0</ele><time>2025-03-05T13:59:29.000Z</time></trkpt>
      <trkpt lat="52.693490" lon="-1.198570"><ele>0.0</ele><time>2025-03-05T13:59:34.000Z</time></trkpt>
      <trkpt lat="52.693520" lon="-1.198550"><ele>0.0</ele><time>2025-03-05T13:59:37.000Z</time></trkpt>
      <trkpt lat="52.693550" lon="-1.198540"><ele>0.0</ele><time>2025-03-05T13:59:42.000Z</time></trkpt>
      <trkpt lat="52.693580" lon="-1.198520"><ele>0.0</ele><time>2025-03-05T13:59:46.000Z</time></trkpt>
      <trkpt lat="52.693600" lon="-1.198490"><ele>0.0</ele><time>2025-03-05T13:59:49.000Z</time></trkpt>
      <trkpt lat="52.693630" lon="-1.198470"><ele>0.0</ele><time>2025-03-05T13:59:53.000Z</time></trkpt>
      <trkpt lat="52.693660" lon="-1.198450"><ele>0.0</ele><time>2025-03-05T13:59:59.000Z</time></trkpt>
      <trkpt lat="52.693690" lon="-1.198420"><ele>0.0</ele><time>2025-03-05T14:00:03.000Z</time></trkpt>
      <trkpt lat="52.693710" lon="-1.198400"><ele>0.0</ele><time>2025-03-05T14:00:07.000Z</time></trkpt>
      <trkpt lat="52.693740" lon="-1.198370"><ele>0.0</ele><time>2025-03-05T14:00:09.000Z</time></trkpt>
      <trkpt lat="52.693770" lon="-1.198360"><ele>0.0</ele><time>2025-03-05T14:00:14.000Z</time></trkpt>
      <trkpt lat="52.693830" lon="-1.198350"><ele>0.0</ele><time>2025-03-05T14:00:19.000Z</time></trkpt>
      <trkpt lat="52.693850" lon="-1.198320"><ele>0.0</ele><time>2025-03-05T14:00:22.000Z</time></trkpt>
      <trkpt lat="52.693880" lon="-1.198300"><ele>0.0</ele><time>2025-03-05T14:00:26.000Z</time></trkpt>
      <trkpt lat="52.693910" lon="-1.198290"><ele>0.0</ele><time>2025-03-05T14:00:30.000Z</time></trkpt>
      <trkpt lat="52.693940" lon="-1.198270"><ele>0.0</ele><time>2025-03-05T14:00:34.000Z</time></trkpt>
      <trkpt lat="52.693960" lon="-1.198250"><ele>0.0</ele><time>2025-03-05T14:00:55.000Z</time></trkpt>
      <trkpt lat="52.693980" lon="-1.198210"><ele>0.0</ele><time>2025-03-05T14:00:59.000Z</time></trkpt>
      <trkpt lat="52.694010" lon="-1.198210"><ele>0.0</ele><time>2025-03-05T14:01:03.000Z</time></trkpt>
      <trkpt lat="52.694050" lon="-1.198190"><ele>0.0</ele><time>2025-03-05T14:01:07.000Z</time></trkpt>
      <trkpt lat="52.694070" lon="-1.198160"><ele>0.0</ele><time>2025-03-05T14:01:12.000Z</time></trkpt>
      <trkpt lat="52.694110" lon="-1.198150"><ele>0.0</ele><time>2025-03-05T14:01:16.000Z</time></trkpt>
      <trkpt lat="52.694140" lon="-1.198120"><ele>0.0</ele><time>2025-03-05T14:01:22.000Z</time></trkpt>
      <trkpt lat="52.694180" lon="-1.198080"><ele>0.0</ele><time>2025-03-05T14:01:29.000Z</time></trkpt>
      <trkpt lat="52.694210" lon="-1.198070"><ele>0.0</ele><time>2025-03-05T14:01:33.000Z</time></trkpt>
      <trkpt lat="52.694240" lon="-1.198070"><ele>0.0</ele><time>2025-03-05T14:01:36.000Z</time></trkpt>
      <trkpt lat="52.694270" lon="-1.198060"><ele>0.0</ele><time>2025-03-05T14:01:39.000Z</time></trkpt>
      <trkpt lat="52.694310" lon="-1.198040"><ele>0.0</ele><time>2025-03-05T14:01:43.000Z</time></trkpt>
      <trkpt lat="52.694330" lon="-1.198020"><ele>0.0</ele><time>2025-03-05T14:01:47.000Z</time></trkpt>
      <trkpt lat="52.694360" lon="-1.198000"><ele>0.0</ele><time>2025-03-05T14:01:51.000Z</time></trkpt>
      <trkpt lat="52.694390" lon="-1.197990"><ele>0.0</ele><time>2025-03-05T14:01:56.000Z</time></trkpt>
      <trkpt lat="52.694430" lon="-1.197990"><ele>0.0</ele><time>2025-03-05T14:02:01.000Z</time></trkpt>
      <trkpt lat="52.694450" lon="-1.197990"><ele>0.0</ele><time>2025-03-05T14:02:04.000Z</time></trkpt>
      <trkpt lat="52.694480" lon="-1.197990"><ele>0.0</ele><time>2025-03-05T14:02:08.000Z</time></trkpt>
      <trkpt lat="52.694520" lon="-1.197970"><ele>0.0</ele><time>2025-03-05T14:02:14.000Z</time></trkpt>
      <trkpt lat="52.694550" lon="-1.197950"><ele>0.0</ele><time>2025-03-05T14:02:19.000Z</time></trkpt>
      <trkpt lat="52.694580" lon="-1.197940"><ele>0.0</ele><time>2025-03-05T14:02:23.000Z</time></trkpt>
      <trkpt lat="52.694610" lon="-1.197930"><ele>0.0</ele><time>2025-03-05T14:02:28.000Z</time></trkpt>
      <trkpt lat="52.694640" lon="-1.197920"><ele>0.0</ele><time>2025-03-05T14:02:33.000Z</time></trkpt>
      <trkpt lat="52.694670" lon="-1.197920"><ele>0.0</ele><time>2025-03-05T14:02:38.000Z</time></trkpt>
      <trkpt lat="52.694700" lon="-1.197930"><ele>0.0</ele><time>2025-03-05T14:02:42.000Z</time></trkpt>
      <trkpt lat="52.694730" lon="-1.197920"><ele>0.0</ele><time>2025-03-05T14:02:46.000Z</time></trkpt>
      <trkpt lat="52.694760" lon="-1.197930"><ele>0.0</ele><time>2025-03-05T14:02:50.000Z</time></trkpt>
      <trkpt lat="52.694790" lon="-1.197930"><ele>0.0</ele><time>2025-03-05T14:02:54.000Z</time></trkpt>
      <trkpt lat="52.694820" lon="-1.197940"><ele>0.0</ele><time>2025-03-05T14:02:57.000Z</time></trkpt>
      <trkpt lat="52.694850" lon="-1.197950"><ele>0.0</ele><time>2025-03-05T14:03:01.000Z</time></trkpt>
      <trkpt lat="52.694890" lon="-1.197960"><ele>0.0</ele><time>2025-03-05T14:03:08.000Z</time></trkpt>
      <trkpt lat="52.694920" lon="-1.197960"><ele>0.0</ele><time>2025-03-05T14:03:12.000Z</time></trkpt>
      <trkpt lat="52.694950" lon="-1.197980"><ele>0.0</ele><time>2025-03-05T14:03:19.000Z</time></trkpt>
      <trkpt lat="52.694990" lon="-1.197980"><ele>0.0</ele><time>2025-03-05T14:03:27.000Z</time></trkpt>
      <trkpt lat="52.695010" lon="-1.197990"><ele>0.0</ele><time>2025-03-05T14:03:31.000Z</time></trkpt>
      <trkpt lat="52.695040" lon="-1.197990"><ele>0.0</ele><time>2025-03-05T14:03:32.000Z</time></trkpt>
      <trkpt lat="52.695070" lon="-1.198010"><ele>0.0</ele><time>2025-03-05T14:03:39.000Z</time></trkpt>
      <trkpt lat="52.695100" lon="-1.198010"><ele>0.0</ele><time>2025-03-05T14:03:43.000Z</time></trkpt>
      <trkpt lat="52.695130" lon="-1.198030"><ele>0.0</ele><time>2025-03-05T14:03:46.000Z</time></trkpt>
      <trkpt lat="52.695150" lon="-1.198050"><ele>0.0</ele><time>2025-03-05T14:03:55.000Z</time></trkpt>
      <trkpt lat="52.695180" lon="-1.198050"><ele>0.0</ele><time>2025-03-05T14:03:59.000Z</time></trkpt>
      <trkpt lat="52.695210" lon="-1.198070"><ele>0.0</ele><time>2025-03-05T14:04:04.000Z</time></trkpt>
      <trkpt lat="52.695240" lon="-1.198070"><ele>0.0</ele><time>2025-03-05T14:04:07.000Z</time></trkpt>
      <trkpt lat="52.695260" lon="-1.198070"><ele>0.0</ele><time>2025-03-05T14:04:12.000Z</time></trkpt>
      <trkpt lat="52.695300" lon="-1.198080"><ele>0.0</ele><time>2025-03-05T14:04:15.000Z</time></trkpt>
      <trkpt lat="52.695330" lon="-1.198110"><ele>0.0</ele><time>2025-03-05T14:04:19.000Z</time></trkpt>
      <trkpt lat="52.695370" lon="-1.198120"><ele>0.0</ele><time>2025-03-05T14:04:24.000Z</time></trkpt>
      <trkpt lat="52.695390" lon="-1.198140"><ele>0.0</ele><time>2025-03-05T14:04:28.000Z</time></trkpt>
      <trkpt lat="52.695420" lon="-1.198160"><ele>0.0</ele><time>2025-03-05T14:04:46.000Z</time></trkpt>
      <trkpt lat="52.695450" lon="-1.198150"><ele>0.0</ele><time>2025-03-05T14:04:50.000Z</time></trkpt>
      <trkpt lat="52.695480" lon="-1.198180"><ele>0.0</ele><time>2025-03-05T14:04:55.000Z</time></trkpt>
      <trkpt lat="52.695510" lon="-1.198180"><ele>0.0</ele><time>2025-03-05T14:05:01.000Z</time></trkpt>
      <trkpt lat="52.695540" lon="-1.198190"><ele>0.0</ele><time>2025-03-05T14:05:06.000Z</time></trkpt>
      <trkpt lat="52.695570" lon="-1.198210"><ele>0.0</ele><time>2025-03-05T14:05:10.000Z</time></trkpt>
      <trkpt lat="52.695600" lon="-1.198200"><ele>0.0</ele><time>2025-03-05T14:05:15.000Z</time></trkpt>
      <trkpt lat="52.695630" lon="-1.198200"><ele>0.0</ele><time>2025-03-05T14:05:19.000Z</time></trkpt>
      <trkpt lat="52.695650" lon="-1.198210"><ele>0.0</ele><time>2025-03-05T14:05:24.000Z</time></trkpt>
      <trkpt lat="52.695680" lon="-1.198240"><ele>0.0</ele><time>2025-03-05T14:05:29.000Z</time></trkpt>
      <trkpt lat="52.695710" lon="-1.198250"><ele>0.0</ele><time>2025-03-05T14:05:34.000Z</time></trkpt>
      <trkpt lat="52.695740" lon="-1.198270"><ele>0.0</ele><time>2025-03-05T14:05:39.000Z</time></trkpt>
      <trkpt lat="52.695770" lon="-1.198300"><ele>0.0</ele><time>2025-03-05T14:06:19.000Z</time></trkpt>
      <trkpt lat="52.695790" lon="-1.198260"><ele>0.0</ele><time>2025-03-05T14:07:15.000Z</time></trkpt>
      <trkpt lat="52.695820" lon="-1.198240"><ele>0.0</ele><time>2025-03-05T14:07:20.000Z</time></trkpt>
      <trkpt lat="52.695850" lon="-1.198250"><ele>0.0</ele><time>2025-03-05T14:07:24.000Z</time></trkpt>
      <trkpt lat="52.695890" lon="-1.198260"><ele>0.0</ele><time>2025-03-05T14:07:28.000Z</time></trkpt>
      <trkpt lat="52.695920" lon="-1.198260"><ele>0.0</ele><time>2025-03-05T14:07:35.000Z</time></trkpt>
      <trkpt lat="52.695950" lon="-1.198260"><ele>0.0</ele><time>2025-03-05T14:07:39.000Z</time></trkpt>
      <trkpt lat="52.695990" lon="-1.198270"><ele>0.0</ele><time>2025-03-05T14:07:44.000Z</time></trkpt>
      <trkpt lat="52.696040" lon="-1.198290"><ele>0.0</ele><time>2025-03-05T14:07:48.000Z</time></trkpt>
      <trkpt lat="52.696070" lon="-1.198300"><ele>0.0</ele><time>2025-03-05T14:07:52.000Z</time></trkpt>
      <trkpt lat="52.696100" lon="-1.198310"><ele>0.0</ele><time>2025-03-05T14:07:56.000Z</time></trkpt>
      <trkpt lat="52.696130" lon="-1.198320"><ele>0.0</ele><time>2025-03-05T14:08:00.000Z</time></trkpt>
      <trkpt lat="52.696150" lon="-1.198330"><ele>0.0</ele><time>2025-03-05T14:08:05.000Z</time></trkpt>
      <trkpt lat="52.696180" lon="-1.198340"><ele>0.0</ele><time>2025-03-05T14:08:09.000Z</time></trkpt>
      <trkpt lat="52.696210" lon="-1.198350"><ele>0.0</ele><time>2025-03-05T14:08:12.000Z</time></trkpt>
      <trkpt lat="52.696240" lon="-1.198370"><ele>0.0</ele><time>2025-03-05T14:08:18.000Z</time></trkpt>
      <trkpt lat="52.696280" lon="-1.198380"><ele>0.0</ele><time>2025-03-05T14:08:23.000Z</time></trkpt>
      <trkpt lat="52.696300" lon="-1.198380"><ele>0.0</ele><time>2025-03-05T14:08:26.000Z</time></trkpt>
      <trkpt lat="52.696330" lon="-1.198400"><ele>0.0</ele><time>2025-03-05T14:08:30.000Z</time></trkpt>
      <trkpt lat="52.696360" lon="-1.198420"><ele>0.0</ele><time>2025-03-05T14:08:34.000Z</time></trkpt>
      <trkpt lat="52.696390" lon="-1.198410"><ele>0.0</ele><time>2025-03-05T14:08:39.000Z</time></trkpt>
      <trkpt lat="52.696430" lon="-1.198390"><ele>0.0</ele><time>2025-03-05T14:08:44.000Z</time></trkpt>
      <trkpt lat="52.696460" lon="-1.198440"><ele>0.0</ele><time>2025-03-05T14:08:48.000Z</time></trkpt>
      <trkpt lat="52.696490" lon="-1.198440"><ele>0.0</ele><time>2025-03-05T14:08:53.000Z</time></trkpt>
      <trkpt lat="52.696510" lon="-1.198450"><ele>0.0</ele><time>2025-03-05T14:08:58.000Z</time></trkpt>
      <trkpt lat="52.696550" lon="-1.198470"><ele>0.0</ele><time>2025-03-05T14:09:04.000Z</time></trkpt>
      <trkpt lat="52.696580" lon="-1.198490"><ele>0.0</ele><time>2025-03-05T14:09:05.000Z</time></trkpt>
      <trkpt lat="52.696620" lon="-1.198520"><ele>0.0</ele><time>2025-03-05T14:09:14.000Z</time></trkpt>
      <trkpt lat="52.696650" lon="-1.198540"><ele>0.0</ele><time>2025-03-05T14:09:20.000Z</time></trkpt>
      <trkpt lat="52.696670" lon="-1.198570"><ele>0.0</ele><time>2025-03-05T14:09:25.000Z</time></trkpt>
      <trkpt lat="52.696700" lon="-1.198590"><ele>0.0</ele><time>2025-03-05T14:09:27.000Z</time></trkpt>
      <trkpt lat="52.696730" lon="-1.198590"><ele>0.0</ele><time>2025-03-05T14:09:30.000Z</time></trkpt>
      <trkpt lat="52.696750" lon="-1.198590"><ele>0.0</ele><time>2025-03-05T14:09:33.000Z</time></trkpt>
      <trkpt lat="52.696780" lon="-1.198590"><ele>0.0</ele><time>2025-03-05T14:09:38.000Z</time></trkpt>
      <trkpt lat="52.696810" lon="-1.198600"><ele>0.0</ele><time>2025-03-05T14:09:42.000Z</time></trkpt>
      <trkpt lat="52.696840" lon="-1.198600"><ele>0.0</ele><time>2025-03-05T14:09:46.000Z</time></trkpt>
      <trkpt lat="52.696870" lon="-1.198600"><ele>0.0</ele><time>2025-03-05T14:09:53.000Z</time></trkpt>
      <trkpt lat="52.696900" lon="-1.198610"><ele>0.0</ele><time>2025-03-05T14:09:58.000Z</time></trkpt>
      <trkpt lat="52.696930" lon="-1.198630"><ele>0.0</ele><time>2025-03-05T14:10:22.000Z</time></trkpt>
      <trkpt lat="52.696960" lon="-1.198620"><ele>0.0</ele><time>2025-03-05T14:10:28.000Z</time></trkpt>
      <trkpt lat="52.696990" lon="-1.198630"><ele>0.0</ele><time>2025-03-05T14:10:32.000Z</time></trkpt>
      <trkpt lat="52.697030" lon="-1.198610"><ele>0.0</ele><time>2025-03-05T14:10:37.000Z</time></trkpt>
      <trkpt lat="52.697050" lon="-1.198580"><ele>0.0</ele><time>2025-03-05T14:10:42.000Z</time></trkpt>
      <trkpt lat="52.697070" lon="-1.198630"><ele>0.0</ele><time>2025-03-05T14:10:49.000Z</time></trkpt>
      <trkpt lat="52.697100" lon="-1.198600"><ele>0.0</ele><time>2025-03-05T14:10:54.000Z</time></trkpt>
      <trkpt lat="52.697130" lon="-1.198540"><ele>0.0</ele><time>2025-03-05T14:11:00.000Z</time></trkpt>
      <trkpt lat="52.697140" lon="-1.198510"><ele>0.0</ele><time>2025-03-05T14:11:03.000Z</time></trkpt>
      <trkpt lat="52.697170" lon="-1.198470"><ele>0.0</ele><time>2025-03-05T14:11:06.000Z</time></trkpt>
      <trkpt lat="52.697160" lon="-1.198420"><ele>0.0</ele><time>2025-03-05T14:11:09.000Z</time></trkpt>
    </trkseg>
  </trk>
</gpx>
