<?xml version="1.0" encoding="UTF-8"?>
<gpx version="1.1" creator="walkingwithember/fetch-intervals" xmlns="http://www.topografix.com/GPX/1/1">
  <metadata>
    <name>Hike</name>
    <time>2026-02-26T06:52:07.000Z</time>
  </metadata>
  <trk>
    <name>Hike</name>
    <trkseg>
      <trkpt lat="52.736740" lon="-1.349899"><ele>151.6</ele><time>2026-02-26T06:52:07.000Z</time></trkpt>
      <trkpt lat="52.736740" lon="-1.349899"><ele>151.6</ele><time>2026-02-26T06:52:08.000Z</time></trkpt>
      <trkpt lat="52.736736" lon="-1.349897"><ele>151.2</ele><time>2026-02-26T06:52:09.000Z</time></trkpt>
      <trkpt lat="52.736736" lon="-1.349898"><ele>150.8</ele><time>2026-02-26T06:52:10.000Z</time></trkpt>
      <trkpt lat="52.736732" lon="-1.349900"><ele>150.4</ele><time>2026-02-26T06:52:11.000Z</time></trkpt>
      <trkpt lat="52.736725" lon="-1.349904"><ele>150.2</ele><time>2026-02-26T06:52:12.000Z</time></trkpt>
      <trkpt lat="52.736717" lon="-1.349907"><ele>150.2</ele><time>2026-02-26T06:52:13.000Z</time></trkpt>
      <trkpt lat="52.736710" lon="-1.349909"><ele>150.0</ele><time>2026-02-26T06:52:14.000Z</time></trkpt>
      <trkpt lat="52.736702" lon="-1.349909"><ele>150.0</ele><time>2026-02-26T06:52:15.000Z</time></trkpt>
      <trkpt lat="52.736690" lon="-1.349905"><ele>150.0</ele><time>2026-02-26T06:52:16.000Z</time></trkpt>
      <trkpt lat="52.736680" lon="-1.349899"><ele>150.0</ele><time>2026-02-26T06:52:17.000Z</time></trkpt>
      <trkpt lat="52.736670" lon="-1.349893"><ele>150.0</ele><time>2026-02-26T06:52:18.000Z</time></trkpt>
      <trkpt lat="52.736656" lon="-1.349886"><ele>150.0</ele><time>2026-02-26T06:52:19.000Z</time></trkpt>
      <trkpt lat="52.736640" lon="-1.349879"><ele>150.0</ele><time>2026-02-26T06:52:20.000Z</time></trkpt>
      <trkpt lat="52.736620" lon="-1.349871"><ele>150.0</ele><time>2026-02-26T06:52:21.000Z</time></trkpt>
      <trkpt lat="52.736607" lon="-1.349861"><ele>150.0</ele><time>2026-02-26T06:52:22.000Z</time></trkpt>
      <trkpt lat="52.736595" lon="-1.349849"><ele>150.0</ele><time>2026-02-26T06:52:23.000Z</time></trkpt>
      <trkpt lat="52.736584" lon="-1.349836"><ele>150.0</ele><time>2026-02-26T06:52:24.000Z</time></trkpt>
      <trkpt lat="52.736576" lon="-1.349826"><ele>150.0</ele><time>2026-02-26T06:52:25.000Z</time></trkpt>
      <trkpt lat="52.736570" lon="-1.349817"><ele>150.0</ele><time>2026-02-26T06:52:26.000Z</time></trkpt>
      <trkpt lat="52.736560" lon="-1.349809"><ele>150.0</ele><time>2026-02-26T06:52:27.000Z</time></trkpt>
      <trkpt lat="52.736553" lon="-1.349801"><ele>150.0</ele><time>2026-02-26T06:52:28.000Z</time></trkpt>
      <trkpt lat="52.736546" lon="-1.349792"><ele>150.0</ele><time>2026-02-26T06:52:29.000Z</time></trkpt>
      <trkpt lat="52.736534" lon="-1.349782"><ele>150.0</ele><time>2026-02-26T06:52:30.000Z</time></trkpt>
      <trkpt lat="52.736523" lon="-1.349767"><ele>150.0</ele><time>2026-02-26T06:52:31.000Z</time></trkpt>
      <trkpt lat="52.736515" lon="-1.349751"><ele>150.0</ele><time>2026-02-26T06:52:32.000Z</time></trkpt>
      <trkpt lat="52.736504" lon="-1.349736"><ele>150.2</ele><time>2026-02-26T06:52:33.000Z</time></trkpt>
      <trkpt lat="52.736492" lon="-1.349721"><ele>150.2</ele><time>2026-02-26T06:52:34.000Z</time></trkpt>
      <trkpt lat="52.736485" lon="-1.349708"><ele>150.2</ele><time>2026-02-26T06:52:35.000Z</time></trkpt>
      <trkpt lat="52.736477" lon="-1.349696"><ele>150.2</ele><time>2026-02-26T06:52:36.000Z</time></trkpt>
      <trkpt lat="52.736465" lon="-1.349685"><ele>150.2</ele><time>2026-02-26T06:52:37.000Z</time></trkpt>
      <trkpt lat="52.736454" lon="-1.349675"><ele>150.2</ele><time>2026-02-26T06:52:38.000Z</time></trkpt>
      <trkpt lat="52.736443" lon="-1.349662"><ele>150.2</ele><time>2026-02-26T06:52:39.000Z</time></trkpt>
      <trkpt lat="52.736435" lon="-1.349647"><ele>150.2</ele><time>2026-02-26T06:52:40.000Z</time></trkpt>
      <trkpt lat="52.736423" lon="-1.349632"><ele>150.4</ele><time>2026-02-26T06:52:41.000Z</time></trkpt>
      <trkpt lat="52.736410" lon="-1.349616"><ele>150.4</ele><time>2026-02-26T06:52:42.000Z</time></trkpt>
      <trkpt lat="52.736397" lon="-1.349603"><ele>150.4</ele><time>2026-02-26T06:52:43.000Z</time></trkpt>
      <trkpt lat="52.736385" lon="-1.349593"><ele>150.4</ele><time>2026-02-26T06:52:44.000Z</time></trkpt>
      <trkpt lat="52.736374" lon="-1.349587"><ele>150.4</ele><time>2026-02-26T06:52:45.000Z</time></trkpt>
      <trkpt lat="52.736362" lon="-1.349583"><ele>150.4</ele><time>2026-02-26T06:52:46.000Z</time></trkpt>
      <trkpt lat="52.736350" lon="-1.349579"><ele>150.4</ele><time>2026-02-26T06:52:47.000Z</time></trkpt>
      <trkpt lat="52.736340" lon="-1.349576"><ele>150.4</ele><time>2026-02-26T06:52:48.000Z</time></trkpt>
      <trkpt lat="52.736330" lon="-1.349573"><ele>150.6</ele><time>2026-02-26T06:52:49.000Z</time></trkpt>
      <trkpt lat="52.736317" lon="-1.349571"><ele>150.6</ele><time>2026-02-26T06:52:50.000Z</time></trkpt>
      <trkpt lat="52.736305" lon="-1.349569"><ele>150.6</ele><time>2026-02-26T06:52:51.000Z</time></trkpt>
      <trkpt lat="52.736290" lon="-1.349569"><ele>150.6</ele><time>2026-02-26T06:52:52.000Z</time></trkpt>
      <trkpt lat="52.736280" lon="-1.349569"><ele>150.6</ele><time>2026-02-26T06:52:53.000Z</time></trkpt>
      <trkpt lat="52.736263" lon="-1.349572"><ele>150.6</ele><time>2026-02-26T06:52:54.000Z</time></trkpt>
      <trkpt lat="52.736250" lon="-1.349575"><ele>150.6</ele><time>2026-02-26T06:52:55.000Z</time></trkpt>
      <trkpt lat="52.736240" lon="-1.349579"><ele>150.6</ele><time>2026-02-26T06:52:56.000Z</time></trkpt>
      <trkpt lat="52.736230" lon="-1.349583"><ele>150.6</ele><time>2026-02-26T06:52:57.000Z</time></trkpt>
      <trkpt lat="52.736220" lon="-1.349587"><ele>150.6</ele><time>2026-02-26T06:52:58.000Z</time></trkpt>
      <trkpt lat="52.736210" lon="-1.349589"><ele>150.6</ele><time>2026-02-26T06:52:59.000Z</time></trkpt>
      <trkpt lat="52.736200" lon="-1.349591"><ele>150.6</ele><time>2026-02-26T06:53:00.000Z</time></trkpt>
      <trkpt lat="52.736187" lon="-1.349591"><ele>150.6</ele><time>2026-02-26T06:53:01.000Z</time></trkpt>
      <trkpt lat="52.736176" lon="-1.349591"><ele>150.6</ele><time>2026-02-26T06:53:02.000Z</time></trkpt>
      <trkpt lat="52.736164" lon="-1.349589"><ele>150.6</ele><time>2026-02-26T06:53:03.000Z</time></trkpt>
      <trkpt lat="52.736156" lon="-1.349584"><ele>150.6</ele><time>2026-02-26T06:53:04.000Z</time></trkpt>
      <trkpt lat="52.736153" lon="-1.349578"><ele>150.6</ele><time>2026-02-26T06:53:05.000Z</time></trkpt>
      <trkpt lat="52.736145" lon="-1.349570"><ele>150.4</ele><time>2026-02-26T06:53:06.000Z</time></trkpt>
      <trkpt lat="52.736140" lon="-1.349559"><ele>150.4</ele><time>2026-02-26T06:53:07.000Z</time></trkpt>
      <trkpt lat="52.736137" lon="-1.349545"><ele>150.4</ele><time>2026-02-26T06:53:08.000Z</time></trkpt>
      <trkpt lat="52.736137" lon="-1.349529"><ele>150.4</ele><time>2026-02-26T06:53:09.000Z</time></trkpt>
      <trkpt lat="52.736130" lon="-1.349514"><ele>150.4</ele><time>2026-02-26T06:53:10.000Z</time></trkpt>
      <trkpt lat="52.736122" lon="-1.349501"><ele>150.2</ele><time>2026-02-26T06:53:11.000Z</time></trkpt>
      <trkpt lat="52.736115" lon="-1.349491"><ele>150.2</ele><time>2026-02-26T06:53:12.000Z</time></trkpt>
      <trkpt lat="52.736107" lon="-1.349480"><ele>150.2</ele><time>2026-02-26T06:53:13.000Z</time></trkpt>
      <trkpt lat="52.736100" lon="-1.349471"><ele>150.2</ele><time>2026-02-26T06:53:14.000Z</time></trkpt>
      <trkpt lat="52.736095" lon="-1.349461"><ele>150.2</ele><time>2026-02-26T06:53:15.000Z</time></trkpt>
      <trkpt lat="52.736090" lon="-1.349449"><ele>150.2</ele><time>2026-02-26T06:53:16.000Z</time></trkpt>
      <trkpt lat="52.736088" lon="-1.349434"><ele>150.2</ele><time>2026-02-26T06:53:17.000Z</time></trkpt>
      <trkpt lat="52.736084" lon="-1.349419"><ele>150.2</ele><time>2026-02-26T06:53:18.000Z</time></trkpt>
      <trkpt lat="52.736076" lon="-1.349406"><ele>150.2</ele><time>2026-02-26T06:53:19.000Z</time></trkpt>
      <trkpt lat="52.736076" lon="-1.349393"><ele>150.2</ele><time>2026-02-26T06:53:20.000Z</time></trkpt>
      <trkpt lat="52.736073" lon="-1.349377"><ele>150.0</ele><time>2026-02-26T06:53:21.000Z</time></trkpt>
      <trkpt lat="52.736073" lon="-1.349358"><ele>150.0</ele><time>2026-02-26T06:53:22.000Z</time></trkpt>
      <trkpt lat="52.736076" lon="-1.349338"><ele>150.0</ele><time>2026-02-26T06:53:23.000Z</time></trkpt>
      <trkpt lat="52.736076" lon="-1.349320"><ele>150.0</ele><time>2026-02-26T06:53:24.000Z</time></trkpt>
      <trkpt lat="52.736080" lon="-1.349304"><ele>150.0</ele><time>2026-02-26T06:53:25.000Z</time></trkpt>
      <trkpt lat="52.736080" lon="-1.349289"><ele>150.0</ele><time>2026-02-26T06:53:26.000Z</time></trkpt>
      <trkpt lat="52.736076" lon="-1.349272"><ele>150.0</ele><time>2026-02-26T06:53:27.000Z</time></trkpt>
      <trkpt lat="52.736070" lon="-1.349254"><ele>150.0</ele><time>2026-02-26T06:53:28.000Z</time></trkpt>
      <trkpt lat="52.736060" lon="-1.349237"><ele>150.0</ele><time>2026-02-26T06:53:29.000Z</time></trkpt>
      <trkpt lat="52.736053" lon="-1.349222"><ele>150.0</ele><time>2026-02-26T06:53:30.000Z</time></trkpt>
      <trkpt lat="52.736046" lon="-1.349210"><ele>150.0</ele><time>2026-02-26T06:53:31.000Z</time></trkpt>
      <trkpt lat="52.736040" lon="-1.349200"><ele>150.0</ele><time>2026-02-26T06:53:32.000Z</time></trkpt>
      <trkpt lat="52.736030" lon="-1.349188"><ele>150.0</ele><time>2026-02-26T06:53:33.000Z</time></trkpt>
      <trkpt lat="52.736020" lon="-1.349173"><ele>150.0</ele><time>2026-02-26T06:53:34.000Z</time></trkpt>
      <trkpt lat="52.736010" lon="-1.349158"><ele>150.0</ele><time>2026-02-26T06:53:35.000Z</time></trkpt>
      <trkpt lat="52.736004" lon="-1.349145"><ele>150.0</ele><time>2026-02-26T06:53:36.000Z</time></trkpt>
      <trkpt lat="52.736000" lon="-1.349136"><ele>150.0</ele><time>2026-02-26T06:53:37.000Z</time></trkpt>
      <trkpt lat="52.735996" lon="-1.349129"><ele>150.0</ele><time>2026-02-26T06:53:38.000Z</time></trkpt>
      <trkpt lat="52.735992" lon="-1.349122"><ele>149.8</ele><time>2026-02-26T06:53:39.000Z</time></trkpt>
      <trkpt lat="52.735992" lon="-1.349115"><ele>149.8</ele><time>2026-02-26T06:53:40.000Z</time></trkpt>
      <trkpt lat="52.735992" lon="-1.349109"><ele>149.8</ele><time>2026-02-26T06:53:41.000Z</time></trkpt>
      <trkpt lat="52.735996" lon="-1.349101"><ele>149.8</ele><time>2026-02-26T06:53:42.000Z</time></trkpt>
      <trkpt lat="52.735996" lon="-1.349096"><ele>149.6</ele><time>2026-02-26T06:53:43.000Z</time></trkpt>
      <trkpt lat="52.736000" lon="-1.349093"><ele>149.6</ele><time>2026-02-26T06:53:44.000Z</time></trkpt>
      <trkpt lat="52.736000" lon="-1.349091"><ele>149.6</ele><time>2026-02-26T06:53:45.000Z</time></trkpt>
      <trkpt lat="52.736000" lon="-1.349087"><ele>149.6</ele><time>2026-02-26T06:53:46.000Z</time></trkpt>
      <trkpt lat="52.735996" lon="-1.349080"><ele>149.6</ele><time>2026-02-26T06:53:47.000Z</time></trkpt>
      <trkpt lat="52.735992" lon="-1.349067"><ele>149.6</ele><time>2026-02-26T06:53:48.000Z</time></trkpt>
      <trkpt lat="52.735985" lon="-1.349049"><ele>149.6</ele><time>2026-02-26T06:53:49.000Z</time></trkpt>
      <trkpt lat="52.735977" lon="-1.349029"><ele>149.6</ele><time>2026-02-26T06:53:50.000Z</time></trkpt>
      <trkpt lat="52.735970" lon="-1.349009"><ele>149.6</ele><time>2026-02-26T06:53:51.000Z</time></trkpt>
      <trkpt lat="52.735966" lon="-1.348993"><ele>149.6</ele><time>2026-02-26T06:53:52.000Z</time></trkpt>
      <trkpt lat="52.735962" lon="-1.348979"><ele>149.6</ele><time>2026-02-26T06:53:53.000Z</time></trkpt>
      <trkpt lat="52.735960" lon="-1.348963"><ele>149.6</ele><time>2026-02-26T06:53:54.000Z</time></trkpt>
      <trkpt lat="52.735954" lon="-1.348945"><ele>149.6</ele><time>2026-02-26T06:53:55.000Z</time></trkpt>
      <trkpt lat="52.735947" lon="-1.348927"><ele>149.6</ele><time>2026-02-26T06:53:56.000Z</time></trkpt>
      <trkpt lat="52.735940" lon="-1.348909"><ele>149.6</ele><time>2026-02-26T06:53:57.000Z</time></trkpt>
      <trkpt lat="52.735930" lon="-1.348891"><ele>149.6</ele><time>2026-02-26T06:53:58.000Z</time></trkpt>
      <trkpt lat="52.735924" lon="-1.348874"><ele>149.8</ele><time>2026-02-26T06:53:59.000Z</time></trkpt>
      <trkpt lat="52.735912" lon="-1.348858"><ele>149.8</ele><time>2026-02-26T06:54:00.000Z</time></trkpt>
      <trkpt lat="52.735905" lon="-1.348843"><ele>149.8</ele><time>2026-02-26T06:54:01.000Z</time></trkpt>
      <trkpt lat="52.735897" lon="-1.348827"><ele>149.8</ele><time>2026-02-26T06:54:02.000Z</time></trkpt>
      <trkpt lat="52.735886" lon="-1.348811"><ele>149.8</ele><time>2026-02-26T06:54:03.000Z</time></trkpt>
      <trkpt lat="52.735878" lon="-1.348796"><ele>150.0</ele><time>2026-02-26T06:54:04.000Z</time></trkpt>
      <trkpt lat="52.735870" lon="-1.348781"><ele>150.0</ele><time>2026-02-26T06:54:05.000Z</time></trkpt>
      <trkpt lat="52.735860" lon="-1.348767"><ele>150.0</ele><time>2026-02-26T06:54:06.000Z</time></trkpt>
      <trkpt lat="52.735847" lon="-1.348754"><ele>150.0</ele><time>2026-02-26T06:54:07.000Z</time></trkpt>
      <trkpt lat="52.735840" lon="-1.348743"><ele>150.0</ele><time>2026-02-26T06:54:08.000Z</time></trkpt>
      <trkpt lat="52.735830" lon="-1.348732"><ele>150.2</ele><time>2026-02-26T06:54:09.000Z</time></trkpt>
      <trkpt lat="52.735820" lon="-1.348721"><ele>150.2</ele><time>2026-02-26T06:54:10.000Z</time></trkpt>
      <trkpt lat="52.735813" lon="-1.348710"><ele>150.2</ele><time>2026-02-26T06:54:11.000Z</time></trkpt>
      <trkpt lat="52.735806" lon="-1.348699"><ele>150.4</ele><time>2026-02-26T06:54:12.000Z</time></trkpt>
      <trkpt lat="52.735794" lon="-1.348687"><ele>150.4</ele><time>2026-02-26T06:54:13.000Z</time></trkpt>
      <trkpt lat="52.735786" lon="-1.348675"><ele>150.4</ele><time>2026-02-26T06:54:14.000Z</time></trkpt>
      <trkpt lat="52.735780" lon="-1.348663"><ele>150.6</ele><time>2026-02-26T06:54:15.000Z</time></trkpt>
      <trkpt lat="52.735770" lon="-1.348648"><ele>150.6</ele><time>2026-02-26T06:54:16.000Z</time></trkpt>
      <trkpt lat="52.735767" lon="-1.348633"><ele>150.6</ele><time>2026-02-26T06:54:17.000Z</time></trkpt>
      <trkpt lat="52.735760" lon="-1.348616"><ele>150.8</ele><time>2026-02-26T06:54:18.000Z</time></trkpt>
      <trkpt lat="52.735752" lon="-1.348600"><ele>150.8</ele><time>2026-02-26T06:54:19.000Z</time></trkpt>
      <trkpt lat="52.735744" lon="-1.348584"><ele>151.0</ele><time>2026-02-26T06:54:20.000Z</time></trkpt>
      <trkpt lat="52.735737" lon="-1.348569"><ele>151.0</ele><time>2026-02-26T06:54:21.000Z</time></trkpt>
      <trkpt lat="52.735730" lon="-1.348554"><ele>151.0</ele><time>2026-02-26T06:54:22.000Z</time></trkpt>
      <trkpt lat="52.735720" lon="-1.348542"><ele>151.2</ele><time>2026-02-26T06:54:23.000Z</time></trkpt>
      <trkpt lat="52.735714" lon="-1.348531"><ele>151.2</ele><time>2026-02-26T06:54:24.000Z</time></trkpt>
      <trkpt lat="52.735706" lon="-1.348519"><ele>151.4</ele><time>2026-02-26T06:54:25.000Z</time></trkpt>
      <trkpt lat="52.735703" lon="-1.348505"><ele>151.4</ele><time>2026-02-26T06:54:26.000Z</time></trkpt>
      <trkpt lat="52.735695" lon="-1.348492"><ele>151.6</ele><time>2026-02-26T06:54:27.000Z</time></trkpt>
      <trkpt lat="52.735690" lon="-1.348480"><ele>151.6</ele><time>2026-02-26T06:54:28.000Z</time></trkpt>
      <trkpt lat="52.735690" lon="-1.348467"><ele>151.8</ele><time>2026-02-26T06:54:29.000Z</time></trkpt>
      <trkpt lat="52.735687" lon="-1.348453"><ele>151.8</ele><time>2026-02-26T06:54:30.000Z</time></trkpt>
      <trkpt lat="52.735680" lon="-1.348438"><ele>152.0</ele><time>2026-02-26T06:54:31.000Z</time></trkpt>
      <trkpt lat="52.735676" lon="-1.348423"><ele>152.0</ele><time>2026-02-26T06:54:32.000Z</time></trkpt>
      <trkpt lat="52.735670" lon="-1.348408"><ele>152.2</ele><time>2026-02-26T06:54:33.000Z</time></trkpt>
      <trkpt lat="52.735660" lon="-1.348391"><ele>152.2</ele><time>2026-02-26T06:54:34.000Z</time></trkpt>
      <trkpt lat="52.735657" lon="-1.348375"><ele>152.2</ele><time>2026-02-26T06:54:35.000Z</time></trkpt>
      <trkpt lat="52.735650" lon="-1.348359"><ele>152.2</ele><time>2026-02-26T06:54:36.000Z</time></trkpt>
      <trkpt lat="52.735645" lon="-1.348343"><ele>152.4</ele><time>2026-02-26T06:54:37.000Z</time></trkpt>
      <trkpt lat="52.735640" lon="-1.348328"><ele>152.4</ele><time>2026-02-26T06:54:38.000Z</time></trkpt>
      <trkpt lat="52.735638" lon="-1.348311"><ele>152.4</ele><time>2026-02-26T06:54:39.000Z</time></trkpt>
      <trkpt lat="52.735638" lon="-1.348293"><ele>152.4</ele><time>2026-02-26T06:54:40.000Z</time></trkpt>
      <trkpt lat="52.735634" lon="-1.348276"><ele>152.6</ele><time>2026-02-26T06:54:41.000Z</time></trkpt>
      <trkpt lat="52.735634" lon="-1.348260"><ele>152.6</ele><time>2026-02-26T06:54:42.000Z</time></trkpt>
      <trkpt lat="52.735634" lon="-1.348243"><ele>152.6</ele><time>2026-02-26T06:54:43.000Z</time></trkpt>
      <trkpt lat="52.735634" lon="-1.348225"><ele>152.6</ele><time>2026-02-26T06:54:44.000Z</time></trkpt>
      <trkpt lat="52.735634" lon="-1.348207"><ele>152.8</ele><time>2026-02-26T06:54:45.000Z</time></trkpt>
      <trkpt lat="52.735630" lon="-1.348189"><ele>152.8</ele><time>2026-02-26T06:54:46.000Z</time></trkpt>
      <trkpt lat="52.735626" lon="-1.348172"><ele>152.8</ele><time>2026-02-26T06:54:47.000Z</time></trkpt>
      <trkpt lat="52.735620" lon="-1.348156"><ele>152.8</ele><time>2026-02-26T06:54:48.000Z</time></trkpt>
      <trkpt lat="52.735610" lon="-1.348144"><ele>153.0</ele><time>2026-02-26T06:54:49.000Z</time></trkpt>
      <trkpt lat="52.735600" lon="-1.348133"><ele>153.0</ele><time>2026-02-26T06:54:50.000Z</time></trkpt>
      <trkpt lat="52.735590" lon="-1.348122"><ele>153.0</ele><time>2026-02-26T06:54:51.000Z</time></trkpt>
      <trkpt lat="52.735580" lon="-1.348111"><ele>153.0</ele><time>2026-02-26T06:54:52.000Z</time></trkpt>
      <trkpt lat="52.735573" lon="-1.348100"><ele>153.0</ele><time>2026-02-26T06:54:53.000Z</time></trkpt>
      <trkpt lat="52.735565" lon="-1.348088"><ele>153.0</ele><time>2026-02-26T06:54:54.000Z</time></trkpt>
      <trkpt lat="52.735558" lon="-1.348077"><ele>153.0</ele><time>2026-02-26T06:54:55.000Z</time></trkpt>
      <trkpt lat="52.735550" lon="-1.348067"><ele>152.8</ele><time>2026-02-26T06:54:56.000Z</time></trkpt>
      <trkpt lat="52.735540" lon="-1.348056"><ele>152.8</ele><time>2026-02-26T06:54:57.000Z</time></trkpt>
      <trkpt lat="52.735530" lon="-1.348043"><ele>152.8</ele><time>2026-02-26T06:54:58.000Z</time></trkpt>
      <trkpt lat="52.735523" lon="-1.348031"><ele>152.6</ele><time>2026-02-26T06:54:59.000Z</time></trkpt>
      <trkpt lat="52.735516" lon="-1.348018"><ele>152.6</ele><time>2026-02-26T06:55:00.000Z</time></trkpt>
      <trkpt lat="52.735508" lon="-1.348003"><ele>152.6</ele><time>2026-02-26T06:55:01.000Z</time></trkpt>
      <trkpt lat="52.735500" lon="-1.347989"><ele>152.4</ele><time>2026-02-26T06:55:02.000Z</time></trkpt>
      <trkpt lat="52.735493" lon="-1.347975"><ele>152.4</ele><time>2026-02-26T06:55:03.000Z</time></trkpt>
      <trkpt lat="52.735490" lon="-1.347962"><ele>152.4</ele><time>2026-02-26T06:55:04.000Z</time></trkpt>
      <trkpt lat="52.735485" lon="-1.347948"><ele>152.4</ele><time>2026-02-26T06:55:05.000Z</time></trkpt>
      <trkpt lat="52.735480" lon="-1.347930"><ele>152.4</ele><time>2026-02-26T06:55:06.000Z</time></trkpt>
      <trkpt lat="52.735477" lon="-1.347911"><ele>152.2</ele><time>2026-02-26T06:55:07.000Z</time></trkpt>
      <trkpt lat="52.735477" lon="-1.347892"><ele>152.2</ele><time>2026-02-26T06:55:08.000Z</time></trkpt>
      <trkpt lat="52.735477" lon="-1.347874"><ele>152.2</ele><time>2026-02-26T06:55:09.000Z</time></trkpt>
      <trkpt lat="52.735474" lon="-1.347857"><ele>152.2</ele><time>2026-02-26T06:55:10.000Z</time></trkpt>
      <trkpt lat="52.735474" lon="-1.347839"><ele>152.4</ele><time>2026-02-26T06:55:11.000Z</time></trkpt>
      <trkpt lat="52.735470" lon="-1.347820"><ele>152.4</ele><time>2026-02-26T06:55:12.000Z</time></trkpt>
      <trkpt lat="52.735466" lon="-1.347800"><ele>152.4</ele><time>2026-02-26T06:55:13.000Z</time></trkpt>
      <trkpt lat="52.735462" lon="-1.347781"><ele>152.4</ele><time>2026-02-26T06:55:14.000Z</time></trkpt>
      <trkpt lat="52.735460" lon="-1.347763"><ele>152.6</ele><time>2026-02-26T06:55:15.000Z</time></trkpt>
      <trkpt lat="52.735455" lon="-1.347746"><ele>152.6</ele><time>2026-02-26T06:55:16.000Z</time></trkpt>
      <trkpt lat="52.735455" lon="-1.347729"><ele>152.8</ele><time>2026-02-26T06:55:17.000Z</time></trkpt>
      <trkpt lat="52.735450" lon="-1.347712"><ele>152.8</ele><time>2026-02-26T06:55:18.000Z</time></trkpt>
      <trkpt lat="52.735443" lon="-1.347696"><ele>153.0</ele><time>2026-02-26T06:55:19.000Z</time></trkpt>
      <trkpt lat="52.735440" lon="-1.347680"><ele>153.0</ele><time>2026-02-26T06:55:20.000Z</time></trkpt>
      <trkpt lat="52.735430" lon="-1.347664"><ele>153.2</ele><time>2026-02-26T06:55:21.000Z</time></trkpt>
      <trkpt lat="52.735428" lon="-1.347645"><ele>153.2</ele><time>2026-02-26T06:55:22.000Z</time></trkpt>
      <trkpt lat="52.735424" lon="-1.347625"><ele>153.2</ele><time>2026-02-26T06:55:23.000Z</time></trkpt>
      <trkpt lat="52.735420" lon="-1.347608"><ele>153.2</ele><time>2026-02-26T06:55:24.000Z</time></trkpt>
      <trkpt lat="52.735416" lon="-1.347592"><ele>153.2</ele><time>2026-02-26T06:55:25.000Z</time></trkpt>
      <trkpt lat="52.735410" lon="-1.347578"><ele>153.2</ele><time>2026-02-26T06:55:26.000Z</time></trkpt>
      <trkpt lat="52.735405" lon="-1.347564"><ele>153.2</ele><time>2026-02-26T06:55:27.000Z</time></trkpt>
      <trkpt lat="52.735397" lon="-1.347550"><ele>153.2</ele><time>2026-02-26T06:55:28.000Z</time></trkpt>
      <trkpt lat="52.735390" lon="-1.347535"><ele>153.2</ele><time>2026-02-26T06:55:29.000Z</time></trkpt>
      <trkpt lat="52.735380" lon="-1.347519"><ele>153.2</ele><time>2026-02-26T06:55:30.000Z</time></trkpt>
      <trkpt lat="52.735370" lon="-1.347503"><ele>153.4</ele><time>2026-02-26T06:55:31.000Z</time></trkpt>
      <trkpt lat="52.735360" lon="-1.347489"><ele>153.4</ele><time>2026-02-26T06:55:32.000Z</time></trkpt>
      <trkpt lat="52.735348" lon="-1.347476"><ele>153.4</ele><time>2026-02-26T06:55:33.000Z</time></trkpt>
      <trkpt lat="52.735340" lon="-1.347464"><ele>153.4</ele><time>2026-02-26T06:55:34.000Z</time></trkpt>
      <trkpt lat="52.735330" lon="-1.347453"><ele>153.4</ele><time>2026-02-26T06:55:35.000Z</time></trkpt>
      <trkpt lat="52.735317" lon="-1.347442"><ele>153.4</ele><time>2026-02-26T06:55:36.000Z</time></trkpt>
      <trkpt lat="52.735306" lon="-1.347431"><ele>153.6</ele><time>2026-02-26T06:55:37.000Z</time></trkpt>
      <trkpt lat="52.735294" lon="-1.347418"><ele>153.6</ele><time>2026-02-26T06:55:38.000Z</time></trkpt>
      <trkpt lat="52.735283" lon="-1.347405"><ele>153.6</ele><time>2026-02-26T06:55:39.000Z</time></trkpt>
      <trkpt lat="52.735275" lon="-1.347391"><ele>153.6</ele><time>2026-02-26T06:55:40.000Z</time></trkpt>
      <trkpt lat="52.735268" lon="-1.347378"><ele>153.6</ele><time>2026-02-26T06:55:41.000Z</time></trkpt>
      <trkpt lat="52.735260" lon="-1.347363"><ele>153.8</ele><time>2026-02-26T06:55:42.000Z</time></trkpt>
      <trkpt lat="52.735250" lon="-1.347346"><ele>153.8</ele><time>2026-02-26T06:55:43.000Z</time></trkpt>
      <trkpt lat="52.735240" lon="-1.347328"><ele>153.8</ele><time>2026-02-26T06:55:44.000Z</time></trkpt>
      <trkpt lat="52.735233" lon="-1.347311"><ele>154.0</ele><time>2026-02-26T06:55:45.000Z</time></trkpt>
      <trkpt lat="52.735230" lon="-1.347294"><ele>154.0</ele><time>2026-02-26T06:55:46.000Z</time></trkpt>
      <trkpt lat="52.735220" lon="-1.347278"><ele>154.0</ele><time>2026-02-26T06:55:47.000Z</time></trkpt>
      <trkpt lat="52.735214" lon="-1.347260"><ele>154.2</ele><time>2026-02-26T06:55:48.000Z</time></trkpt>
      <trkpt lat="52.735207" lon="-1.347242"><ele>154.2</ele><time>2026-02-26T06:55:49.000Z</time></trkpt>
      <trkpt lat="52.735203" lon="-1.347224"><ele>154.4</ele><time>2026-02-26T06:55:50.000Z</time></trkpt>
      <trkpt lat="52.735195" lon="-1.347206"><ele>154.4</ele><time>2026-02-26T06:55:51.000Z</time></trkpt>
      <trkpt lat="52.735190" lon="-1.347187"><ele>154.4</ele><time>2026-02-26T06:55:52.000Z</time></trkpt>
      <trkpt lat="52.735188" lon="-1.347170"><ele>154.4</ele><time>2026-02-26T06:55:53.000Z</time></trkpt>
      <trkpt lat="52.735180" lon="-1.347152"><ele>154.6</ele><time>2026-02-26T06:55:54.000Z</time></trkpt>
      <trkpt lat="52.735172" lon="-1.347135"><ele>154.6</ele><time>2026-02-26T06:55:55.000Z</time></trkpt>
      <trkpt lat="52.735160" lon="-1.347120"><ele>154.6</ele><time>2026-02-26T06:55:56.000Z</time></trkpt>
      <trkpt lat="52.735150" lon="-1.347106"><ele>154.6</ele><time>2026-02-26T06:55:57.000Z</time></trkpt>
      <trkpt lat="52.735138" lon="-1.347093"><ele>154.6</ele><time>2026-02-26T06:55:58.000Z</time></trkpt>
      <trkpt lat="52.735130" lon="-1.347079"><ele>154.8</ele><time>2026-02-26T06:55:59.000Z</time></trkpt>
      <trkpt lat="52.735120" lon="-1.347065"><ele>154.8</ele><time>2026-02-26T06:56:00.000Z</time></trkpt>
      <trkpt lat="52.735110" lon="-1.347053"><ele>154.8</ele><time>2026-02-26T06:56:01.000Z</time></trkpt>
      <trkpt lat="52.735100" lon="-1.347042"><ele>154.8</ele><time>2026-02-26T06:56:02.000Z</time></trkpt>
      <trkpt lat="52.735090" lon="-1.347033"><ele>154.8</ele><time>2026-02-26T06:56:03.000Z</time></trkpt>
      <trkpt lat="52.735077" lon="-1.347026"><ele>154.8</ele><time>2026-02-26T06:56:04.000Z</time></trkpt>
      <trkpt lat="52.735060" lon="-1.347020"><ele>154.8</ele><time>2026-02-26T06:56:05.000Z</time></trkpt>
      <trkpt lat="52.735054" lon="-1.347013"><ele>154.8</ele><time>2026-02-26T06:56:06.000Z</time></trkpt>
      <trkpt lat="52.735043" lon="-1.347006"><ele>154.8</ele><time>2026-02-26T06:56:07.000Z</time></trkpt>
      <trkpt lat="52.735030" lon="-1.346999"><ele>154.8</ele><time>2026-02-26T06:56:08.000Z</time></trkpt>
      <trkpt lat="52.735023" lon="-1.346993"><ele>154.8</ele><time>2026-02-26T06:56:09.000Z</time></trkpt>
      <trkpt lat="52.735016" lon="-1.346986"><ele>154.8</ele><time>2026-02-26T06:56:10.000Z</time></trkpt>
      <trkpt lat="52.735010" lon="-1.346978"><ele>154.8</ele><time>2026-02-26T06:56:11.000Z</time></trkpt>
      <trkpt lat="52.735000" lon="-1.346968"><ele>154.8</ele><time>2026-02-26T06:56:12.000Z</time></trkpt>
      <trkpt lat="52.734993" lon="-1.346955"><ele>154.8</ele><time>2026-02-26T06:56:13.000Z</time></trkpt>
      <trkpt lat="52.734985" lon="-1.346941"><ele>154.8</ele><time>2026-02-26T06:56:14.000Z</time></trkpt>
      <trkpt lat="52.734978" lon="-1.346927"><ele>154.8</ele><time>2026-02-26T06:56:15.000Z</time></trkpt>
      <trkpt lat="52.734970" lon="-1.346914"><ele>154.8</ele><time>2026-02-26T06:56:16.000Z</time></trkpt>
      <trkpt lat="52.734962" lon="-1.346902"><ele>154.8</ele><time>2026-02-26T06:56:17.000Z</time></trkpt>
      <trkpt lat="52.734955" lon="-1.346890"><ele>155.0</ele><time>2026-02-26T06:56:18.000Z</time></trkpt>
      <trkpt lat="52.734947" lon="-1.346876"><ele>155.0</ele><time>2026-02-26T06:56:19.000Z</time></trkpt>
      <trkpt lat="52.734940" lon="-1.346861"><ele>155.0</ele><time>2026-02-26T06:56:20.000Z</time></trkpt>
      <trkpt lat="52.734930" lon="-1.346846"><ele>155.0</ele><time>2026-02-26T06:56:21.000Z</time></trkpt>
      <trkpt lat="52.734920" lon="-1.346832"><ele>155.2</ele><time>2026-02-26T06:56:22.000Z</time></trkpt>
      <trkpt lat="52.734910" lon="-1.346817"><ele>155.2</ele><time>2026-02-26T06:56:23.000Z</time></trkpt>
      <trkpt lat="52.734900" lon="-1.346804"><ele>155.2</ele><time>2026-02-26T06:56:24.000Z</time></trkpt>
      <trkpt lat="52.734890" lon="-1.346794"><ele>155.4</ele><time>2026-02-26T06:56:25.000Z</time></trkpt>
      <trkpt lat="52.734880" lon="-1.346787"><ele>155.4</ele><time>2026-02-26T06:56:26.000Z</time></trkpt>
      <trkpt lat="52.734867" lon="-1.346782"><ele>155.4</ele><time>2026-02-26T06:56:27.000Z</time></trkpt>
      <trkpt lat="52.734860" lon="-1.346777"><ele>155.4</ele><time>2026-02-26T06:56:28.000Z</time></trkpt>
      <trkpt lat="52.734860" lon="-1.346773"><ele>155.4</ele><time>2026-02-26T06:56:29.000Z</time></trkpt>
      <trkpt lat="52.734856" lon="-1.346771"><ele>155.4</ele><time>2026-02-26T06:56:30.000Z</time></trkpt>
      <trkpt lat="52.734856" lon="-1.346769"><ele>155.4</ele><time>2026-02-26T06:56:31.000Z</time></trkpt>
      <trkpt lat="52.734850" lon="-1.346767"><ele>155.4</ele><time>2026-02-26T06:56:32.000Z</time></trkpt>
      <trkpt lat="52.734850" lon="-1.346767"><ele>155.4</ele><time>2026-02-26T06:56:33.000Z</time></trkpt>
      <trkpt lat="52.734850" lon="-1.346767"><ele>155.4</ele><time>2026-02-26T06:56:34.000Z</time></trkpt>
      <trkpt lat="52.734850" lon="-1.346768"><ele>155.4</ele><time>2026-02-26T06:56:35.000Z</time></trkpt>
      <trkpt lat="52.734850" lon="-1.346769"><ele>155.4</ele><time>2026-02-26T06:56:36.000Z</time></trkpt>
      <trkpt lat="52.734850" lon="-1.346770"><ele>155.4</ele><time>2026-02-26T06:56:37.000Z</time></trkpt>
      <trkpt lat="52.734850" lon="-1.346772"><ele>155.4</ele><time>2026-02-26T06:56:38.000Z</time></trkpt>
      <trkpt lat="52.734850" lon="-1.346773"><ele>155.4</ele><time>2026-02-26T06:56:39.000Z</time></trkpt>
      <trkpt lat="52.734850" lon="-1.346775"><ele>155.2</ele><time>2026-02-26T06:56:40.000Z</time></trkpt>
      <trkpt lat="52.734850" lon="-1.346777"><ele>155.2</ele><time>2026-02-26T06:56:41.000Z</time></trkpt>
      <trkpt lat="52.734850" lon="-1.346779"><ele>155.2</ele><time>2026-02-26T06:56:42.000Z</time></trkpt>
      <trkpt lat="52.734848" lon="-1.346780"><ele>155.2</ele><time>2026-02-26T06:56:43.000Z</time></trkpt>
      <trkpt lat="52.734848" lon="-1.346781"><ele>155.2</ele><time>2026-02-26T06:56:44.000Z</time></trkpt>
      <trkpt lat="52.734848" lon="-1.346782"><ele>155.2</ele><time>2026-02-26T06:56:45.000Z</time></trkpt>
      <trkpt lat="52.734848" lon="-1.346782"><ele>155.2</ele><time>2026-02-26T06:56:46.000Z</time></trkpt>
      <trkpt lat="52.734844" lon="-1.346783"><ele>155.2</ele><time>2026-02-26T06:56:47.000Z</time></trkpt>
      <trkpt lat="52.734844" lon="-1.346783"><ele>155.2</ele><time>2026-02-26T06:56:48.000Z</time></trkpt>
      <trkpt lat="52.734837" lon="-1.346782"><ele>155.2</ele><time>2026-02-26T06:56:49.000Z</time></trkpt>
      <trkpt lat="52.734833" lon="-1.346779"><ele>155.2</ele><time>2026-02-26T06:56:50.000Z</time></trkpt>
      <trkpt lat="52.734820" lon="-1.346774"><ele>155.2</ele><time>2026-02-26T06:56:51.000Z</time></trkpt>
      <trkpt lat="52.734814" lon="-1.346766"><ele>155.2</ele><time>2026-02-26T06:56:52.000Z</time></trkpt>
      <trkpt lat="52.734806" lon="-1.346759"><ele>155.2</ele><time>2026-02-26T06:56:53.000Z</time></trkpt>
      <trkpt lat="52.734800" lon="-1.346751"><ele>155.2</ele><time>2026-02-26T06:56:54.000Z</time></trkpt>
      <trkpt lat="52.734795" lon="-1.346743"><ele>155.2</ele><time>2026-02-26T06:56:55.000Z</time></trkpt>
      <trkpt lat="52.734790" lon="-1.346735"><ele>155.2</ele><time>2026-02-26T06:56:56.000Z</time></trkpt>
      <trkpt lat="52.734787" lon="-1.346725"><ele>155.2</ele><time>2026-02-26T06:56:57.000Z</time></trkpt>
      <trkpt lat="52.734780" lon="-1.346714"><ele>155.2</ele><time>2026-02-26T06:56:58.000Z</time></trkpt>
      <trkpt lat="52.734770" lon="-1.346701"><ele>155.2</ele><time>2026-02-26T06:56:59.000Z</time></trkpt>
      <trkpt lat="52.734768" lon="-1.346686"><ele>155.2</ele><time>2026-02-26T06:57:00.000Z</time></trkpt>
      <trkpt lat="52.734764" lon="-1.346670"><ele>155.2</ele><time>2026-02-26T06:57:01.000Z</time></trkpt>
      <trkpt lat="52.734760" lon="-1.346653"><ele>155.2</ele><time>2026-02-26T06:57:02.000Z</time></trkpt>
      <trkpt lat="52.734753" lon="-1.346636"><ele>155.2</ele><time>2026-02-26T06:57:03.000Z</time></trkpt>
      <trkpt lat="52.734745" lon="-1.346620"><ele>155.2</ele><time>2026-02-26T06:57:04.000Z</time></trkpt>
      <trkpt lat="52.734734" lon="-1.346603"><ele>155.2</ele><time>2026-02-26T06:57:05.000Z</time></trkpt>
      <trkpt lat="52.734726" lon="-1.346588"><ele>155.4</ele><time>2026-02-26T06:57:06.000Z</time></trkpt>
      <trkpt lat="52.734715" lon="-1.346576"><ele>155.4</ele><time>2026-02-26T06:57:07.000Z</time></trkpt>
      <trkpt lat="52.734703" lon="-1.346564"><ele>155.4</ele><time>2026-02-26T06:57:08.000Z</time></trkpt>
      <trkpt lat="52.734690" lon="-1.346552"><ele>155.4</ele><time>2026-02-26T06:57:09.000Z</time></trkpt>
      <trkpt lat="52.734676" lon="-1.346540"><ele>155.4</ele><time>2026-02-26T06:57:10.000Z</time></trkpt>
      <trkpt lat="52.734665" lon="-1.346528"><ele>155.6</ele><time>2026-02-26T06:57:11.000Z</time></trkpt>
      <trkpt lat="52.734650" lon="-1.346516"><ele>155.6</ele><time>2026-02-26T06:57:12.000Z</time></trkpt>
      <trkpt lat="52.734634" lon="-1.346507"><ele>155.6</ele><time>2026-02-26T06:57:13.000Z</time></trkpt>
      <trkpt lat="52.734623" lon="-1.346498"><ele>155.6</ele><time>2026-02-26T06:57:14.000Z</time></trkpt>
      <trkpt lat="52.734610" lon="-1.346489"><ele>155.6</ele><time>2026-02-26T06:57:15.000Z</time></trkpt>
      <trkpt lat="52.734600" lon="-1.346479"><ele>155.6</ele><time>2026-02-26T06:57:16.000Z</time></trkpt>
      <trkpt lat="52.734596" lon="-1.346468"><ele>155.6</ele><time>2026-02-26T06:57:17.000Z</time></trkpt>
      <trkpt lat="52.734592" lon="-1.346455"><ele>155.6</ele><time>2026-02-26T06:57:18.000Z</time></trkpt>
      <trkpt lat="52.734590" lon="-1.346441"><ele>155.6</ele><time>2026-02-26T06:57:19.000Z</time></trkpt>
      <trkpt lat="52.734590" lon="-1.346426"><ele>155.4</ele><time>2026-02-26T06:57:20.000Z</time></trkpt>
      <trkpt lat="52.734585" lon="-1.346410"><ele>155.4</ele><time>2026-02-26T06:57:21.000Z</time></trkpt>
      <trkpt lat="52.734580" lon="-1.346395"><ele>155.4</ele><time>2026-02-26T06:57:22.000Z</time></trkpt>
      <trkpt lat="52.734573" lon="-1.346381"><ele>155.4</ele><time>2026-02-26T06:57:23.000Z</time></trkpt>
      <trkpt lat="52.734570" lon="-1.346368"><ele>155.4</ele><time>2026-02-26T06:57:24.000Z</time></trkpt>
      <trkpt lat="52.734566" lon="-1.346356"><ele>155.4</ele><time>2026-02-26T06:57:25.000Z</time></trkpt>
      <trkpt lat="52.734560" lon="-1.346342"><ele>155.4</ele><time>2026-02-26T06:57:26.000Z</time></trkpt>
      <trkpt lat="52.734554" lon="-1.346330"><ele>155.4</ele><time>2026-02-26T06:57:27.000Z</time></trkpt>
      <trkpt lat="52.734550" lon="-1.346318"><ele>155.4</ele><time>2026-02-26T06:57:28.000Z</time></trkpt>
      <trkpt lat="52.734547" lon="-1.346306"><ele>155.4</ele><time>2026-02-26T06:57:29.000Z</time></trkpt>
      <trkpt lat="52.734540" lon="-1.346295"><ele>155.4</ele><time>2026-02-26T06:57:30.000Z</time></trkpt>
      <trkpt lat="52.734535" lon="-1.346282"><ele>155.4</ele><time>2026-02-26T06:57:31.000Z</time></trkpt>
      <trkpt lat="52.734528" lon="-1.346269"><ele>155.4</ele><time>2026-02-26T06:57:32.000Z</time></trkpt>
      <trkpt lat="52.734520" lon="-1.346257"><ele>155.4</ele><time>2026-02-26T06:57:33.000Z</time></trkpt>
      <trkpt lat="52.734512" lon="-1.346245"><ele>155.6</ele><time>2026-02-26T06:57:34.000Z</time></trkpt>
      <trkpt lat="52.734505" lon="-1.346232"><ele>155.6</ele><time>2026-02-26T06:57:35.000Z</time></trkpt>
      <trkpt lat="52.734497" lon="-1.346220"><ele>155.6</ele><time>2026-02-26T06:57:36.000Z</time></trkpt>
      <trkpt lat="52.734490" lon="-1.346208"><ele>155.6</ele><time>2026-02-26T06:57:37.000Z</time></trkpt>
      <trkpt lat="52.734480" lon="-1.346195"><ele>155.6</ele><time>2026-02-26T06:57:38.000Z</time></trkpt>
      <trkpt lat="52.734474" lon="-1.346182"><ele>155.6</ele><time>2026-02-26T06:57:39.000Z</time></trkpt>
      <trkpt lat="52.734467" lon="-1.346169"><ele>155.6</ele><time>2026-02-26T06:57:40.000Z</time></trkpt>
      <trkpt lat="52.734460" lon="-1.346157"><ele>155.6</ele><time>2026-02-26T06:57:41.000Z</time></trkpt>
      <trkpt lat="52.734455" lon="-1.346149"><ele>155.6</ele><time>2026-02-26T06:57:42.000Z</time></trkpt>
      <trkpt lat="52.734450" lon="-1.346145"><ele>155.6</ele><time>2026-02-26T06:57:43.000Z</time></trkpt>
      <trkpt lat="52.734447" lon="-1.346147"><ele>155.6</ele><time>2026-02-26T06:57:44.000Z</time></trkpt>
      <trkpt lat="52.734450" lon="-1.346153"><ele>155.6</ele><time>2026-02-26T06:57:45.000Z</time></trkpt>
      <trkpt lat="52.734450" lon="-1.346165"><ele>155.6</ele><time>2026-02-26T06:57:46.000Z</time></trkpt>
      <trkpt lat="52.734455" lon="-1.346180"><ele>155.6</ele><time>2026-02-26T06:57:47.000Z</time></trkpt>
      <trkpt lat="52.734460" lon="-1.346198"><ele>155.6</ele><time>2026-02-26T06:57:48.000Z</time></trkpt>
      <trkpt lat="52.734460" lon="-1.346220"><ele>155.6</ele><time>2026-02-26T06:57:49.000Z</time></trkpt>
      <trkpt lat="52.734467" lon="-1.346242"><ele>155.6</ele><time>2026-02-26T06:57:50.000Z</time></trkpt>
      <trkpt lat="52.734474" lon="-1.346263"><ele>155.6</ele><time>2026-02-26T06:57:51.000Z</time></trkpt>
      <trkpt lat="52.734480" lon="-1.346281"><ele>155.6</ele><time>2026-02-26T06:57:52.000Z</time></trkpt>
      <trkpt lat="52.734490" lon="-1.346299"><ele>155.6</ele><time>2026-02-26T06:57:53.000Z</time></trkpt>
      <trkpt lat="52.734497" lon="-1.346316"><ele>155.6</ele><time>2026-02-26T06:57:54.000Z</time></trkpt>
      <trkpt lat="52.734505" lon="-1.346335"><ele>155.6</ele><time>2026-02-26T06:57:55.000Z</time></trkpt>
      <trkpt lat="52.734512" lon="-1.346354"><ele>155.6</ele><time>2026-02-26T06:57:56.000Z</time></trkpt>
      <trkpt lat="52.734520" lon="-1.346371"><ele>155.6</ele><time>2026-02-26T06:57:57.000Z</time></trkpt>
      <trkpt lat="52.734528" lon="-1.346385"><ele>155.6</ele><time>2026-02-26T06:57:58.000Z</time></trkpt>
      <trkpt lat="52.734540" lon="-1.346397"><ele>155.6</ele><time>2026-02-26T06:57:59.000Z</time></trkpt>
      <trkpt lat="52.734547" lon="-1.346407"><ele>155.6</ele><time>2026-02-26T06:58:00.000Z</time></trkpt>
      <trkpt lat="52.734554" lon="-1.346415"><ele>155.6</ele><time>2026-02-26T06:58:01.000Z</time></trkpt>
      <trkpt lat="52.734560" lon="-1.346421"><ele>155.6</ele><time>2026-02-26T06:58:02.000Z</time></trkpt>
      <trkpt lat="52.734562" lon="-1.346424"><ele>155.6</ele><time>2026-02-26T06:58:03.000Z</time></trkpt>
      <trkpt lat="52.734562" lon="-1.346425"><ele>155.6</ele><time>2026-02-26T06:58:04.000Z</time></trkpt>
      <trkpt lat="52.734562" lon="-1.346425"><ele>155.6</ele><time>2026-02-26T06:58:05.000Z</time></trkpt>
      <trkpt lat="52.734566" lon="-1.346426"><ele>155.6</ele><time>2026-02-26T06:58:06.000Z</time></trkpt>
      <trkpt lat="52.734570" lon="-1.346426"><ele>155.6</ele><time>2026-02-26T06:58:07.000Z</time></trkpt>
      <trkpt lat="52.734573" lon="-1.346425"><ele>155.6</ele><time>2026-02-26T06:58:08.000Z</time></trkpt>
      <trkpt lat="52.734570" lon="-1.346423"><ele>155.6</ele><time>2026-02-26T06:58:09.000Z</time></trkpt>
      <trkpt lat="52.734570" lon="-1.346422"><ele>155.6</ele><time>2026-02-26T06:58:10.000Z</time></trkpt>
      <trkpt lat="52.734566" lon="-1.346423"><ele>155.6</ele><time>2026-02-26T06:58:11.000Z</time></trkpt>
      <trkpt lat="52.734566" lon="-1.346426"><ele>155.6</ele><time>2026-02-26T06:58:12.000Z</time></trkpt>
      <trkpt lat="52.734566" lon="-1.346435"><ele>155.4</ele><time>2026-02-26T06:58:13.000Z</time></trkpt>
      <trkpt lat="52.734566" lon="-1.346447"><ele>155.4</ele><time>2026-02-26T06:58:14.000Z</time></trkpt>
      <trkpt lat="52.734566" lon="-1.346462"><ele>155.4</ele><time>2026-02-26T06:58:15.000Z</time></trkpt>
      <trkpt lat="52.734570" lon="-1.346476"><ele>155.4</ele><time>2026-02-26T06:58:16.000Z</time></trkpt>
      <trkpt lat="52.734573" lon="-1.346489"><ele>155.4</ele><time>2026-02-26T06:58:17.000Z</time></trkpt>
      <trkpt lat="52.734580" lon="-1.346502"><ele>155.4</ele><time>2026-02-26T06:58:18.000Z</time></trkpt>
      <trkpt lat="52.734585" lon="-1.346514"><ele>155.4</ele><time>2026-02-26T06:58:19.000Z</time></trkpt>
      <trkpt lat="52.734590" lon="-1.346525"><ele>155.4</ele><time>2026-02-26T06:58:20.000Z</time></trkpt>
      <trkpt lat="52.734596" lon="-1.346535"><ele>155.4</ele><time>2026-02-26T06:58:21.000Z</time></trkpt>
      <trkpt lat="52.734600" lon="-1.346548"><ele>155.2</ele><time>2026-02-26T06:58:22.000Z</time></trkpt>
      <trkpt lat="52.734604" lon="-1.346561"><ele>155.2</ele><time>2026-02-26T06:58:23.000Z</time></trkpt>
      <trkpt lat="52.734608" lon="-1.346575"><ele>155.2</ele><time>2026-02-26T06:58:24.000Z</time></trkpt>
      <trkpt lat="52.734615" lon="-1.346588"><ele>155.2</ele><time>2026-02-26T06:58:25.000Z</time></trkpt>
      <trkpt lat="52.734623" lon="-1.346598"><ele>155.2</ele><time>2026-02-26T06:58:26.000Z</time></trkpt>
      <trkpt lat="52.734630" lon="-1.346607"><ele>155.2</ele><time>2026-02-26T06:58:27.000Z</time></trkpt>
      <trkpt lat="52.734640" lon="-1.346615"><ele>155.2</ele><time>2026-02-26T06:58:28.000Z</time></trkpt>
      <trkpt lat="52.734650" lon="-1.346621"><ele>155.2</ele><time>2026-02-26T06:58:29.000Z</time></trkpt>
      <trkpt lat="52.734660" lon="-1.346626"><ele>155.2</ele><time>2026-02-26T06:58:30.000Z</time></trkpt>
      <trkpt lat="52.734670" lon="-1.346629"><ele>155.2</ele><time>2026-02-26T06:58:31.000Z</time></trkpt>
      <trkpt lat="52.734680" lon="-1.346630"><ele>155.2</ele><time>2026-02-26T06:58:32.000Z</time></trkpt>
      <trkpt lat="52.734688" lon="-1.346631"><ele>155.2</ele><time>2026-02-26T06:58:33.000Z</time></trkpt>
      <trkpt lat="52.734695" lon="-1.346634"><ele>155.2</ele><time>2026-02-26T06:58:34.000Z</time></trkpt>
      <trkpt lat="52.734703" lon="-1.346637"><ele>155.2</ele><time>2026-02-26T06:58:35.000Z</time></trkpt>
      <trkpt lat="52.734707" lon="-1.346639"><ele>155.4</ele><time>2026-02-26T06:58:36.000Z</time></trkpt>
      <trkpt lat="52.734715" lon="-1.346639"><ele>155.4</ele><time>2026-02-26T06:58:37.000Z</time></trkpt>
      <trkpt lat="52.734720" lon="-1.346639"><ele>155.4</ele><time>2026-02-26T06:58:38.000Z</time></trkpt>
      <trkpt lat="52.734722" lon="-1.346637"><ele>155.4</ele><time>2026-02-26T06:58:39.000Z</time></trkpt>
      <trkpt lat="52.734722" lon="-1.346636"><ele>155.4</ele><time>2026-02-26T06:58:40.000Z</time></trkpt>
      <trkpt lat="52.734726" lon="-1.346635"><ele>155.4</ele><time>2026-02-26T06:58:41.000Z</time></trkpt>
      <trkpt lat="52.734726" lon="-1.346634"><ele>155.6</ele><time>2026-02-26T06:58:42.000Z</time></trkpt>
      <trkpt lat="52.734726" lon="-1.346634"><ele>155.6</ele><time>2026-02-26T06:58:43.000Z</time></trkpt>
      <trkpt lat="52.734726" lon="-1.346635"><ele>155.6</ele><time>2026-02-26T06:58:44.000Z</time></trkpt>
      <trkpt lat="52.734726" lon="-1.346635"><ele>155.6</ele><time>2026-02-26T06:58:45.000Z</time></trkpt>
      <trkpt lat="52.734726" lon="-1.346636"><ele>155.6</ele><time>2026-02-26T06:58:46.000Z</time></trkpt>
      <trkpt lat="52.734726" lon="-1.346637"><ele>155.6</ele><time>2026-02-26T06:58:47.000Z</time></trkpt>
      <trkpt lat="52.734726" lon="-1.346637"><ele>155.6</ele><time>2026-02-26T06:58:48.000Z</time></trkpt>
      <trkpt lat="52.734726" lon="-1.346638"><ele>155.6</ele><time>2026-02-26T06:58:49.000Z</time></trkpt>
      <trkpt lat="52.734730" lon="-1.346639"><ele>155.6</ele><time>2026-02-26T06:58:50.000Z</time></trkpt>
      <trkpt lat="52.734730" lon="-1.346641"><ele>155.6</ele><time>2026-02-26T06:58:51.000Z</time></trkpt>
      <trkpt lat="52.734730" lon="-1.346644"><ele>155.6</ele><time>2026-02-26T06:58:52.000Z</time></trkpt>
      <trkpt lat="52.734730" lon="-1.346649"><ele>155.6</ele><time>2026-02-26T06:58:53.000Z</time></trkpt>
      <trkpt lat="52.734734" lon="-1.346656"><ele>155.6</ele><time>2026-02-26T06:58:54.000Z</time></trkpt>
      <trkpt lat="52.734737" lon="-1.346665"><ele>155.6</ele><time>2026-02-26T06:58:55.000Z</time></trkpt>
      <trkpt lat="52.734740" lon="-1.346677"><ele>155.6</ele><time>2026-02-26T06:58:56.000Z</time></trkpt>
      <trkpt lat="52.734745" lon="-1.346691"><ele>155.6</ele><time>2026-02-26T06:58:57.000Z</time></trkpt>
      <trkpt lat="52.734750" lon="-1.346706"><ele>155.6</ele><time>2026-02-26T06:58:58.000Z</time></trkpt>
      <trkpt lat="52.734756" lon="-1.346721"><ele>155.4</ele><time>2026-02-26T06:58:59.000Z</time></trkpt>
      <trkpt lat="52.734760" lon="-1.346734"><ele>155.4</ele><time>2026-02-26T06:59:00.000Z</time></trkpt>
      <trkpt lat="52.734768" lon="-1.346746"><ele>155.4</ele><time>2026-02-26T06:59:01.000Z</time></trkpt>
      <trkpt lat="52.734776" lon="-1.346756"><ele>155.4</ele><time>2026-02-26T06:59:02.000Z</time></trkpt>
      <trkpt lat="52.734783" lon="-1.346765"><ele>155.4</ele><time>2026-02-26T06:59:03.000Z</time></trkpt>
      <trkpt lat="52.734787" lon="-1.346773"><ele>155.4</ele><time>2026-02-26T06:59:04.000Z</time></trkpt>
      <trkpt lat="52.734795" lon="-1.346781"><ele>155.2</ele><time>2026-02-26T06:59:05.000Z</time></trkpt>
      <trkpt lat="52.734800" lon="-1.346789"><ele>155.2</ele><time>2026-02-26T06:59:06.000Z</time></trkpt>
      <trkpt lat="52.734806" lon="-1.346796"><ele>155.2</ele><time>2026-02-26T06:59:07.000Z</time></trkpt>
      <trkpt lat="52.734814" lon="-1.346803"><ele>155.2</ele><time>2026-02-26T06:59:08.000Z</time></trkpt>
      <trkpt lat="52.734820" lon="-1.346811"><ele>155.2</ele><time>2026-02-26T06:59:09.000Z</time></trkpt>
      <trkpt lat="52.734825" lon="-1.346819"><ele>155.2</ele><time>2026-02-26T06:59:10.000Z</time></trkpt>
      <trkpt lat="52.734833" lon="-1.346827"><ele>155.2</ele><time>2026-02-26T06:59:11.000Z</time></trkpt>
      <trkpt lat="52.734837" lon="-1.346835"><ele>155.2</ele><time>2026-02-26T06:59:12.000Z</time></trkpt>
      <trkpt lat="52.734844" lon="-1.346842"><ele>155.2</ele><time>2026-02-26T06:59:13.000Z</time></trkpt>
      <trkpt lat="52.734844" lon="-1.346849"><ele>155.2</ele><time>2026-02-26T06:59:14.000Z</time></trkpt>
      <trkpt lat="52.734848" lon="-1.346854"><ele>155.2</ele><time>2026-02-26T06:59:15.000Z</time></trkpt>
      <trkpt lat="52.734850" lon="-1.346860"><ele>155.4</ele><time>2026-02-26T06:59:16.000Z</time></trkpt>
      <trkpt lat="52.734860" lon="-1.346866"><ele>155.4</ele><time>2026-02-26T06:59:17.000Z</time></trkpt>
      <trkpt lat="52.734870" lon="-1.346875"><ele>155.4</ele><time>2026-02-26T06:59:18.000Z</time></trkpt>
      <trkpt lat="52.734880" lon="-1.346885"><ele>155.4</ele><time>2026-02-26T06:59:19.000Z</time></trkpt>
      <trkpt lat="52.734890" lon="-1.346894"><ele>155.4</ele><time>2026-02-26T06:59:20.000Z</time></trkpt>
      <trkpt lat="52.734898" lon="-1.346903"><ele>155.4</ele><time>2026-02-26T06:59:21.000Z</time></trkpt>
      <trkpt lat="52.734905" lon="-1.346913"><ele>155.4</ele><time>2026-02-26T06:59:22.000Z</time></trkpt>
      <trkpt lat="52.734913" lon="-1.346925"><ele>155.4</ele><time>2026-02-26T06:59:23.000Z</time></trkpt>
      <trkpt lat="52.734920" lon="-1.346939"><ele>155.4</ele><time>2026-02-26T06:59:24.000Z</time></trkpt>
      <trkpt lat="52.734930" lon="-1.346952"><ele>155.4</ele><time>2026-02-26T06:59:25.000Z</time></trkpt>
      <trkpt lat="52.734936" lon="-1.346964"><ele>155.4</ele><time>2026-02-26T06:59:26.000Z</time></trkpt>
      <trkpt lat="52.734943" lon="-1.346973"><ele>155.2</ele><time>2026-02-26T06:59:27.000Z</time></trkpt>
      <trkpt lat="52.734950" lon="-1.346980"><ele>155.2</ele><time>2026-02-26T06:59:28.000Z</time></trkpt>
      <trkpt lat="52.734960" lon="-1.346984"><ele>155.2</ele><time>2026-02-26T06:59:29.000Z</time></trkpt>
      <trkpt lat="52.734962" lon="-1.346986"><ele>155.2</ele><time>2026-02-26T06:59:30.000Z</time></trkpt>
      <trkpt lat="52.734966" lon="-1.346987"><ele>155.2</ele><time>2026-02-26T06:59:31.000Z</time></trkpt>
      <trkpt lat="52.734970" lon="-1.346988"><ele>155.0</ele><time>2026-02-26T06:59:32.000Z</time></trkpt>
      <trkpt lat="52.734970" lon="-1.346988"><ele>155.0</ele><time>2026-02-26T06:59:33.000Z</time></trkpt>
      <trkpt lat="52.734974" lon="-1.346990"><ele>155.0</ele><time>2026-02-26T06:59:34.000Z</time></trkpt>
      <trkpt lat="52.734978" lon="-1.346995"><ele>155.0</ele><time>2026-02-26T06:59:35.000Z</time></trkpt>
      <trkpt lat="52.734980" lon="-1.347001"><ele>154.8</ele><time>2026-02-26T06:59:36.000Z</time></trkpt>
      <trkpt lat="52.734985" lon="-1.347011"><ele>154.8</ele><time>2026-02-26T06:59:37.000Z</time></trkpt>
      <trkpt lat="52.734993" lon="-1.347024"><ele>154.8</ele><time>2026-02-26T06:59:38.000Z</time></trkpt>
      <trkpt lat="52.735000" lon="-1.347038"><ele>154.8</ele><time>2026-02-26T06:59:39.000Z</time></trkpt>
      <trkpt lat="52.735012" lon="-1.347053"><ele>154.8</ele><time>2026-02-26T06:59:40.000Z</time></trkpt>
      <trkpt lat="52.735020" lon="-1.347064"><ele>154.8</ele><time>2026-02-26T06:59:41.000Z</time></trkpt>
      <trkpt lat="52.735030" lon="-1.347072"><ele>154.8</ele><time>2026-02-26T06:59:42.000Z</time></trkpt>
      <trkpt lat="52.735040" lon="-1.347079"><ele>154.8</ele><time>2026-02-26T06:59:43.000Z</time></trkpt>
      <trkpt lat="52.735046" lon="-1.347086"><ele>154.8</ele><time>2026-02-26T06:59:44.000Z</time></trkpt>
      <trkpt lat="52.735054" lon="-1.347092"><ele>154.8</ele><time>2026-02-26T06:59:45.000Z</time></trkpt>
      <trkpt lat="52.735065" lon="-1.347098"><ele>154.8</ele><time>2026-02-26T06:59:46.000Z</time></trkpt>
      <trkpt lat="52.735077" lon="-1.347104"><ele>154.8</ele><time>2026-02-26T06:59:47.000Z</time></trkpt>
      <trkpt lat="52.735090" lon="-1.347111"><ele>154.8</ele><time>2026-02-26T06:59:48.000Z</time></trkpt>
      <trkpt lat="52.735096" lon="-1.347118"><ele>155.0</ele><time>2026-02-26T06:59:49.000Z</time></trkpt>
      <trkpt lat="52.735107" lon="-1.347127"><ele>155.0</ele><time>2026-02-26T06:59:50.000Z</time></trkpt>
      <trkpt lat="52.735120" lon="-1.347139"><ele>155.0</ele><time>2026-02-26T06:59:51.000Z</time></trkpt>
      <trkpt lat="52.735126" lon="-1.347152"><ele>155.0</ele><time>2026-02-26T06:59:52.000Z</time></trkpt>
      <trkpt lat="52.735134" lon="-1.347165"><ele>155.2</ele><time>2026-02-26T06:59:53.000Z</time></trkpt>
      <trkpt lat="52.735140" lon="-1.347178"><ele>155.2</ele><time>2026-02-26T06:59:54.000Z</time></trkpt>
      <trkpt lat="52.735153" lon="-1.347191"><ele>155.2</ele><time>2026-02-26T06:59:55.000Z</time></trkpt>
      <trkpt lat="52.735160" lon="-1.347207"><ele>155.2</ele><time>2026-02-26T06:59:56.000Z</time></trkpt>
      <trkpt lat="52.735172" lon="-1.347224"><ele>155.2</ele><time>2026-02-26T06:59:57.000Z</time></trkpt>
      <trkpt lat="52.735180" lon="-1.347241"><ele>155.2</ele><time>2026-02-26T06:59:58.000Z</time></trkpt>
      <trkpt lat="52.735188" lon="-1.347258"><ele>155.2</ele><time>2026-02-26T06:59:59.000Z</time></trkpt>
      <trkpt lat="52.735195" lon="-1.347272"><ele>155.2</ele><time>2026-02-26T07:00:00.000Z</time></trkpt>
      <trkpt lat="52.735200" lon="-1.347286"><ele>155.2</ele><time>2026-02-26T07:00:01.000Z</time></trkpt>
      <trkpt lat="52.735207" lon="-1.347301"><ele>155.2</ele><time>2026-02-26T07:00:02.000Z</time></trkpt>
      <trkpt lat="52.735214" lon="-1.347318"><ele>155.0</ele><time>2026-02-26T07:00:03.000Z</time></trkpt>
      <trkpt lat="52.735226" lon="-1.347336"><ele>155.0</ele><time>2026-02-26T07:00:04.000Z</time></trkpt>
      <trkpt lat="52.735233" lon="-1.347354"><ele>155.0</ele><time>2026-02-26T07:00:05.000Z</time></trkpt>
      <trkpt lat="52.735240" lon="-1.347369"><ele>155.0</ele><time>2026-02-26T07:00:06.000Z</time></trkpt>
      <trkpt lat="52.735245" lon="-1.347384"><ele>155.0</ele><time>2026-02-26T07:00:07.000Z</time></trkpt>
      <trkpt lat="52.735252" lon="-1.347397"><ele>154.8</ele><time>2026-02-26T07:00:08.000Z</time></trkpt>
      <trkpt lat="52.735256" lon="-1.347411"><ele>154.8</ele><time>2026-02-26T07:00:09.000Z</time></trkpt>
      <trkpt lat="52.735264" lon="-1.347426"><ele>154.8</ele><time>2026-02-26T07:00:10.000Z</time></trkpt>
      <trkpt lat="52.735270" lon="-1.347443"><ele>154.8</ele><time>2026-02-26T07:00:11.000Z</time></trkpt>
      <trkpt lat="52.735275" lon="-1.347459"><ele>154.6</ele><time>2026-02-26T07:00:12.000Z</time></trkpt>
      <trkpt lat="52.735275" lon="-1.347475"><ele>154.6</ele><time>2026-02-26T07:00:13.000Z</time></trkpt>
      <trkpt lat="52.735275" lon="-1.347490"><ele>154.6</ele><time>2026-02-26T07:00:14.000Z</time></trkpt>
      <trkpt lat="52.735275" lon="-1.347505"><ele>154.4</ele><time>2026-02-26T07:00:15.000Z</time></trkpt>
      <trkpt lat="52.735275" lon="-1.347522"><ele>154.4</ele><time>2026-02-26T07:00:16.000Z</time></trkpt>
      <trkpt lat="52.735275" lon="-1.347542"><ele>154.4</ele><time>2026-02-26T07:00:17.000Z</time></trkpt>
      <trkpt lat="52.735270" lon="-1.347565"><ele>154.2</ele><time>2026-02-26T07:00:18.000Z</time></trkpt>
      <trkpt lat="52.735270" lon="-1.347587"><ele>154.0</ele><time>2026-02-26T07:00:19.000Z</time></trkpt>
      <trkpt lat="52.735270" lon="-1.347607"><ele>154.0</ele><time>2026-02-26T07:00:20.000Z</time></trkpt>
      <trkpt lat="52.735275" lon="-1.347623"><ele>153.8</ele><time>2026-02-26T07:00:21.000Z</time></trkpt>
      <trkpt lat="52.735280" lon="-1.347639"><ele>153.8</ele><time>2026-02-26T07:00:22.000Z</time></trkpt>
      <trkpt lat="52.735290" lon="-1.347657"><ele>153.6</ele><time>2026-02-26T07:00:23.000Z</time></trkpt>
      <trkpt lat="52.735302" lon="-1.347677"><ele>153.6</ele><time>2026-02-26T07:00:24.000Z</time></trkpt>
      <trkpt lat="52.735313" lon="-1.347695"><ele>153.4</ele><time>2026-02-26T07:00:25.000Z</time></trkpt>
      <trkpt lat="52.735325" lon="-1.347708"><ele>153.4</ele><time>2026-02-26T07:00:26.000Z</time></trkpt>
      <trkpt lat="52.735332" lon="-1.347719"><ele>153.2</ele><time>2026-02-26T07:00:27.000Z</time></trkpt>
      <trkpt lat="52.735340" lon="-1.347729"><ele>153.2</ele><time>2026-02-26T07:00:28.000Z</time></trkpt>
      <trkpt lat="52.735348" lon="-1.347740"><ele>153.2</ele><time>2026-02-26T07:00:29.000Z</time></trkpt>
      <trkpt lat="52.735355" lon="-1.347754"><ele>153.0</ele><time>2026-02-26T07:00:30.000Z</time></trkpt>
      <trkpt lat="52.735363" lon="-1.347767"><ele>153.0</ele><time>2026-02-26T07:00:31.000Z</time></trkpt>
      <trkpt lat="52.735370" lon="-1.347780"><ele>153.0</ele><time>2026-02-26T07:00:32.000Z</time></trkpt>
      <trkpt lat="52.735374" lon="-1.347794"><ele>153.0</ele><time>2026-02-26T07:00:33.000Z</time></trkpt>
      <trkpt lat="52.735382" lon="-1.347809"><ele>153.0</ele><time>2026-02-26T07:00:34.000Z</time></trkpt>
      <trkpt lat="52.735386" lon="-1.347826"><ele>153.0</ele><time>2026-02-26T07:00:35.000Z</time></trkpt>
      <trkpt lat="52.735394" lon="-1.347842"><ele>153.0</ele><time>2026-02-26T07:00:36.000Z</time></trkpt>
      <trkpt lat="52.735400" lon="-1.347858"><ele>153.2</ele><time>2026-02-26T07:00:37.000Z</time></trkpt>
      <trkpt lat="52.735413" lon="-1.347873"><ele>153.2</ele><time>2026-02-26T07:00:38.000Z</time></trkpt>
      <trkpt lat="52.735420" lon="-1.347889"><ele>153.2</ele><time>2026-02-26T07:00:39.000Z</time></trkpt>
      <trkpt lat="52.735428" lon="-1.347905"><ele>153.2</ele><time>2026-02-26T07:00:40.000Z</time></trkpt>
      <trkpt lat="52.735435" lon="-1.347920"><ele>153.2</ele><time>2026-02-26T07:00:41.000Z</time></trkpt>
      <trkpt lat="52.735440" lon="-1.347934"><ele>153.2</ele><time>2026-02-26T07:00:42.000Z</time></trkpt>
      <trkpt lat="52.735443" lon="-1.347949"><ele>153.0</ele><time>2026-02-26T07:00:43.000Z</time></trkpt>
      <trkpt lat="52.735447" lon="-1.347962"><ele>153.0</ele><time>2026-02-26T07:00:44.000Z</time></trkpt>
      <trkpt lat="52.735450" lon="-1.347976"><ele>153.0</ele><time>2026-02-26T07:00:45.000Z</time></trkpt>
      <trkpt lat="52.735455" lon="-1.347992"><ele>153.0</ele><time>2026-02-26T07:00:46.000Z</time></trkpt>
      <trkpt lat="52.735460" lon="-1.348008"><ele>152.8</ele><time>2026-02-26T07:00:47.000Z</time></trkpt>
      <trkpt lat="52.735462" lon="-1.348022"><ele>152.8</ele><time>2026-02-26T07:00:48.000Z</time></trkpt>
      <trkpt lat="52.735470" lon="-1.348035"><ele>152.8</ele><time>2026-02-26T07:00:49.000Z</time></trkpt>
      <trkpt lat="52.735477" lon="-1.348045"><ele>152.8</ele><time>2026-02-26T07:00:50.000Z</time></trkpt>
      <trkpt lat="52.735485" lon="-1.348057"><ele>152.8</ele><time>2026-02-26T07:00:51.000Z</time></trkpt>
      <trkpt lat="52.735497" lon="-1.348070"><ele>152.8</ele><time>2026-02-26T07:00:52.000Z</time></trkpt>
      <trkpt lat="52.735504" lon="-1.348083"><ele>152.8</ele><time>2026-02-26T07:00:53.000Z</time></trkpt>
      <trkpt lat="52.735510" lon="-1.348097"><ele>152.8</ele><time>2026-02-26T07:00:54.000Z</time></trkpt>
      <trkpt lat="52.735520" lon="-1.348110"><ele>152.8</ele><time>2026-02-26T07:00:55.000Z</time></trkpt>
      <trkpt lat="52.735527" lon="-1.348121"><ele>152.8</ele><time>2026-02-26T07:00:56.000Z</time></trkpt>
      <trkpt lat="52.735540" lon="-1.348134"><ele>152.8</ele><time>2026-02-26T07:00:57.000Z</time></trkpt>
      <trkpt lat="52.735546" lon="-1.348148"><ele>153.0</ele><time>2026-02-26T07:00:58.000Z</time></trkpt>
      <trkpt lat="52.735554" lon="-1.348161"><ele>153.0</ele><time>2026-02-26T07:00:59.000Z</time></trkpt>
      <trkpt lat="52.735560" lon="-1.348174"><ele>153.2</ele><time>2026-02-26T07:01:00.000Z</time></trkpt>
      <trkpt lat="52.735570" lon="-1.348188"><ele>153.2</ele><time>2026-02-26T07:01:01.000Z</time></trkpt>
      <trkpt lat="52.735577" lon="-1.348203"><ele>153.4</ele><time>2026-02-26T07:01:02.000Z</time></trkpt>
      <trkpt lat="52.735584" lon="-1.348219"><ele>153.4</ele><time>2026-02-26T07:01:03.000Z</time></trkpt>
      <trkpt lat="52.735590" lon="-1.348236"><ele>153.4</ele><time>2026-02-26T07:01:04.000Z</time></trkpt>
      <trkpt lat="52.735596" lon="-1.348253"><ele>153.6</ele><time>2026-02-26T07:01:05.000Z</time></trkpt>
      <trkpt lat="52.735603" lon="-1.348267"><ele>153.6</ele><time>2026-02-26T07:01:06.000Z</time></trkpt>
      <trkpt lat="52.735603" lon="-1.348279"><ele>153.6</ele><time>2026-02-26T07:01:07.000Z</time></trkpt>
      <trkpt lat="52.735607" lon="-1.348293"><ele>153.6</ele><time>2026-02-26T07:01:08.000Z</time></trkpt>
      <trkpt lat="52.735607" lon="-1.348310"><ele>153.6</ele><time>2026-02-26T07:01:09.000Z</time></trkpt>
      <trkpt lat="52.735603" lon="-1.348331"><ele>153.6</ele><time>2026-02-26T07:01:10.000Z</time></trkpt>
      <trkpt lat="52.735603" lon="-1.348351"><ele>153.6</ele><time>2026-02-26T07:01:11.000Z</time></trkpt>
      <trkpt lat="52.735600" lon="-1.348367"><ele>153.6</ele><time>2026-02-26T07:01:12.000Z</time></trkpt>
      <trkpt lat="52.735603" lon="-1.348381"><ele>153.6</ele><time>2026-02-26T07:01:13.000Z</time></trkpt>
      <trkpt lat="52.735607" lon="-1.348396"><ele>153.4</ele><time>2026-02-26T07:01:14.000Z</time></trkpt>
      <trkpt lat="52.735615" lon="-1.348412"><ele>153.4</ele><time>2026-02-26T07:01:15.000Z</time></trkpt>
      <trkpt lat="52.735622" lon="-1.348429"><ele>153.4</ele><time>2026-02-26T07:01:16.000Z</time></trkpt>
      <trkpt lat="52.735630" lon="-1.348443"><ele>153.2</ele><time>2026-02-26T07:01:17.000Z</time></trkpt>
      <trkpt lat="52.735638" lon="-1.348454"><ele>153.2</ele><time>2026-02-26T07:01:18.000Z</time></trkpt>
      <trkpt lat="52.735645" lon="-1.348466"><ele>153.2</ele><time>2026-02-26T07:01:19.000Z</time></trkpt>
      <trkpt lat="52.735653" lon="-1.348481"><ele>153.0</ele><time>2026-02-26T07:01:20.000Z</time></trkpt>
      <trkpt lat="52.735660" lon="-1.348499"><ele>153.0</ele><time>2026-02-26T07:01:21.000Z</time></trkpt>
      <trkpt lat="52.735672" lon="-1.348518"><ele>152.8</ele><time>2026-02-26T07:01:22.000Z</time></trkpt>
      <trkpt lat="52.735683" lon="-1.348536"><ele>152.8</ele><time>2026-02-26T07:01:23.000Z</time></trkpt>
      <trkpt lat="52.735690" lon="-1.348553"><ele>152.8</ele><time>2026-02-26T07:01:24.000Z</time></trkpt>
      <trkpt lat="52.735703" lon="-1.348568"><ele>152.8</ele><time>2026-02-26T07:01:25.000Z</time></trkpt>
      <trkpt lat="52.735710" lon="-1.348583"><ele>152.6</ele><time>2026-02-26T07:01:26.000Z</time></trkpt>
      <trkpt lat="52.735718" lon="-1.348597"><ele>152.6</ele><time>2026-02-26T07:01:27.000Z</time></trkpt>
      <trkpt lat="52.735725" lon="-1.348612"><ele>152.6</ele><time>2026-02-26T07:01:28.000Z</time></trkpt>
      <trkpt lat="52.735733" lon="-1.348630"><ele>152.4</ele><time>2026-02-26T07:01:29.000Z</time></trkpt>
      <trkpt lat="52.735740" lon="-1.348648"><ele>152.4</ele><time>2026-02-26T07:01:30.000Z</time></trkpt>
      <trkpt lat="52.735750" lon="-1.348669"><ele>152.2</ele><time>2026-02-26T07:01:31.000Z</time></trkpt>
      <trkpt lat="52.735756" lon="-1.348690"><ele>152.2</ele><time>2026-02-26T07:01:32.000Z</time></trkpt>
      <trkpt lat="52.735760" lon="-1.348708"><ele>152.0</ele><time>2026-02-26T07:01:33.000Z</time></trkpt>
      <trkpt lat="52.735767" lon="-1.348725"><ele>152.0</ele><time>2026-02-26T07:01:34.000Z</time></trkpt>
      <trkpt lat="52.735770" lon="-1.348740"><ele>151.8</ele><time>2026-02-26T07:01:35.000Z</time></trkpt>
      <trkpt lat="52.735780" lon="-1.348755"><ele>151.6</ele><time>2026-02-26T07:01:36.000Z</time></trkpt>
      <trkpt lat="52.735786" lon="-1.348772"><ele>151.6</ele><time>2026-02-26T07:01:37.000Z</time></trkpt>
      <trkpt lat="52.735794" lon="-1.348789"><ele>151.4</ele><time>2026-02-26T07:01:38.000Z</time></trkpt>
      <trkpt lat="52.735800" lon="-1.348807"><ele>151.4</ele><time>2026-02-26T07:01:39.000Z</time></trkpt>
      <trkpt lat="52.735810" lon="-1.348824"><ele>151.2</ele><time>2026-02-26T07:01:40.000Z</time></trkpt>
      <trkpt lat="52.735820" lon="-1.348839"><ele>151.2</ele><time>2026-02-26T07:01:41.000Z</time></trkpt>
      <trkpt lat="52.735830" lon="-1.348850"><ele>151.2</ele><time>2026-02-26T07:01:42.000Z</time></trkpt>
      <trkpt lat="52.735836" lon="-1.348859"><ele>151.0</ele><time>2026-02-26T07:01:43.000Z</time></trkpt>
      <trkpt lat="52.735844" lon="-1.348868"><ele>151.0</ele><time>2026-02-26T07:01:44.000Z</time></trkpt>
      <trkpt lat="52.735850" lon="-1.348879"><ele>151.0</ele><time>2026-02-26T07:01:45.000Z</time></trkpt>
      <trkpt lat="52.735860" lon="-1.348893"><ele>150.8</ele><time>2026-02-26T07:01:46.000Z</time></trkpt>
      <trkpt lat="52.735870" lon="-1.348911"><ele>150.8</ele><time>2026-02-26T07:01:47.000Z</time></trkpt>
      <trkpt lat="52.735878" lon="-1.348929"><ele>150.8</ele><time>2026-02-26T07:01:48.000Z</time></trkpt>
      <trkpt lat="52.735886" lon="-1.348946"><ele>150.8</ele><time>2026-02-26T07:01:49.000Z</time></trkpt>
      <trkpt lat="52.735893" lon="-1.348961"><ele>150.8</ele><time>2026-02-26T07:01:50.000Z</time></trkpt>
      <trkpt lat="52.735900" lon="-1.348974"><ele>150.8</ele><time>2026-02-26T07:01:51.000Z</time></trkpt>
      <trkpt lat="52.735910" lon="-1.348988"><ele>150.6</ele><time>2026-02-26T07:01:52.000Z</time></trkpt>
      <trkpt lat="52.735916" lon="-1.349003"><ele>150.6</ele><time>2026-02-26T07:01:53.000Z</time></trkpt>
      <trkpt lat="52.735924" lon="-1.349018"><ele>150.6</ele><time>2026-02-26T07:01:54.000Z</time></trkpt>
      <trkpt lat="52.735930" lon="-1.349034"><ele>150.6</ele><time>2026-02-26T07:01:55.000Z</time></trkpt>
      <trkpt lat="52.735940" lon="-1.349050"><ele>150.6</ele><time>2026-02-26T07:01:56.000Z</time></trkpt>
      <trkpt lat="52.735947" lon="-1.349066"><ele>150.6</ele><time>2026-02-26T07:01:57.000Z</time></trkpt>
      <trkpt lat="52.735950" lon="-1.349084"><ele>150.4</ele><time>2026-02-26T07:01:58.000Z</time></trkpt>
      <trkpt lat="52.735954" lon="-1.349100"><ele>150.4</ele><time>2026-02-26T07:01:59.000Z</time></trkpt>
      <trkpt lat="52.735960" lon="-1.349115"><ele>150.4</ele><time>2026-02-26T07:02:00.000Z</time></trkpt>
      <trkpt lat="52.735962" lon="-1.349130"><ele>150.4</ele><time>2026-02-26T07:02:01.000Z</time></trkpt>
      <trkpt lat="52.735966" lon="-1.349147"><ele>150.4</ele><time>2026-02-26T07:02:02.000Z</time></trkpt>
      <trkpt lat="52.735973" lon="-1.349167"><ele>150.2</ele><time>2026-02-26T07:02:03.000Z</time></trkpt>
      <trkpt lat="52.735980" lon="-1.349189"><ele>150.2</ele><time>2026-02-26T07:02:04.000Z</time></trkpt>
      <trkpt lat="52.735990" lon="-1.349210"><ele>150.2</ele><time>2026-02-26T07:02:05.000Z</time></trkpt>
      <trkpt lat="52.735992" lon="-1.349227"><ele>150.2</ele><time>2026-02-26T07:02:06.000Z</time></trkpt>
      <trkpt lat="52.735996" lon="-1.349243"><ele>150.2</ele><time>2026-02-26T07:02:07.000Z</time></trkpt>
      <trkpt lat="52.736000" lon="-1.349259"><ele>150.2</ele><time>2026-02-26T07:02:08.000Z</time></trkpt>
      <trkpt lat="52.736004" lon="-1.349275"><ele>150.2</ele><time>2026-02-26T07:02:09.000Z</time></trkpt>
      <trkpt lat="52.736008" lon="-1.349292"><ele>150.2</ele><time>2026-02-26T07:02:10.000Z</time></trkpt>
      <trkpt lat="52.736010" lon="-1.349308"><ele>150.4</ele><time>2026-02-26T07:02:11.000Z</time></trkpt>
      <trkpt lat="52.736015" lon="-1.349323"><ele>150.4</ele><time>2026-02-26T07:02:12.000Z</time></trkpt>
      <trkpt lat="52.736020" lon="-1.349339"><ele>150.4</ele><time>2026-02-26T07:02:13.000Z</time></trkpt>
      <trkpt lat="52.736023" lon="-1.349356"><ele>150.4</ele><time>2026-02-26T07:02:14.000Z</time></trkpt>
      <trkpt lat="52.736030" lon="-1.349373"><ele>150.4</ele><time>2026-02-26T07:02:15.000Z</time></trkpt>
      <trkpt lat="52.736034" lon="-1.349388"><ele>150.4</ele><time>2026-02-26T07:02:16.000Z</time></trkpt>
      <trkpt lat="52.736034" lon="-1.349403"><ele>150.4</ele><time>2026-02-26T07:02:17.000Z</time></trkpt>
      <trkpt lat="52.736040" lon="-1.349417"><ele>150.4</ele><time>2026-02-26T07:02:18.000Z</time></trkpt>
      <trkpt lat="52.736040" lon="-1.349432"><ele>150.4</ele><time>2026-02-26T07:02:19.000Z</time></trkpt>
      <trkpt lat="52.736042" lon="-1.349448"><ele>150.4</ele><time>2026-02-26T07:02:20.000Z</time></trkpt>
      <trkpt lat="52.736046" lon="-1.349462"><ele>150.4</ele><time>2026-02-26T07:02:21.000Z</time></trkpt>
      <trkpt lat="52.736050" lon="-1.349474"><ele>150.4</ele><time>2026-02-26T07:02:22.000Z</time></trkpt>
      <trkpt lat="52.736057" lon="-1.349485"><ele>150.4</ele><time>2026-02-26T07:02:23.000Z</time></trkpt>
      <trkpt lat="52.736065" lon="-1.349497"><ele>150.4</ele><time>2026-02-26T07:02:24.000Z</time></trkpt>
      <trkpt lat="52.736073" lon="-1.349511"><ele>150.4</ele><time>2026-02-26T07:02:25.000Z</time></trkpt>
      <trkpt lat="52.736084" lon="-1.349526"><ele>150.2</ele><time>2026-02-26T07:02:26.000Z</time></trkpt>
      <trkpt lat="52.736090" lon="-1.349539"><ele>150.2</ele><time>2026-02-26T07:02:27.000Z</time></trkpt>
      <trkpt lat="52.736100" lon="-1.349552"><ele>150.2</ele><time>2026-02-26T07:02:28.000Z</time></trkpt>
      <trkpt lat="52.736107" lon="-1.349564"><ele>150.2</ele><time>2026-02-26T07:02:29.000Z</time></trkpt>
      <trkpt lat="52.736115" lon="-1.349576"><ele>150.2</ele><time>2026-02-26T07:02:30.000Z</time></trkpt>
      <trkpt lat="52.736122" lon="-1.349587"><ele>150.2</ele><time>2026-02-26T07:02:31.000Z</time></trkpt>
      <trkpt lat="52.736130" lon="-1.349597"><ele>150.2</ele><time>2026-02-26T07:02:32.000Z</time></trkpt>
      <trkpt lat="52.736134" lon="-1.349608"><ele>150.2</ele><time>2026-02-26T07:02:33.000Z</time></trkpt>
      <trkpt lat="52.736140" lon="-1.349620"><ele>150.2</ele><time>2026-02-26T07:02:34.000Z</time></trkpt>
      <trkpt lat="52.736150" lon="-1.349630"><ele>150.2</ele><time>2026-02-26T07:02:35.000Z</time></trkpt>
      <trkpt lat="52.736160" lon="-1.349637"><ele>150.2</ele><time>2026-02-26T07:02:36.000Z</time></trkpt>
      <trkpt lat="52.736170" lon="-1.349640"><ele>150.2</ele><time>2026-02-26T07:02:37.000Z</time></trkpt>
      <trkpt lat="52.736183" lon="-1.349638"><ele>150.2</ele><time>2026-02-26T07:02:38.000Z</time></trkpt>
      <trkpt lat="52.736195" lon="-1.349633"><ele>150.4</ele><time>2026-02-26T07:02:39.000Z</time></trkpt>
      <trkpt lat="52.736206" lon="-1.349627"><ele>150.4</ele><time>2026-02-26T07:02:40.000Z</time></trkpt>
      <trkpt lat="52.736217" lon="-1.349619"><ele>150.4</ele><time>2026-02-26T07:02:41.000Z</time></trkpt>
      <trkpt lat="52.736233" lon="-1.349612"><ele>150.4</ele><time>2026-02-26T07:02:42.000Z</time></trkpt>
      <trkpt lat="52.736244" lon="-1.349605"><ele>150.4</ele><time>2026-02-26T07:02:43.000Z</time></trkpt>
      <trkpt lat="52.736256" lon="-1.349600"><ele>150.6</ele><time>2026-02-26T07:02:44.000Z</time></trkpt>
      <trkpt lat="52.736270" lon="-1.349598"><ele>150.6</ele><time>2026-02-26T07:02:45.000Z</time></trkpt>
      <trkpt lat="52.736282" lon="-1.349599"><ele>150.6</ele><time>2026-02-26T07:02:46.000Z</time></trkpt>
      <trkpt lat="52.736294" lon="-1.349601"><ele>150.6</ele><time>2026-02-26T07:02:47.000Z</time></trkpt>
      <trkpt lat="52.736305" lon="-1.349603"><ele>150.6</ele><time>2026-02-26T07:02:48.000Z</time></trkpt>
      <trkpt lat="52.736317" lon="-1.349607"><ele>150.6</ele><time>2026-02-26T07:02:49.000Z</time></trkpt>
      <trkpt lat="52.736332" lon="-1.349612"><ele>150.6</ele><time>2026-02-26T07:02:50.000Z</time></trkpt>
      <trkpt lat="52.736347" lon="-1.349619"><ele>150.6</ele><time>2026-02-26T07:02:51.000Z</time></trkpt>
      <trkpt lat="52.736360" lon="-1.349626"><ele>150.6</ele><time>2026-02-26T07:02:52.000Z</time></trkpt>
      <trkpt lat="52.736370" lon="-1.349633"><ele>150.6</ele><time>2026-02-26T07:02:53.000Z</time></trkpt>
      <trkpt lat="52.736378" lon="-1.349641"><ele>150.6</ele><time>2026-02-26T07:02:54.000Z</time></trkpt>
      <trkpt lat="52.736390" lon="-1.349649"><ele>150.4</ele><time>2026-02-26T07:02:55.000Z</time></trkpt>
      <trkpt lat="52.736397" lon="-1.349658"><ele>150.4</ele><time>2026-02-26T07:02:56.000Z</time></trkpt>
      <trkpt lat="52.736404" lon="-1.349668"><ele>150.4</ele><time>2026-02-26T07:02:57.000Z</time></trkpt>
      <trkpt lat="52.736416" lon="-1.349680"><ele>150.4</ele><time>2026-02-26T07:02:58.000Z</time></trkpt>
      <trkpt lat="52.736423" lon="-1.349696"><ele>150.4</ele><time>2026-02-26T07:02:59.000Z</time></trkpt>
      <trkpt lat="52.736435" lon="-1.349711"><ele>150.4</ele><time>2026-02-26T07:03:00.000Z</time></trkpt>
      <trkpt lat="52.736446" lon="-1.349726"><ele>150.2</ele><time>2026-02-26T07:03:01.000Z</time></trkpt>
      <trkpt lat="52.736454" lon="-1.349739"><ele>150.2</ele><time>2026-02-26T07:03:02.000Z</time></trkpt>
      <trkpt lat="52.736465" lon="-1.349751"><ele>150.2</ele><time>2026-02-26T07:03:03.000Z</time></trkpt>
      <trkpt lat="52.736473" lon="-1.349764"><ele>150.2</ele><time>2026-02-26T07:03:04.000Z</time></trkpt>
      <trkpt lat="52.736485" lon="-1.349777"><ele>150.2</ele><time>2026-02-26T07:03:05.000Z</time></trkpt>
      <trkpt lat="52.736500" lon="-1.349790"><ele>150.2</ele><time>2026-02-26T07:03:06.000Z</time></trkpt>
      <trkpt lat="52.736515" lon="-1.349802"><ele>150.2</ele><time>2026-02-26T07:03:07.000Z</time></trkpt>
      <trkpt lat="52.736526" lon="-1.349813"><ele>150.2</ele><time>2026-02-26T07:03:08.000Z</time></trkpt>
      <trkpt lat="52.736538" lon="-1.349823"><ele>150.2</ele><time>2026-02-26T07:03:09.000Z</time></trkpt>
      <trkpt lat="52.736550" lon="-1.349835"><ele>150.2</ele><time>2026-02-26T07:03:10.000Z</time></trkpt>
      <trkpt lat="52.736560" lon="-1.349844"><ele>150.2</ele><time>2026-02-26T07:03:11.000Z</time></trkpt>
      <trkpt lat="52.736572" lon="-1.349852"><ele>150.2</ele><time>2026-02-26T07:03:12.000Z</time></trkpt>
      <trkpt lat="52.736584" lon="-1.349859"><ele>150.0</ele><time>2026-02-26T07:03:13.000Z</time></trkpt>
      <trkpt lat="52.736595" lon="-1.349866"><ele>150.0</ele><time>2026-02-26T07:03:14.000Z</time></trkpt>
      <trkpt lat="52.736610" lon="-1.349875"><ele>150.0</ele><time>2026-02-26T07:03:15.000Z</time></trkpt>
      <trkpt lat="52.736620" lon="-1.349882"><ele>150.0</ele><time>2026-02-26T07:03:16.000Z</time></trkpt>
      <trkpt lat="52.736637" lon="-1.349890"><ele>150.0</ele><time>2026-02-26T07:03:17.000Z</time></trkpt>
      <trkpt lat="52.736650" lon="-1.349896"><ele>150.0</ele><time>2026-02-26T07:03:18.000Z</time></trkpt>
      <trkpt lat="52.736660" lon="-1.349902"><ele>150.0</ele><time>2026-02-26T07:03:19.000Z</time></trkpt>
      <trkpt lat="52.736670" lon="-1.349908"><ele>150.0</ele><time>2026-02-26T07:03:20.000Z</time></trkpt>
      <trkpt lat="52.736687" lon="-1.349914"><ele>150.0</ele><time>2026-02-26T07:03:21.000Z</time></trkpt>
      <trkpt lat="52.736700" lon="-1.349919"><ele>150.0</ele><time>2026-02-26T07:03:22.000Z</time></trkpt>
      <trkpt lat="52.736713" lon="-1.349923"><ele>150.0</ele><time>2026-02-26T07:03:23.000Z</time></trkpt>
      <trkpt lat="52.736730" lon="-1.349925"><ele>150.0</ele><time>2026-02-26T07:03:24.000Z</time></trkpt>
      <trkpt lat="52.736740" lon="-1.349927"><ele>150.0</ele><time>2026-02-26T07:03:25.000Z</time></trkpt>
      <trkpt lat="52.736750" lon="-1.349928"><ele>150.0</ele><time>2026-02-26T07:03:26.000Z</time></trkpt>
      <trkpt lat="52.736763" lon="-1.349929"><ele>150.0</ele><time>2026-02-26T07:03:27.000Z</time></trkpt>
      <trkpt lat="52.736770" lon="-1.349928"><ele>150.0</ele><time>2026-02-26T07:03:28.000Z</time></trkpt>
      <trkpt lat="52.736782" lon="-1.349926"><ele>150.0</ele><time>2026-02-26T07:03:29.000Z</time></trkpt>
      <trkpt lat="52.736794" lon="-1.349923"><ele>150.0</ele><time>2026-02-26T07:03:30.000Z</time></trkpt>
      <trkpt lat="52.736805" lon="-1.349919"><ele>150.0</ele><time>2026-02-26T07:03:31.000Z</time></trkpt>
      <trkpt lat="52.736816" lon="-1.349917"><ele>150.2</ele><time>2026-02-26T07:03:32.000Z</time></trkpt>
      <trkpt lat="52.736824" lon="-1.349915"><ele>150.2</ele><time>2026-02-26T07:03:33.000Z</time></trkpt>
      <trkpt lat="52.736835" lon="-1.349914"><ele>150.2</ele><time>2026-02-26T07:03:34.000Z</time></trkpt>
      <trkpt lat="52.736850" lon="-1.349913"><ele>150.2</ele><time>2026-02-26T07:03:35.000Z</time></trkpt>
      <trkpt lat="52.736862" lon="-1.349911"><ele>150.2</ele><time>2026-02-26T07:03:36.000Z</time></trkpt>
      <trkpt lat="52.736874" lon="-1.349910"><ele>150.2</ele><time>2026-02-26T07:03:37.000Z</time></trkpt>
      <trkpt lat="52.736890" lon="-1.349910"><ele>150.2</ele><time>2026-02-26T07:03:38.000Z</time></trkpt>
      <trkpt lat="52.736900" lon="-1.349910"><ele>150.2</ele><time>2026-02-26T07:03:39.000Z</time></trkpt>
      <trkpt lat="52.736910" lon="-1.349908"><ele>150.2</ele><time>2026-02-26T07:03:40.000Z</time></trkpt>
      <trkpt lat="52.736923" lon="-1.349906"><ele>150.2</ele><time>2026-02-26T07:03:41.000Z</time></trkpt>
      <trkpt lat="52.736935" lon="-1.349903"><ele>150.2</ele><time>2026-02-26T07:03:42.000Z</time></trkpt>
      <trkpt lat="52.736942" lon="-1.349899"><ele>150.2</ele><time>2026-02-26T07:03:43.000Z</time></trkpt>
      <trkpt lat="52.736958" lon="-1.349893"><ele>150.2</ele><time>2026-02-26T07:03:44.000Z</time></trkpt>
      <trkpt lat="52.736965" lon="-1.349883"><ele>150.4</ele><time>2026-02-26T07:03:45.000Z</time></trkpt>
      <trkpt lat="52.736977" lon="-1.349870"><ele>150.4</ele><time>2026-02-26T07:03:46.000Z</time></trkpt>
      <trkpt lat="52.736984" lon="-1.349855"><ele>150.4</ele><time>2026-02-26T07:03:47.000Z</time></trkpt>
      <trkpt lat="52.736988" lon="-1.349842"><ele>150.4</ele><time>2026-02-26T07:03:48.000Z</time></trkpt>
      <trkpt lat="52.736988" lon="-1.349833"><ele>150.4</ele><time>2026-02-26T07:03:49.000Z</time></trkpt>
      <trkpt lat="52.736988" lon="-1.349827"><ele>150.4</ele><time>2026-02-26T07:03:50.000Z</time></trkpt>
      <trkpt lat="52.736988" lon="-1.349824"><ele>150.4</ele><time>2026-02-26T07:03:51.000Z</time></trkpt>
      <trkpt lat="52.736984" lon="-1.349822"><ele>150.4</ele><time>2026-02-26T07:03:52.000Z</time></trkpt>
      <trkpt lat="52.736984" lon="-1.349820"><ele>150.4</ele><time>2026-02-26T07:03:53.000Z</time></trkpt>
      <trkpt lat="52.736984" lon="-1.349817"><ele>150.4</ele><time>2026-02-26T07:03:54.000Z</time></trkpt>
      <trkpt lat="52.736984" lon="-1.349814"><ele>150.4</ele><time>2026-02-26T07:03:55.000Z</time></trkpt>
      <trkpt lat="52.736984" lon="-1.349813"><ele>150.4</ele><time>2026-02-26T07:03:56.000Z</time></trkpt>
      <trkpt lat="52.736984" lon="-1.349816"><ele>150.6</ele><time>2026-02-26T07:03:57.000Z</time></trkpt>
      <trkpt lat="52.736988" lon="-1.349824"><ele>150.6</ele><time>2026-02-26T07:03:58.000Z</time></trkpt>
      <trkpt lat="52.736988" lon="-1.349833"><ele>150.6</ele><time>2026-02-26T07:03:59.000Z</time></trkpt>
      <trkpt lat="52.736988" lon="-1.349843"><ele>150.6</ele><time>2026-02-26T07:04:00.000Z</time></trkpt>
      <trkpt lat="52.736990" lon="-1.349852"><ele>150.8</ele><time>2026-02-26T07:04:01.000Z</time></trkpt>
      <trkpt lat="52.736990" lon="-1.349859"><ele>150.8</ele><time>2026-02-26T07:04:02.000Z</time></trkpt>
      <trkpt lat="52.736990" lon="-1.349865"><ele>150.8</ele><time>2026-02-26T07:04:03.000Z</time></trkpt>
      <trkpt lat="52.736990" lon="-1.349869"><ele>150.8</ele><time>2026-02-26T07:04:04.000Z</time></trkpt>
      <trkpt lat="52.736990" lon="-1.349870"><ele>151.0</ele><time>2026-02-26T07:04:05.000Z</time></trkpt>
      <trkpt lat="52.736996" lon="-1.349870"><ele>151.0</ele><time>2026-02-26T07:04:06.000Z</time></trkpt>
      <trkpt lat="52.736996" lon="-1.349868"><ele>151.0</ele><time>2026-02-26T07:04:07.000Z</time></trkpt>
      <trkpt lat="52.736996" lon="-1.349866"><ele>151.0</ele><time>2026-02-26T07:04:08.000Z</time></trkpt>
      <trkpt lat="52.736990" lon="-1.349864"><ele>151.0</ele><time>2026-02-26T07:04:09.000Z</time></trkpt>
      <trkpt lat="52.736990" lon="-1.349864"><ele>151.0</ele><time>2026-02-26T07:04:10.000Z</time></trkpt>
      <trkpt lat="52.736990" lon="-1.349864"><ele>151.0</ele><time>2026-02-26T07:04:11.000Z</time></trkpt>
      <trkpt lat="52.736990" lon="-1.349863"><ele>151.0</ele><time>2026-02-26T07:04:12.000Z</time></trkpt>
      <trkpt lat="52.736990" lon="-1.349863"><ele>151.0</ele><time>2026-02-26T07:04:13.000Z</time></trkpt>
      <trkpt lat="52.736996" lon="-1.349861"><ele>151.0</ele><time>2026-02-26T07:04:14.000Z</time></trkpt>
      <trkpt lat="52.736990" lon="-1.349856"><ele>151.0</ele><time>2026-02-26T07:04:15.000Z</time></trkpt>
      <trkpt lat="52.736990" lon="-1.349850"><ele>151.0</ele><time>2026-02-26T07:04:16.000Z</time></trkpt>
      <trkpt lat="52.736990" lon="-1.349843"><ele>150.8</ele><time>2026-02-26T07:04:17.000Z</time></trkpt>
      <trkpt lat="52.736988" lon="-1.349837"><ele>150.8</ele><time>2026-02-26T07:04:18.000Z</time></trkpt>
      <trkpt lat="52.736988" lon="-1.349830"><ele>151.0</ele><time>2026-02-26T07:04:19.000Z</time></trkpt>
      <trkpt lat="52.736988" lon="-1.349824"><ele>151.0</ele><time>2026-02-26T07:04:20.000Z</time></trkpt>
      <trkpt lat="52.736988" lon="-1.349820"><ele>151.0</ele><time>2026-02-26T07:04:21.000Z</time></trkpt>
      <trkpt lat="52.736990" lon="-1.349818"><ele>151.0</ele><time>2026-02-26T07:04:22.000Z</time></trkpt>
      <trkpt lat="52.736996" lon="-1.349817"><ele>151.0</ele><time>2026-02-26T07:04:23.000Z</time></trkpt>
      <trkpt lat="52.736996" lon="-1.349818"><ele>151.0</ele><time>2026-02-26T07:04:24.000Z</time></trkpt>
      <trkpt lat="52.736996" lon="-1.349819"><ele>151.0</ele><time>2026-02-26T07:04:25.000Z</time></trkpt>
      <trkpt lat="52.736996" lon="-1.349819"><ele>151.0</ele><time>2026-02-26T07:04:26.000Z</time></trkpt>
      <trkpt lat="52.736996" lon="-1.349820"><ele>151.0</ele><time>2026-02-26T07:04:27.000Z</time></trkpt>
      <trkpt lat="52.736996" lon="-1.349821"><ele>151.0</ele><time>2026-02-26T07:04:28.000Z</time></trkpt>
      <trkpt lat="52.736996" lon="-1.349821"><ele>151.0</ele><time>2026-02-26T07:04:29.000Z</time></trkpt>
      <trkpt lat="52.736996" lon="-1.349822"><ele>151.0</ele><time>2026-02-26T07:04:30.000Z</time></trkpt>
      <trkpt lat="52.736996" lon="-1.349823"><ele>151.0</ele><time>2026-02-26T07:04:31.000Z</time></trkpt>
      <trkpt lat="52.736996" lon="-1.349824"><ele>151.0</ele><time>2026-02-26T07:04:32.000Z</time></trkpt>
      <trkpt lat="52.736996" lon="-1.349826"><ele>151.0</ele><time>2026-02-26T07:04:33.000Z</time></trkpt>
      <trkpt lat="52.736996" lon="-1.349827"><ele>151.0</ele><time>2026-02-26T07:04:34.000Z</time></trkpt>
      <trkpt lat="52.737000" lon="-1.349830"><ele>151.0</ele><time>2026-02-26T07:04:35.000Z</time></trkpt>
      <trkpt lat="52.737000" lon="-1.349835"><ele>151.0</ele><time>2026-02-26T07:04:36.000Z</time></trkpt>
      <trkpt lat="52.737000" lon="-1.349840"><ele>151.0</ele><time>2026-02-26T07:04:37.000Z</time></trkpt>
      <trkpt lat="52.737000" lon="-1.349847"><ele>151.0</ele><time>2026-02-26T07:04:38.000Z</time></trkpt>
      <trkpt lat="52.737000" lon="-1.349853"><ele>151.0</ele><time>2026-02-26T07:04:39.000Z</time></trkpt>
      <trkpt lat="52.737000" lon="-1.349858"><ele>151.0</ele><time>2026-02-26T07:04:40.000Z</time></trkpt>
      <trkpt lat="52.737000" lon="-1.349862"><ele>151.0</ele><time>2026-02-26T07:04:41.000Z</time></trkpt>
      <trkpt lat="52.737000" lon="-1.349867"><ele>151.0</ele><time>2026-02-26T07:04:42.000Z</time></trkpt>
      <trkpt lat="52.737000" lon="-1.349871"><ele>151.0</ele><time>2026-02-26T07:04:43.000Z</time></trkpt>
      <trkpt lat="52.737000" lon="-1.349873"><ele>151.0</ele><time>2026-02-26T07:04:44.000Z</time></trkpt>
      <trkpt lat="52.736996" lon="-1.349876"><ele>151.0</ele><time>2026-02-26T07:04:45.000Z</time></trkpt>
      <trkpt lat="52.736996" lon="-1.349878"><ele>151.0</ele><time>2026-02-26T07:04:46.000Z</time></trkpt>
      <trkpt lat="52.736996" lon="-1.349880"><ele>151.0</ele><time>2026-02-26T07:04:47.000Z</time></trkpt>
      <trkpt lat="52.736996" lon="-1.349881"><ele>151.0</ele><time>2026-02-26T07:04:48.000Z</time></trkpt>
      <trkpt lat="52.736996" lon="-1.349881"><ele>151.0</ele><time>2026-02-26T07:04:49.000Z</time></trkpt>
      <trkpt lat="52.736996" lon="-1.349880"><ele>151.0</ele><time>2026-02-26T07:04:50.000Z</time></trkpt>
      <trkpt lat="52.736996" lon="-1.349878"><ele>151.0</ele><time>2026-02-26T07:04:51.000Z</time></trkpt>
      <trkpt lat="52.736996" lon="-1.349876"><ele>151.0</ele><time>2026-02-26T07:04:52.000Z</time></trkpt>
      <trkpt lat="52.736990" lon="-1.349872"><ele>151.0</ele><time>2026-02-26T07:04:53.000Z</time></trkpt>
      <trkpt lat="52.736990" lon="-1.349869"><ele>151.0</ele><time>2026-02-26T07:04:54.000Z</time></trkpt>
      <trkpt lat="52.736990" lon="-1.349867"><ele>151.0</ele><time>2026-02-26T07:04:55.000Z</time></trkpt>
      <trkpt lat="52.736988" lon="-1.349866"><ele>151.0</ele><time>2026-02-26T07:04:56.000Z</time></trkpt>
      <trkpt lat="52.736988" lon="-1.349865"><ele>151.0</ele><time>2026-02-26T07:04:57.000Z</time></trkpt>
      <trkpt lat="52.736988" lon="-1.349862"><ele>151.0</ele><time>2026-02-26T07:04:58.000Z</time></trkpt>
      <trkpt lat="52.736984" lon="-1.349857"><ele>151.2</ele><time>2026-02-26T07:04:59.000Z</time></trkpt>
      <trkpt lat="52.736984" lon="-1.349847"><ele>151.2</ele><time>2026-02-26T07:05:00.000Z</time></trkpt>
      <trkpt lat="52.736984" lon="-1.349837"><ele>151.2</ele><time>2026-02-26T07:05:01.000Z</time></trkpt>
      <trkpt lat="52.736984" lon="-1.349828"><ele>151.2</ele><time>2026-02-26T07:05:02.000Z</time></trkpt>
      <trkpt lat="52.736988" lon="-1.349822"><ele>151.2</ele><time>2026-02-26T07:05:03.000Z</time></trkpt>
      <trkpt lat="52.736990" lon="-1.349818"><ele>151.4</ele><time>2026-02-26T07:05:04.000Z</time></trkpt>
      <trkpt lat="52.736990" lon="-1.349813"><ele>151.4</ele><time>2026-02-26T07:05:05.000Z</time></trkpt>
      <trkpt lat="52.736996" lon="-1.349806"><ele>151.4</ele><time>2026-02-26T07:05:06.000Z</time></trkpt>
      <trkpt lat="52.737003" lon="-1.349801"><ele>151.6</ele><time>2026-02-26T07:05:07.000Z</time></trkpt>
      <trkpt lat="52.737007" lon="-1.349798"><ele>151.8</ele><time>2026-02-26T07:05:08.000Z</time></trkpt>
      <trkpt lat="52.737010" lon="-1.349797"><ele>151.8</ele><time>2026-02-26T07:05:09.000Z</time></trkpt>
      <trkpt lat="52.737010" lon="-1.349800"><ele>152.0</ele><time>2026-02-26T07:05:10.000Z</time></trkpt>
      <trkpt lat="52.737015" lon="-1.349804"><ele>152.2</ele><time>2026-02-26T07:05:11.000Z</time></trkpt>
      <trkpt lat="52.737020" lon="-1.349810"><ele>152.4</ele><time>2026-02-26T07:05:12.000Z</time></trkpt>
      <trkpt lat="52.737022" lon="-1.349817"><ele>152.6</ele><time>2026-02-26T07:05:13.000Z</time></trkpt>
      <trkpt lat="52.737022" lon="-1.349824"><ele>152.8</ele><time>2026-02-26T07:05:14.000Z</time></trkpt>
      <trkpt lat="52.737026" lon="-1.349832"><ele>153.0</ele><time>2026-02-26T07:05:15.000Z</time></trkpt>
      <trkpt lat="52.737030" lon="-1.349840"><ele>153.2</ele><time>2026-02-26T07:05:16.000Z</time></trkpt>
      <trkpt lat="52.737030" lon="-1.349848"><ele>153.2</ele><time>2026-02-26T07:05:17.000Z</time></trkpt>
      <trkpt lat="52.737030" lon="-1.349854"><ele>153.2</ele><time>2026-02-26T07:05:18.000Z</time></trkpt>
      <trkpt lat="52.737034" lon="-1.349859"><ele>153.0</ele><time>2026-02-26T07:05:19.000Z</time></trkpt>
      <trkpt lat="52.737034" lon="-1.349864"><ele>152.8</ele><time>2026-02-26T07:05:20.000Z</time></trkpt>
      <trkpt lat="52.737034" lon="-1.349867"><ele>152.4</ele><time>2026-02-26T07:05:21.000Z</time></trkpt>
      <trkpt lat="52.737038" lon="-1.349869"><ele>151.8</ele><time>2026-02-26T07:05:22.000Z</time></trkpt>
      <trkpt lat="52.737038" lon="-1.349869"><ele>151.2</ele><time>2026-02-26T07:05:23.000Z</time></trkpt>
      <trkpt lat="52.737038" lon="-1.349869"><ele>150.6</ele><time>2026-02-26T07:05:24.000Z</time></trkpt>
      <trkpt lat="52.737038" lon="-1.349868"><ele>150.0</ele><time>2026-02-26T07:05:25.000Z</time></trkpt>
      <trkpt lat="52.737038" lon="-1.349867"><ele>149.4</ele><time>2026-02-26T07:05:26.000Z</time></trkpt>
      <trkpt lat="52.737038" lon="-1.349868"><ele>148.8</ele><time>2026-02-26T07:05:27.000Z</time></trkpt>
      <trkpt lat="52.737038" lon="-1.349869"><ele>148.4</ele><time>2026-02-26T07:05:28.000Z</time></trkpt>
      <trkpt lat="52.737038" lon="-1.349871"><ele>148.0</ele><time>2026-02-26T07:05:29.000Z</time></trkpt>
      <trkpt lat="52.737038" lon="-1.349872"><ele>147.6</ele><time>2026-02-26T07:05:30.000Z</time></trkpt>
      <trkpt lat="52.737038" lon="-1.349873"><ele>147.4</ele><time>2026-02-26T07:05:31.000Z</time></trkpt>
      <trkpt lat="52.737038" lon="-1.349873"><ele>147.0</ele><time>2026-02-26T07:05:32.000Z</time></trkpt>
      <trkpt lat="52.737038" lon="-1.349873"><ele>146.6</ele><time>2026-02-26T07:05:33.000Z</time></trkpt>
      <trkpt lat="52.737038" lon="-1.349874"><ele>146.2</ele><time>2026-02-26T07:05:34.000Z</time></trkpt>
      <trkpt lat="52.737040" lon="-1.349875"><ele>145.8</ele><time>2026-02-26T07:05:35.000Z</time></trkpt>
      <trkpt lat="52.737040" lon="-1.349878"><ele>145.4</ele><time>2026-02-26T07:05:36.000Z</time></trkpt>
      <trkpt lat="52.737040" lon="-1.349880"><ele>144.8</ele><time>2026-02-26T07:05:37.000Z</time></trkpt>
    </trkseg>
  </trk>
</gpx>
