<?xml version="1.0" encoding="UTF-8"?>
<gpx version="1.1" creator="walkingwithember/fetch-intervals" xmlns="http://www.topografix.com/GPX/1/1">
  <metadata>
    <name>Hike</name>
    <time>2026-03-02T07:45:40.000Z</time>
  </metadata>
  <trk>
    <name>Hike</name>
    <trkseg>
      <trkpt lat="52.736908" lon="-1.349844"><ele>154.6</ele><time>2026-03-02T07:45:41.000Z</time></trkpt>
      <trkpt lat="52.736908" lon="-1.349844"><ele>154.6</ele><time>2026-03-02T07:45:42.000Z</time></trkpt>
      <trkpt lat="52.736908" lon="-1.349844"><ele>154.6</ele><time>2026-03-02T07:45:43.000Z</time></trkpt>
      <trkpt lat="52.736908" lon="-1.349844"><ele>154.6</ele><time>2026-03-02T07:45:44.000Z</time></trkpt>
      <trkpt lat="52.736908" lon="-1.349844"><ele>154.6</ele><time>2026-03-02T07:45:45.000Z</time></trkpt>
      <trkpt lat="52.736908" lon="-1.349848"><ele>154.2</ele><time>2026-03-02T07:45:46.000Z</time></trkpt>
      <trkpt lat="52.736904" lon="-1.349852"><ele>153.6</ele><time>2026-03-02T07:45:47.000Z</time></trkpt>
      <trkpt lat="52.736893" lon="-1.349859"><ele>153.2</ele><time>2026-03-02T07:45:48.000Z</time></trkpt>
      <trkpt lat="52.736893" lon="-1.349864"><ele>153.0</ele><time>2026-03-02T07:45:49.000Z</time></trkpt>
      <trkpt lat="52.736890" lon="-1.349866"><ele>152.8</ele><time>2026-03-02T07:45:50.000Z</time></trkpt>
      <trkpt lat="52.736890" lon="-1.349866"><ele>152.6</ele><time>2026-03-02T07:45:51.000Z</time></trkpt>
      <trkpt lat="52.736885" lon="-1.349867"><ele>152.4</ele><time>2026-03-02T07:45:52.000Z</time></trkpt>
      <trkpt lat="52.736885" lon="-1.349868"><ele>152.4</ele><time>2026-03-02T07:45:53.000Z</time></trkpt>
      <trkpt lat="52.736880" lon="-1.349870"><ele>152.4</ele><time>2026-03-02T07:45:54.000Z</time></trkpt>
      <trkpt lat="52.736874" lon="-1.349870"><ele>152.4</ele><time>2026-03-02T07:45:55.000Z</time></trkpt>
      <trkpt lat="52.736862" lon="-1.349872"><ele>152.4</ele><time>2026-03-02T07:45:56.000Z</time></trkpt>
      <trkpt lat="52.736847" lon="-1.349875"><ele>152.2</ele><time>2026-03-02T07:45:57.000Z</time></trkpt>
      <trkpt lat="52.736835" lon="-1.349878"><ele>152.2</ele><time>2026-03-02T07:45:58.000Z</time></trkpt>
      <trkpt lat="52.736828" lon="-1.349881"><ele>152.2</ele><time>2026-03-02T07:45:59.000Z</time></trkpt>
      <trkpt lat="52.736816" lon="-1.349884"><ele>152.2</ele><time>2026-03-02T07:46:00.000Z</time></trkpt>
      <trkpt lat="52.736805" lon="-1.349886"><ele>152.2</ele><time>2026-03-02T07:46:01.000Z</time></trkpt>
      <trkpt lat="52.736794" lon="-1.349889"><ele>152.2</ele><time>2026-03-02T07:46:02.000Z</time></trkpt>
      <trkpt lat="52.736782" lon="-1.349893"><ele>152.2</ele><time>2026-03-02T07:46:03.000Z</time></trkpt>
      <trkpt lat="52.736770" lon="-1.349896"><ele>152.2</ele><time>2026-03-02T07:46:04.000Z</time></trkpt>
      <trkpt lat="52.736760" lon="-1.349899"><ele>152.2</ele><time>2026-03-02T07:46:05.000Z</time></trkpt>
      <trkpt lat="52.736748" lon="-1.349904"><ele>152.2</ele><time>2026-03-02T07:46:06.000Z</time></trkpt>
      <trkpt lat="52.736736" lon="-1.349909"><ele>152.2</ele><time>2026-03-02T07:46:07.000Z</time></trkpt>
      <trkpt lat="52.736725" lon="-1.349917"><ele>152.0</ele><time>2026-03-02T07:46:08.000Z</time></trkpt>
      <trkpt lat="52.736713" lon="-1.349925"><ele>152.0</ele><time>2026-03-02T07:46:09.000Z</time></trkpt>
      <trkpt lat="52.736702" lon="-1.349933"><ele>152.0</ele><time>2026-03-02T07:46:10.000Z</time></trkpt>
      <trkpt lat="52.736690" lon="-1.349939"><ele>152.0</ele><time>2026-03-02T07:46:11.000Z</time></trkpt>
      <trkpt lat="52.736680" lon="-1.349942"><ele>151.8</ele><time>2026-03-02T07:46:12.000Z</time></trkpt>
      <trkpt lat="52.736668" lon="-1.349943"><ele>151.8</ele><time>2026-03-02T07:46:13.000Z</time></trkpt>
      <trkpt lat="52.736656" lon="-1.349941"><ele>151.8</ele><time>2026-03-02T07:46:14.000Z</time></trkpt>
      <trkpt lat="52.736645" lon="-1.349938"><ele>151.8</ele><time>2026-03-02T07:46:15.000Z</time></trkpt>
      <trkpt lat="52.736630" lon="-1.349935"><ele>151.8</ele><time>2026-03-02T07:46:16.000Z</time></trkpt>
      <trkpt lat="52.736620" lon="-1.349929"><ele>151.8</ele><time>2026-03-02T07:46:17.000Z</time></trkpt>
      <trkpt lat="52.736610" lon="-1.349920"><ele>151.8</ele><time>2026-03-02T07:46:18.000Z</time></trkpt>
      <trkpt lat="52.736600" lon="-1.349911"><ele>151.8</ele><time>2026-03-02T07:46:19.000Z</time></trkpt>
      <trkpt lat="52.736588" lon="-1.349902"><ele>151.8</ele><time>2026-03-02T07:46:20.000Z</time></trkpt>
      <trkpt lat="52.736576" lon="-1.349893"><ele>151.8</ele><time>2026-03-02T07:46:21.000Z</time></trkpt>
      <trkpt lat="52.736565" lon="-1.349883"><ele>151.8</ele><time>2026-03-02T07:46:22.000Z</time></trkpt>
      <trkpt lat="52.736557" lon="-1.349873"><ele>151.8</ele><time>2026-03-02T07:46:23.000Z</time></trkpt>
      <trkpt lat="52.736546" lon="-1.349863"><ele>151.8</ele><time>2026-03-02T07:46:24.000Z</time></trkpt>
      <trkpt lat="52.736538" lon="-1.349852"><ele>151.8</ele><time>2026-03-02T07:46:25.000Z</time></trkpt>
      <trkpt lat="52.736526" lon="-1.349840"><ele>151.8</ele><time>2026-03-02T07:46:26.000Z</time></trkpt>
      <trkpt lat="52.736520" lon="-1.349827"><ele>151.8</ele><time>2026-03-02T07:46:27.000Z</time></trkpt>
      <trkpt lat="52.736510" lon="-1.349813"><ele>151.8</ele><time>2026-03-02T07:46:28.000Z</time></trkpt>
      <trkpt lat="52.736504" lon="-1.349797"><ele>151.8</ele><time>2026-03-02T07:46:29.000Z</time></trkpt>
      <trkpt lat="52.736492" lon="-1.349781"><ele>151.8</ele><time>2026-03-02T07:46:30.000Z</time></trkpt>
      <trkpt lat="52.736485" lon="-1.349765"><ele>151.8</ele><time>2026-03-02T07:46:31.000Z</time></trkpt>
      <trkpt lat="52.736477" lon="-1.349750"><ele>151.8</ele><time>2026-03-02T07:46:32.000Z</time></trkpt>
      <trkpt lat="52.736465" lon="-1.349735"><ele>151.8</ele><time>2026-03-02T07:46:33.000Z</time></trkpt>
      <trkpt lat="52.736458" lon="-1.349721"><ele>151.8</ele><time>2026-03-02T07:46:34.000Z</time></trkpt>
      <trkpt lat="52.736450" lon="-1.349707"><ele>152.0</ele><time>2026-03-02T07:46:35.000Z</time></trkpt>
      <trkpt lat="52.736440" lon="-1.349694"><ele>152.0</ele><time>2026-03-02T07:46:36.000Z</time></trkpt>
      <trkpt lat="52.736430" lon="-1.349681"><ele>152.0</ele><time>2026-03-02T07:46:37.000Z</time></trkpt>
      <trkpt lat="52.736423" lon="-1.349667"><ele>152.0</ele><time>2026-03-02T07:46:38.000Z</time></trkpt>
      <trkpt lat="52.736416" lon="-1.349655"><ele>152.0</ele><time>2026-03-02T07:46:39.000Z</time></trkpt>
      <trkpt lat="52.736410" lon="-1.349644"><ele>152.0</ele><time>2026-03-02T07:46:40.000Z</time></trkpt>
      <trkpt lat="52.736400" lon="-1.349634"><ele>152.2</ele><time>2026-03-02T07:46:41.000Z</time></trkpt>
      <trkpt lat="52.736393" lon="-1.349624"><ele>152.2</ele><time>2026-03-02T07:46:42.000Z</time></trkpt>
      <trkpt lat="52.736380" lon="-1.349614"><ele>152.2</ele><time>2026-03-02T07:46:43.000Z</time></trkpt>
      <trkpt lat="52.736370" lon="-1.349603"><ele>152.2</ele><time>2026-03-02T07:46:44.000Z</time></trkpt>
      <trkpt lat="52.736360" lon="-1.349593"><ele>152.2</ele><time>2026-03-02T07:46:45.000Z</time></trkpt>
      <trkpt lat="52.736347" lon="-1.349584"><ele>152.2</ele><time>2026-03-02T07:46:46.000Z</time></trkpt>
      <trkpt lat="52.736336" lon="-1.349576"><ele>152.2</ele><time>2026-03-02T07:46:47.000Z</time></trkpt>
      <trkpt lat="52.736324" lon="-1.349570"><ele>152.2</ele><time>2026-03-02T07:46:48.000Z</time></trkpt>
      <trkpt lat="52.736310" lon="-1.349564"><ele>152.2</ele><time>2026-03-02T07:46:49.000Z</time></trkpt>
      <trkpt lat="52.736298" lon="-1.349558"><ele>152.2</ele><time>2026-03-02T07:46:50.000Z</time></trkpt>
      <trkpt lat="52.736286" lon="-1.349554"><ele>152.4</ele><time>2026-03-02T07:46:51.000Z</time></trkpt>
      <trkpt lat="52.736270" lon="-1.349551"><ele>152.4</ele><time>2026-03-02T07:46:52.000Z</time></trkpt>
      <trkpt lat="52.736260" lon="-1.349551"><ele>152.4</ele><time>2026-03-02T07:46:53.000Z</time></trkpt>
      <trkpt lat="52.736244" lon="-1.349554"><ele>152.4</ele><time>2026-03-02T07:46:54.000Z</time></trkpt>
      <trkpt lat="52.736233" lon="-1.349557"><ele>152.4</ele><time>2026-03-02T07:46:55.000Z</time></trkpt>
      <trkpt lat="52.736220" lon="-1.349562"><ele>152.4</ele><time>2026-03-02T07:46:56.000Z</time></trkpt>
      <trkpt lat="52.736210" lon="-1.349567"><ele>152.4</ele><time>2026-03-02T07:46:57.000Z</time></trkpt>
      <trkpt lat="52.736200" lon="-1.349572"><ele>152.4</ele><time>2026-03-02T07:46:58.000Z</time></trkpt>
      <trkpt lat="52.736187" lon="-1.349575"><ele>152.4</ele><time>2026-03-02T07:46:59.000Z</time></trkpt>
      <trkpt lat="52.736176" lon="-1.349577"><ele>152.4</ele><time>2026-03-02T07:47:00.000Z</time></trkpt>
      <trkpt lat="52.736164" lon="-1.349577"><ele>152.4</ele><time>2026-03-02T07:47:01.000Z</time></trkpt>
      <trkpt lat="52.736153" lon="-1.349574"><ele>152.4</ele><time>2026-03-02T07:47:02.000Z</time></trkpt>
      <trkpt lat="52.736145" lon="-1.349569"><ele>152.4</ele><time>2026-03-02T07:47:03.000Z</time></trkpt>
      <trkpt lat="52.736134" lon="-1.349563"><ele>152.4</ele><time>2026-03-02T07:47:04.000Z</time></trkpt>
      <trkpt lat="52.736126" lon="-1.349556"><ele>152.2</ele><time>2026-03-02T07:47:05.000Z</time></trkpt>
      <trkpt lat="52.736122" lon="-1.349548"><ele>152.2</ele><time>2026-03-02T07:47:06.000Z</time></trkpt>
      <trkpt lat="52.736115" lon="-1.349539"><ele>152.2</ele><time>2026-03-02T07:47:07.000Z</time></trkpt>
      <trkpt lat="52.736110" lon="-1.349528"><ele>152.2</ele><time>2026-03-02T07:47:08.000Z</time></trkpt>
      <trkpt lat="52.736107" lon="-1.349516"><ele>152.0</ele><time>2026-03-02T07:47:09.000Z</time></trkpt>
      <trkpt lat="52.736100" lon="-1.349506"><ele>152.0</ele><time>2026-03-02T07:47:10.000Z</time></trkpt>
      <trkpt lat="52.736095" lon="-1.349497"><ele>152.0</ele><time>2026-03-02T07:47:11.000Z</time></trkpt>
      <trkpt lat="52.736088" lon="-1.349488"><ele>151.8</ele><time>2026-03-02T07:47:12.000Z</time></trkpt>
      <trkpt lat="52.736076" lon="-1.349478"><ele>151.8</ele><time>2026-03-02T07:47:13.000Z</time></trkpt>
      <trkpt lat="52.736070" lon="-1.349466"><ele>151.8</ele><time>2026-03-02T07:47:14.000Z</time></trkpt>
      <trkpt lat="52.736060" lon="-1.349453"><ele>151.8</ele><time>2026-03-02T07:47:15.000Z</time></trkpt>
      <trkpt lat="52.736057" lon="-1.349440"><ele>151.8</ele><time>2026-03-02T07:47:16.000Z</time></trkpt>
      <trkpt lat="52.736053" lon="-1.349428"><ele>151.8</ele><time>2026-03-02T07:47:17.000Z</time></trkpt>
      <trkpt lat="52.736050" lon="-1.349413"><ele>151.8</ele><time>2026-03-02T07:47:18.000Z</time></trkpt>
      <trkpt lat="52.736046" lon="-1.349398"><ele>151.8</ele><time>2026-03-02T07:47:19.000Z</time></trkpt>
      <trkpt lat="52.736046" lon="-1.349381"><ele>151.8</ele><time>2026-03-02T07:47:20.000Z</time></trkpt>
      <trkpt lat="52.736042" lon="-1.349365"><ele>151.8</ele><time>2026-03-02T07:47:21.000Z</time></trkpt>
      <trkpt lat="52.736040" lon="-1.349348"><ele>151.8</ele><time>2026-03-02T07:47:22.000Z</time></trkpt>
      <trkpt lat="52.736040" lon="-1.349329"><ele>152.0</ele><time>2026-03-02T07:47:23.000Z</time></trkpt>
      <trkpt lat="52.736034" lon="-1.349310"><ele>152.0</ele><time>2026-03-02T07:47:24.000Z</time></trkpt>
      <trkpt lat="52.736030" lon="-1.349292"><ele>152.0</ele><time>2026-03-02T07:47:25.000Z</time></trkpt>
      <trkpt lat="52.736027" lon="-1.349276"><ele>152.0</ele><time>2026-03-02T07:47:26.000Z</time></trkpt>
      <trkpt lat="52.736023" lon="-1.349260"><ele>152.2</ele><time>2026-03-02T07:47:27.000Z</time></trkpt>
      <trkpt lat="52.736020" lon="-1.349243"><ele>152.2</ele><time>2026-03-02T07:47:28.000Z</time></trkpt>
      <trkpt lat="52.736015" lon="-1.349225"><ele>152.2</ele><time>2026-03-02T07:47:29.000Z</time></trkpt>
      <trkpt lat="52.736010" lon="-1.349208"><ele>152.2</ele><time>2026-03-02T07:47:30.000Z</time></trkpt>
      <trkpt lat="52.736008" lon="-1.349191"><ele>152.2</ele><time>2026-03-02T07:47:31.000Z</time></trkpt>
      <trkpt lat="52.736004" lon="-1.349173"><ele>152.2</ele><time>2026-03-02T07:47:32.000Z</time></trkpt>
      <trkpt lat="52.736000" lon="-1.349156"><ele>152.2</ele><time>2026-03-02T07:47:33.000Z</time></trkpt>
      <trkpt lat="52.735996" lon="-1.349138"><ele>152.2</ele><time>2026-03-02T07:47:34.000Z</time></trkpt>
      <trkpt lat="52.735990" lon="-1.349121"><ele>152.2</ele><time>2026-03-02T07:47:35.000Z</time></trkpt>
      <trkpt lat="52.735985" lon="-1.349104"><ele>152.2</ele><time>2026-03-02T07:47:36.000Z</time></trkpt>
      <trkpt lat="52.735980" lon="-1.349088"><ele>152.2</ele><time>2026-03-02T07:47:37.000Z</time></trkpt>
      <trkpt lat="52.735973" lon="-1.349072"><ele>152.2</ele><time>2026-03-02T07:47:38.000Z</time></trkpt>
      <trkpt lat="52.735970" lon="-1.349056"><ele>152.0</ele><time>2026-03-02T07:47:39.000Z</time></trkpt>
      <trkpt lat="52.735966" lon="-1.349039"><ele>152.0</ele><time>2026-03-02T07:47:40.000Z</time></trkpt>
      <trkpt lat="52.735960" lon="-1.349022"><ele>152.0</ele><time>2026-03-02T07:47:41.000Z</time></trkpt>
      <trkpt lat="52.735954" lon="-1.349007"><ele>152.0</ele><time>2026-03-02T07:47:42.000Z</time></trkpt>
      <trkpt lat="52.735950" lon="-1.348991"><ele>152.0</ele><time>2026-03-02T07:47:43.000Z</time></trkpt>
      <trkpt lat="52.735947" lon="-1.348975"><ele>152.0</ele><time>2026-03-02T07:47:44.000Z</time></trkpt>
      <trkpt lat="52.735940" lon="-1.348958"><ele>152.0</ele><time>2026-03-02T07:47:45.000Z</time></trkpt>
      <trkpt lat="52.735930" lon="-1.348942"><ele>152.0</ele><time>2026-03-02T07:47:46.000Z</time></trkpt>
      <trkpt lat="52.735924" lon="-1.348927"><ele>152.2</ele><time>2026-03-02T07:47:47.000Z</time></trkpt>
      <trkpt lat="52.735912" lon="-1.348911"><ele>152.2</ele><time>2026-03-02T07:47:48.000Z</time></trkpt>
      <trkpt lat="52.735900" lon="-1.348896"><ele>152.2</ele><time>2026-03-02T07:47:49.000Z</time></trkpt>
      <trkpt lat="52.735890" lon="-1.348882"><ele>152.2</ele><time>2026-03-02T07:47:50.000Z</time></trkpt>
      <trkpt lat="52.735878" lon="-1.348870"><ele>152.4</ele><time>2026-03-02T07:47:51.000Z</time></trkpt>
      <trkpt lat="52.735870" lon="-1.348858"><ele>152.4</ele><time>2026-03-02T07:47:52.000Z</time></trkpt>
      <trkpt lat="52.735863" lon="-1.348847"><ele>152.4</ele><time>2026-03-02T07:47:53.000Z</time></trkpt>
      <trkpt lat="52.735850" lon="-1.348834"><ele>152.4</ele><time>2026-03-02T07:47:54.000Z</time></trkpt>
      <trkpt lat="52.735844" lon="-1.348821"><ele>152.6</ele><time>2026-03-02T07:47:55.000Z</time></trkpt>
      <trkpt lat="52.735836" lon="-1.348806"><ele>152.6</ele><time>2026-03-02T07:47:56.000Z</time></trkpt>
      <trkpt lat="52.735830" lon="-1.348791"><ele>152.6</ele><time>2026-03-02T07:47:57.000Z</time></trkpt>
      <trkpt lat="52.735820" lon="-1.348779"><ele>152.6</ele><time>2026-03-02T07:47:58.000Z</time></trkpt>
      <trkpt lat="52.735813" lon="-1.348770"><ele>152.6</ele><time>2026-03-02T07:47:59.000Z</time></trkpt>
      <trkpt lat="52.735810" lon="-1.348762"><ele>152.6</ele><time>2026-03-02T07:48:00.000Z</time></trkpt>
      <trkpt lat="52.735800" lon="-1.348756"><ele>152.6</ele><time>2026-03-02T07:48:01.000Z</time></trkpt>
      <trkpt lat="52.735794" lon="-1.348750"><ele>152.6</ele><time>2026-03-02T07:48:02.000Z</time></trkpt>
      <trkpt lat="52.735790" lon="-1.348746"><ele>152.6</ele><time>2026-03-02T07:48:03.000Z</time></trkpt>
      <trkpt lat="52.735786" lon="-1.348743"><ele>152.6</ele><time>2026-03-02T07:48:04.000Z</time></trkpt>
      <trkpt lat="52.735786" lon="-1.348741"><ele>152.6</ele><time>2026-03-02T07:48:05.000Z</time></trkpt>
      <trkpt lat="52.735786" lon="-1.348739"><ele>152.6</ele><time>2026-03-02T07:48:06.000Z</time></trkpt>
      <trkpt lat="52.735783" lon="-1.348738"><ele>152.6</ele><time>2026-03-02T07:48:07.000Z</time></trkpt>
      <trkpt lat="52.735783" lon="-1.348737"><ele>152.6</ele><time>2026-03-02T07:48:08.000Z</time></trkpt>
      <trkpt lat="52.735783" lon="-1.348735"><ele>152.6</ele><time>2026-03-02T07:48:09.000Z</time></trkpt>
      <trkpt lat="52.735783" lon="-1.348732"><ele>152.6</ele><time>2026-03-02T07:48:10.000Z</time></trkpt>
      <trkpt lat="52.735783" lon="-1.348728"><ele>152.6</ele><time>2026-03-02T07:48:11.000Z</time></trkpt>
      <trkpt lat="52.735780" lon="-1.348723"><ele>152.6</ele><time>2026-03-02T07:48:12.000Z</time></trkpt>
      <trkpt lat="52.735775" lon="-1.348714"><ele>152.6</ele><time>2026-03-02T07:48:13.000Z</time></trkpt>
      <trkpt lat="52.735767" lon="-1.348703"><ele>152.6</ele><time>2026-03-02T07:48:14.000Z</time></trkpt>
      <trkpt lat="52.735764" lon="-1.348690"><ele>152.6</ele><time>2026-03-02T07:48:15.000Z</time></trkpt>
      <trkpt lat="52.735760" lon="-1.348677"><ele>152.6</ele><time>2026-03-02T07:48:16.000Z</time></trkpt>
      <trkpt lat="52.735756" lon="-1.348662"><ele>152.6</ele><time>2026-03-02T07:48:17.000Z</time></trkpt>
      <trkpt lat="52.735752" lon="-1.348647"><ele>152.8</ele><time>2026-03-02T07:48:18.000Z</time></trkpt>
      <trkpt lat="52.735750" lon="-1.348630"><ele>152.8</ele><time>2026-03-02T07:48:19.000Z</time></trkpt>
      <trkpt lat="52.735744" lon="-1.348614"><ele>152.8</ele><time>2026-03-02T07:48:20.000Z</time></trkpt>
      <trkpt lat="52.735740" lon="-1.348597"><ele>153.0</ele><time>2026-03-02T07:48:21.000Z</time></trkpt>
      <trkpt lat="52.735733" lon="-1.348582"><ele>153.0</ele><time>2026-03-02T07:48:22.000Z</time></trkpt>
      <trkpt lat="52.735725" lon="-1.348567"><ele>153.2</ele><time>2026-03-02T07:48:23.000Z</time></trkpt>
      <trkpt lat="52.735714" lon="-1.348553"><ele>153.2</ele><time>2026-03-02T07:48:24.000Z</time></trkpt>
      <trkpt lat="52.735703" lon="-1.348539"><ele>153.4</ele><time>2026-03-02T07:48:25.000Z</time></trkpt>
      <trkpt lat="52.735695" lon="-1.348526"><ele>153.4</ele><time>2026-03-02T07:48:26.000Z</time></trkpt>
      <trkpt lat="52.735687" lon="-1.348513"><ele>153.6</ele><time>2026-03-02T07:48:27.000Z</time></trkpt>
      <trkpt lat="52.735680" lon="-1.348500"><ele>153.8</ele><time>2026-03-02T07:48:28.000Z</time></trkpt>
      <trkpt lat="52.735672" lon="-1.348486"><ele>153.8</ele><time>2026-03-02T07:48:29.000Z</time></trkpt>
      <trkpt lat="52.735670" lon="-1.348472"><ele>154.0</ele><time>2026-03-02T07:48:30.000Z</time></trkpt>
      <trkpt lat="52.735657" lon="-1.348458"><ele>154.0</ele><time>2026-03-02T07:48:31.000Z</time></trkpt>
      <trkpt lat="52.735650" lon="-1.348442"><ele>154.2</ele><time>2026-03-02T07:48:32.000Z</time></trkpt>
      <trkpt lat="52.735640" lon="-1.348427"><ele>154.2</ele><time>2026-03-02T07:48:33.000Z</time></trkpt>
      <trkpt lat="52.735634" lon="-1.348413"><ele>154.2</ele><time>2026-03-02T07:48:34.000Z</time></trkpt>
      <trkpt lat="52.735626" lon="-1.348399"><ele>154.2</ele><time>2026-03-02T07:48:35.000Z</time></trkpt>
      <trkpt lat="52.735620" lon="-1.348385"><ele>154.4</ele><time>2026-03-02T07:48:36.000Z</time></trkpt>
      <trkpt lat="52.735610" lon="-1.348371"><ele>154.4</ele><time>2026-03-02T07:48:37.000Z</time></trkpt>
      <trkpt lat="52.735610" lon="-1.348357"><ele>154.4</ele><time>2026-03-02T07:48:38.000Z</time></trkpt>
      <trkpt lat="52.735607" lon="-1.348342"><ele>154.4</ele><time>2026-03-02T07:48:39.000Z</time></trkpt>
      <trkpt lat="52.735607" lon="-1.348324"><ele>154.4</ele><time>2026-03-02T07:48:40.000Z</time></trkpt>
      <trkpt lat="52.735607" lon="-1.348304"><ele>154.4</ele><time>2026-03-02T07:48:41.000Z</time></trkpt>
      <trkpt lat="52.735607" lon="-1.348286"><ele>154.6</ele><time>2026-03-02T07:48:42.000Z</time></trkpt>
      <trkpt lat="52.735603" lon="-1.348268"><ele>154.6</ele><time>2026-03-02T07:48:43.000Z</time></trkpt>
      <trkpt lat="52.735603" lon="-1.348249"><ele>154.6</ele><time>2026-03-02T07:48:44.000Z</time></trkpt>
      <trkpt lat="52.735600" lon="-1.348229"><ele>154.8</ele><time>2026-03-02T07:48:45.000Z</time></trkpt>
      <trkpt lat="52.735596" lon="-1.348209"><ele>155.0</ele><time>2026-03-02T07:48:46.000Z</time></trkpt>
      <trkpt lat="52.735588" lon="-1.348189"><ele>155.0</ele><time>2026-03-02T07:48:47.000Z</time></trkpt>
      <trkpt lat="52.735584" lon="-1.348172"><ele>155.2</ele><time>2026-03-02T07:48:48.000Z</time></trkpt>
      <trkpt lat="52.735577" lon="-1.348157"><ele>155.2</ele><time>2026-03-02T07:48:49.000Z</time></trkpt>
      <trkpt lat="52.735570" lon="-1.348144"><ele>155.4</ele><time>2026-03-02T07:48:50.000Z</time></trkpt>
      <trkpt lat="52.735560" lon="-1.348131"><ele>155.4</ele><time>2026-03-02T07:48:51.000Z</time></trkpt>
      <trkpt lat="52.735554" lon="-1.348119"><ele>155.4</ele><time>2026-03-02T07:48:52.000Z</time></trkpt>
      <trkpt lat="52.735546" lon="-1.348107"><ele>155.4</ele><time>2026-03-02T07:48:53.000Z</time></trkpt>
      <trkpt lat="52.735540" lon="-1.348096"><ele>155.4</ele><time>2026-03-02T07:48:54.000Z</time></trkpt>
      <trkpt lat="52.735530" lon="-1.348086"><ele>155.4</ele><time>2026-03-02T07:48:55.000Z</time></trkpt>
      <trkpt lat="52.735520" lon="-1.348075"><ele>155.2</ele><time>2026-03-02T07:48:56.000Z</time></trkpt>
      <trkpt lat="52.735510" lon="-1.348063"><ele>155.2</ele><time>2026-03-02T07:48:57.000Z</time></trkpt>
      <trkpt lat="52.735508" lon="-1.348049"><ele>155.2</ele><time>2026-03-02T07:48:58.000Z</time></trkpt>
      <trkpt lat="52.735500" lon="-1.348035"><ele>155.0</ele><time>2026-03-02T07:48:59.000Z</time></trkpt>
      <trkpt lat="52.735493" lon="-1.348020"><ele>155.0</ele><time>2026-03-02T07:49:00.000Z</time></trkpt>
      <trkpt lat="52.735485" lon="-1.348005"><ele>154.8</ele><time>2026-03-02T07:49:01.000Z</time></trkpt>
      <trkpt lat="52.735480" lon="-1.347990"><ele>154.8</ele><time>2026-03-02T07:49:02.000Z</time></trkpt>
      <trkpt lat="52.735474" lon="-1.347978"><ele>154.6</ele><time>2026-03-02T07:49:03.000Z</time></trkpt>
      <trkpt lat="52.735466" lon="-1.347969"><ele>154.6</ele><time>2026-03-02T07:49:04.000Z</time></trkpt>
      <trkpt lat="52.735460" lon="-1.347962"><ele>154.6</ele><time>2026-03-02T07:49:05.000Z</time></trkpt>
      <trkpt lat="52.735455" lon="-1.347953"><ele>154.4</ele><time>2026-03-02T07:49:06.000Z</time></trkpt>
      <trkpt lat="52.735447" lon="-1.347942"><ele>154.4</ele><time>2026-03-02T07:49:07.000Z</time></trkpt>
      <trkpt lat="52.735443" lon="-1.347928"><ele>154.4</ele><time>2026-03-02T07:49:08.000Z</time></trkpt>
      <trkpt lat="52.735443" lon="-1.347911"><ele>154.4</ele><time>2026-03-02T07:49:09.000Z</time></trkpt>
      <trkpt lat="52.735443" lon="-1.347893"><ele>154.4</ele><time>2026-03-02T07:49:10.000Z</time></trkpt>
      <trkpt lat="52.735447" lon="-1.347874"><ele>154.4</ele><time>2026-03-02T07:49:11.000Z</time></trkpt>
      <trkpt lat="52.735447" lon="-1.347856"><ele>154.4</ele><time>2026-03-02T07:49:12.000Z</time></trkpt>
      <trkpt lat="52.735450" lon="-1.347838"><ele>154.4</ele><time>2026-03-02T07:49:13.000Z</time></trkpt>
      <trkpt lat="52.735450" lon="-1.347818"><ele>154.6</ele><time>2026-03-02T07:49:14.000Z</time></trkpt>
      <trkpt lat="52.735450" lon="-1.347798"><ele>154.6</ele><time>2026-03-02T07:49:15.000Z</time></trkpt>
      <trkpt lat="52.735455" lon="-1.347779"><ele>154.6</ele><time>2026-03-02T07:49:16.000Z</time></trkpt>
      <trkpt lat="52.735455" lon="-1.347760"><ele>154.8</ele><time>2026-03-02T07:49:17.000Z</time></trkpt>
      <trkpt lat="52.735455" lon="-1.347742"><ele>154.8</ele><time>2026-03-02T07:49:18.000Z</time></trkpt>
      <trkpt lat="52.735450" lon="-1.347725"><ele>155.0</ele><time>2026-03-02T07:49:19.000Z</time></trkpt>
      <trkpt lat="52.735447" lon="-1.347709"><ele>155.0</ele><time>2026-03-02T07:49:20.000Z</time></trkpt>
      <trkpt lat="52.735443" lon="-1.347692"><ele>155.2</ele><time>2026-03-02T07:49:21.000Z</time></trkpt>
      <trkpt lat="52.735435" lon="-1.347675"><ele>155.2</ele><time>2026-03-02T07:49:22.000Z</time></trkpt>
      <trkpt lat="52.735428" lon="-1.347657"><ele>155.4</ele><time>2026-03-02T07:49:23.000Z</time></trkpt>
      <trkpt lat="52.735420" lon="-1.347639"><ele>155.4</ele><time>2026-03-02T07:49:24.000Z</time></trkpt>
      <trkpt lat="52.735413" lon="-1.347623"><ele>155.6</ele><time>2026-03-02T07:49:25.000Z</time></trkpt>
      <trkpt lat="52.735405" lon="-1.347607"><ele>155.6</ele><time>2026-03-02T07:49:26.000Z</time></trkpt>
      <trkpt lat="52.735397" lon="-1.347591"><ele>155.6</ele><time>2026-03-02T07:49:27.000Z</time></trkpt>
      <trkpt lat="52.735390" lon="-1.347576"><ele>155.6</ele><time>2026-03-02T07:49:28.000Z</time></trkpt>
      <trkpt lat="52.735382" lon="-1.347563"><ele>155.8</ele><time>2026-03-02T07:49:29.000Z</time></trkpt>
      <trkpt lat="52.735380" lon="-1.347552"><ele>155.8</ele><time>2026-03-02T07:49:30.000Z</time></trkpt>
      <trkpt lat="52.735374" lon="-1.347543"><ele>155.8</ele><time>2026-03-02T07:49:31.000Z</time></trkpt>
      <trkpt lat="52.735370" lon="-1.347533"><ele>155.6</ele><time>2026-03-02T07:49:32.000Z</time></trkpt>
      <trkpt lat="52.735367" lon="-1.347522"><ele>155.6</ele><time>2026-03-02T07:49:33.000Z</time></trkpt>
      <trkpt lat="52.735363" lon="-1.347509"><ele>155.6</ele><time>2026-03-02T07:49:34.000Z</time></trkpt>
      <trkpt lat="52.735355" lon="-1.347499"><ele>155.6</ele><time>2026-03-02T07:49:35.000Z</time></trkpt>
      <trkpt lat="52.735350" lon="-1.347491"><ele>155.6</ele><time>2026-03-02T07:49:36.000Z</time></trkpt>
      <trkpt lat="52.735348" lon="-1.347486"><ele>155.6</ele><time>2026-03-02T07:49:37.000Z</time></trkpt>
      <trkpt lat="52.735348" lon="-1.347483"><ele>155.6</ele><time>2026-03-02T07:49:38.000Z</time></trkpt>
      <trkpt lat="52.735344" lon="-1.347480"><ele>155.8</ele><time>2026-03-02T07:49:39.000Z</time></trkpt>
      <trkpt lat="52.735344" lon="-1.347478"><ele>155.8</ele><time>2026-03-02T07:49:40.000Z</time></trkpt>
      <trkpt lat="52.735340" lon="-1.347474"><ele>155.8</ele><time>2026-03-02T07:49:41.000Z</time></trkpt>
      <trkpt lat="52.735332" lon="-1.347469"><ele>155.8</ele><time>2026-03-02T07:49:42.000Z</time></trkpt>
      <trkpt lat="52.735325" lon="-1.347464"><ele>155.8</ele><time>2026-03-02T07:49:43.000Z</time></trkpt>
      <trkpt lat="52.735320" lon="-1.347460"><ele>155.8</ele><time>2026-03-02T07:49:44.000Z</time></trkpt>
      <trkpt lat="52.735317" lon="-1.347455"><ele>155.8</ele><time>2026-03-02T07:49:45.000Z</time></trkpt>
      <trkpt lat="52.735313" lon="-1.347448"><ele>155.8</ele><time>2026-03-02T07:49:46.000Z</time></trkpt>
      <trkpt lat="52.735306" lon="-1.347441"><ele>156.0</ele><time>2026-03-02T07:49:47.000Z</time></trkpt>
      <trkpt lat="52.735306" lon="-1.347435"><ele>156.0</ele><time>2026-03-02T07:49:48.000Z</time></trkpt>
      <trkpt lat="52.735302" lon="-1.347430"><ele>156.0</ele><time>2026-03-02T07:49:49.000Z</time></trkpt>
      <trkpt lat="52.735302" lon="-1.347426"><ele>156.0</ele><time>2026-03-02T07:49:50.000Z</time></trkpt>
      <trkpt lat="52.735300" lon="-1.347421"><ele>156.0</ele><time>2026-03-02T07:49:51.000Z</time></trkpt>
      <trkpt lat="52.735294" lon="-1.347415"><ele>156.0</ele><time>2026-03-02T07:49:52.000Z</time></trkpt>
      <trkpt lat="52.735290" lon="-1.347407"><ele>156.2</ele><time>2026-03-02T07:49:53.000Z</time></trkpt>
      <trkpt lat="52.735283" lon="-1.347398"><ele>156.2</ele><time>2026-03-02T07:49:54.000Z</time></trkpt>
      <trkpt lat="52.735275" lon="-1.347387"><ele>156.2</ele><time>2026-03-02T07:49:55.000Z</time></trkpt>
      <trkpt lat="52.735264" lon="-1.347375"><ele>156.2</ele><time>2026-03-02T07:49:56.000Z</time></trkpt>
      <trkpt lat="52.735256" lon="-1.347363"><ele>156.4</ele><time>2026-03-02T07:49:57.000Z</time></trkpt>
      <trkpt lat="52.735250" lon="-1.347350"><ele>156.4</ele><time>2026-03-02T07:49:58.000Z</time></trkpt>
      <trkpt lat="52.735245" lon="-1.347337"><ele>156.4</ele><time>2026-03-02T07:49:59.000Z</time></trkpt>
      <trkpt lat="52.735237" lon="-1.347325"><ele>156.6</ele><time>2026-03-02T07:50:00.000Z</time></trkpt>
      <trkpt lat="52.735233" lon="-1.347312"><ele>156.6</ele><time>2026-03-02T07:50:01.000Z</time></trkpt>
      <trkpt lat="52.735226" lon="-1.347299"><ele>156.6</ele><time>2026-03-02T07:50:02.000Z</time></trkpt>
      <trkpt lat="52.735220" lon="-1.347287"><ele>156.6</ele><time>2026-03-02T07:50:03.000Z</time></trkpt>
      <trkpt lat="52.735214" lon="-1.347274"><ele>156.8</ele><time>2026-03-02T07:50:04.000Z</time></trkpt>
      <trkpt lat="52.735207" lon="-1.347264"><ele>156.8</ele><time>2026-03-02T07:50:05.000Z</time></trkpt>
      <trkpt lat="52.735203" lon="-1.347255"><ele>156.8</ele><time>2026-03-02T07:50:06.000Z</time></trkpt>
      <trkpt lat="52.735200" lon="-1.347246"><ele>156.8</ele><time>2026-03-02T07:50:07.000Z</time></trkpt>
      <trkpt lat="52.735195" lon="-1.347239"><ele>157.0</ele><time>2026-03-02T07:50:08.000Z</time></trkpt>
      <trkpt lat="52.735195" lon="-1.347234"><ele>157.0</ele><time>2026-03-02T07:50:09.000Z</time></trkpt>
      <trkpt lat="52.735195" lon="-1.347232"><ele>157.0</ele><time>2026-03-02T07:50:10.000Z</time></trkpt>
      <trkpt lat="52.735195" lon="-1.347231"><ele>157.0</ele><time>2026-03-02T07:50:11.000Z</time></trkpt>
      <trkpt lat="52.735195" lon="-1.347231"><ele>157.0</ele><time>2026-03-02T07:50:12.000Z</time></trkpt>
      <trkpt lat="52.735190" lon="-1.347231"><ele>157.0</ele><time>2026-03-02T07:50:13.000Z</time></trkpt>
      <trkpt lat="52.735190" lon="-1.347231"><ele>157.0</ele><time>2026-03-02T07:50:14.000Z</time></trkpt>
      <trkpt lat="52.735190" lon="-1.347233"><ele>157.0</ele><time>2026-03-02T07:50:15.000Z</time></trkpt>
      <trkpt lat="52.735190" lon="-1.347234"><ele>157.0</ele><time>2026-03-02T07:50:16.000Z</time></trkpt>
      <trkpt lat="52.735190" lon="-1.347235"><ele>157.0</ele><time>2026-03-02T07:50:17.000Z</time></trkpt>
      <trkpt lat="52.735190" lon="-1.347236"><ele>157.0</ele><time>2026-03-02T07:50:18.000Z</time></trkpt>
      <trkpt lat="52.735190" lon="-1.347236"><ele>157.0</ele><time>2026-03-02T07:50:19.000Z</time></trkpt>
      <trkpt lat="52.735190" lon="-1.347237"><ele>157.0</ele><time>2026-03-02T07:50:20.000Z</time></trkpt>
      <trkpt lat="52.735190" lon="-1.347238"><ele>157.0</ele><time>2026-03-02T07:50:21.000Z</time></trkpt>
      <trkpt lat="52.735190" lon="-1.347238"><ele>157.0</ele><time>2026-03-02T07:50:22.000Z</time></trkpt>
      <trkpt lat="52.735190" lon="-1.347238"><ele>157.0</ele><time>2026-03-02T07:50:23.000Z</time></trkpt>
      <trkpt lat="52.735190" lon="-1.347238"><ele>157.0</ele><time>2026-03-02T07:50:24.000Z</time></trkpt>
      <trkpt lat="52.735190" lon="-1.347237"><ele>157.0</ele><time>2026-03-02T07:50:25.000Z</time></trkpt>
      <trkpt lat="52.735190" lon="-1.347235"><ele>157.0</ele><time>2026-03-02T07:50:26.000Z</time></trkpt>
      <trkpt lat="52.735190" lon="-1.347231"><ele>157.0</ele><time>2026-03-02T07:50:27.000Z</time></trkpt>
      <trkpt lat="52.735188" lon="-1.347225"><ele>157.0</ele><time>2026-03-02T07:50:28.000Z</time></trkpt>
      <trkpt lat="52.735184" lon="-1.347214"><ele>157.2</ele><time>2026-03-02T07:50:29.000Z</time></trkpt>
      <trkpt lat="52.735176" lon="-1.347202"><ele>157.2</ele><time>2026-03-02T07:50:30.000Z</time></trkpt>
      <trkpt lat="52.735172" lon="-1.347188"><ele>157.2</ele><time>2026-03-02T07:50:31.000Z</time></trkpt>
      <trkpt lat="52.735165" lon="-1.347174"><ele>157.2</ele><time>2026-03-02T07:50:32.000Z</time></trkpt>
      <trkpt lat="52.735157" lon="-1.347160"><ele>157.2</ele><time>2026-03-02T07:50:33.000Z</time></trkpt>
      <trkpt lat="52.735150" lon="-1.347145"><ele>157.2</ele><time>2026-03-02T07:50:34.000Z</time></trkpt>
      <trkpt lat="52.735140" lon="-1.347131"><ele>157.2</ele><time>2026-03-02T07:50:35.000Z</time></trkpt>
      <trkpt lat="52.735134" lon="-1.347118"><ele>157.2</ele><time>2026-03-02T07:50:36.000Z</time></trkpt>
      <trkpt lat="52.735126" lon="-1.347106"><ele>157.2</ele><time>2026-03-02T07:50:37.000Z</time></trkpt>
      <trkpt lat="52.735123" lon="-1.347094"><ele>157.2</ele><time>2026-03-02T07:50:38.000Z</time></trkpt>
      <trkpt lat="52.735115" lon="-1.347082"><ele>157.2</ele><time>2026-03-02T07:50:39.000Z</time></trkpt>
      <trkpt lat="52.735107" lon="-1.347072"><ele>157.2</ele><time>2026-03-02T07:50:40.000Z</time></trkpt>
      <trkpt lat="52.735104" lon="-1.347062"><ele>157.2</ele><time>2026-03-02T07:50:41.000Z</time></trkpt>
      <trkpt lat="52.735096" lon="-1.347053"><ele>157.4</ele><time>2026-03-02T07:50:42.000Z</time></trkpt>
      <trkpt lat="52.735090" lon="-1.347044"><ele>157.4</ele><time>2026-03-02T07:50:43.000Z</time></trkpt>
      <trkpt lat="52.735080" lon="-1.347036"><ele>157.4</ele><time>2026-03-02T07:50:44.000Z</time></trkpt>
      <trkpt lat="52.735073" lon="-1.347032"><ele>157.2</ele><time>2026-03-02T07:50:45.000Z</time></trkpt>
      <trkpt lat="52.735065" lon="-1.347029"><ele>157.2</ele><time>2026-03-02T07:50:46.000Z</time></trkpt>
      <trkpt lat="52.735060" lon="-1.347025"><ele>157.2</ele><time>2026-03-02T07:50:47.000Z</time></trkpt>
      <trkpt lat="52.735054" lon="-1.347021"><ele>157.2</ele><time>2026-03-02T07:50:48.000Z</time></trkpt>
      <trkpt lat="52.735046" lon="-1.347015"><ele>157.2</ele><time>2026-03-02T07:50:49.000Z</time></trkpt>
      <trkpt lat="52.735040" lon="-1.347009"><ele>157.2</ele><time>2026-03-02T07:50:50.000Z</time></trkpt>
      <trkpt lat="52.735030" lon="-1.347002"><ele>157.2</ele><time>2026-03-02T07:50:51.000Z</time></trkpt>
      <trkpt lat="52.735023" lon="-1.346994"><ele>157.2</ele><time>2026-03-02T07:50:52.000Z</time></trkpt>
      <trkpt lat="52.735012" lon="-1.346985"><ele>157.2</ele><time>2026-03-02T07:50:53.000Z</time></trkpt>
      <trkpt lat="52.735004" lon="-1.346974"><ele>157.2</ele><time>2026-03-02T07:50:54.000Z</time></trkpt>
      <trkpt lat="52.734997" lon="-1.346961"><ele>157.2</ele><time>2026-03-02T07:50:55.000Z</time></trkpt>
      <trkpt lat="52.734990" lon="-1.346949"><ele>157.2</ele><time>2026-03-02T07:50:56.000Z</time></trkpt>
      <trkpt lat="52.734980" lon="-1.346937"><ele>157.2</ele><time>2026-03-02T07:50:57.000Z</time></trkpt>
      <trkpt lat="52.734978" lon="-1.346927"><ele>157.2</ele><time>2026-03-02T07:50:58.000Z</time></trkpt>
      <trkpt lat="52.734970" lon="-1.346918"><ele>157.2</ele><time>2026-03-02T07:50:59.000Z</time></trkpt>
      <trkpt lat="52.734966" lon="-1.346909"><ele>157.2</ele><time>2026-03-02T07:51:00.000Z</time></trkpt>
      <trkpt lat="52.734960" lon="-1.346900"><ele>157.2</ele><time>2026-03-02T07:51:01.000Z</time></trkpt>
      <trkpt lat="52.734955" lon="-1.346892"><ele>157.2</ele><time>2026-03-02T07:51:02.000Z</time></trkpt>
      <trkpt lat="52.734947" lon="-1.346883"><ele>157.2</ele><time>2026-03-02T07:51:03.000Z</time></trkpt>
      <trkpt lat="52.734940" lon="-1.346874"><ele>157.4</ele><time>2026-03-02T07:51:04.000Z</time></trkpt>
      <trkpt lat="52.734932" lon="-1.346864"><ele>157.4</ele><time>2026-03-02T07:51:05.000Z</time></trkpt>
      <trkpt lat="52.734924" lon="-1.346854"><ele>157.4</ele><time>2026-03-02T07:51:06.000Z</time></trkpt>
      <trkpt lat="52.734920" lon="-1.346843"><ele>157.4</ele><time>2026-03-02T07:51:07.000Z</time></trkpt>
      <trkpt lat="52.734913" lon="-1.346833"><ele>157.4</ele><time>2026-03-02T07:51:08.000Z</time></trkpt>
      <trkpt lat="52.734910" lon="-1.346825"><ele>157.4</ele><time>2026-03-02T07:51:09.000Z</time></trkpt>
      <trkpt lat="52.734905" lon="-1.346818"><ele>157.4</ele><time>2026-03-02T07:51:10.000Z</time></trkpt>
      <trkpt lat="52.734900" lon="-1.346810"><ele>157.4</ele><time>2026-03-02T07:51:11.000Z</time></trkpt>
      <trkpt lat="52.734894" lon="-1.346802"><ele>157.4</ele><time>2026-03-02T07:51:12.000Z</time></trkpt>
      <trkpt lat="52.734886" lon="-1.346794"><ele>157.4</ele><time>2026-03-02T07:51:13.000Z</time></trkpt>
      <trkpt lat="52.734875" lon="-1.346787"><ele>157.4</ele><time>2026-03-02T07:51:14.000Z</time></trkpt>
      <trkpt lat="52.734863" lon="-1.346781"><ele>157.4</ele><time>2026-03-02T07:51:15.000Z</time></trkpt>
      <trkpt lat="52.734856" lon="-1.346775"><ele>157.4</ele><time>2026-03-02T07:51:16.000Z</time></trkpt>
      <trkpt lat="52.734844" lon="-1.346771"><ele>157.6</ele><time>2026-03-02T07:51:17.000Z</time></trkpt>
      <trkpt lat="52.734837" lon="-1.346766"><ele>157.6</ele><time>2026-03-02T07:51:18.000Z</time></trkpt>
      <trkpt lat="52.734830" lon="-1.346761"><ele>157.6</ele><time>2026-03-02T07:51:19.000Z</time></trkpt>
      <trkpt lat="52.734820" lon="-1.346756"><ele>157.6</ele><time>2026-03-02T07:51:20.000Z</time></trkpt>
      <trkpt lat="52.734814" lon="-1.346749"><ele>157.6</ele><time>2026-03-02T07:51:21.000Z</time></trkpt>
      <trkpt lat="52.734806" lon="-1.346742"><ele>157.6</ele><time>2026-03-02T07:51:22.000Z</time></trkpt>
      <trkpt lat="52.734795" lon="-1.346735"><ele>157.6</ele><time>2026-03-02T07:51:23.000Z</time></trkpt>
      <trkpt lat="52.734787" lon="-1.346729"><ele>157.6</ele><time>2026-03-02T07:51:24.000Z</time></trkpt>
      <trkpt lat="52.734783" lon="-1.346722"><ele>157.6</ele><time>2026-03-02T07:51:25.000Z</time></trkpt>
      <trkpt lat="52.734780" lon="-1.346713"><ele>157.6</ele><time>2026-03-02T07:51:26.000Z</time></trkpt>
      <trkpt lat="52.734776" lon="-1.346702"><ele>157.6</ele><time>2026-03-02T07:51:27.000Z</time></trkpt>
      <trkpt lat="52.734776" lon="-1.346690"><ele>157.6</ele><time>2026-03-02T07:51:28.000Z</time></trkpt>
      <trkpt lat="52.734770" lon="-1.346677"><ele>157.6</ele><time>2026-03-02T07:51:29.000Z</time></trkpt>
      <trkpt lat="52.734768" lon="-1.346662"><ele>157.6</ele><time>2026-03-02T07:51:30.000Z</time></trkpt>
      <trkpt lat="52.734760" lon="-1.346646"><ele>157.6</ele><time>2026-03-02T07:51:31.000Z</time></trkpt>
      <trkpt lat="52.734756" lon="-1.346631"><ele>157.6</ele><time>2026-03-02T07:51:32.000Z</time></trkpt>
      <trkpt lat="52.734753" lon="-1.346617"><ele>157.6</ele><time>2026-03-02T07:51:33.000Z</time></trkpt>
      <trkpt lat="52.734745" lon="-1.346604"><ele>157.6</ele><time>2026-03-02T07:51:34.000Z</time></trkpt>
      <trkpt lat="52.734734" lon="-1.346591"><ele>157.6</ele><time>2026-03-02T07:51:35.000Z</time></trkpt>
      <trkpt lat="52.734726" lon="-1.346578"><ele>157.6</ele><time>2026-03-02T07:51:36.000Z</time></trkpt>
      <trkpt lat="52.734710" lon="-1.346567"><ele>157.6</ele><time>2026-03-02T07:51:37.000Z</time></trkpt>
      <trkpt lat="52.734700" lon="-1.346557"><ele>157.6</ele><time>2026-03-02T07:51:38.000Z</time></trkpt>
      <trkpt lat="52.734688" lon="-1.346549"><ele>157.6</ele><time>2026-03-02T07:51:39.000Z</time></trkpt>
      <trkpt lat="52.734676" lon="-1.346541"><ele>157.6</ele><time>2026-03-02T07:51:40.000Z</time></trkpt>
      <trkpt lat="52.734665" lon="-1.346533"><ele>157.6</ele><time>2026-03-02T07:51:41.000Z</time></trkpt>
      <trkpt lat="52.734653" lon="-1.346526"><ele>157.6</ele><time>2026-03-02T07:51:42.000Z</time></trkpt>
      <trkpt lat="52.734646" lon="-1.346519"><ele>157.6</ele><time>2026-03-02T07:51:43.000Z</time></trkpt>
      <trkpt lat="52.734634" lon="-1.346510"><ele>157.8</ele><time>2026-03-02T07:51:44.000Z</time></trkpt>
      <trkpt lat="52.734627" lon="-1.346499"><ele>157.8</ele><time>2026-03-02T07:51:45.000Z</time></trkpt>
      <trkpt lat="52.734615" lon="-1.346487"><ele>157.8</ele><time>2026-03-02T07:51:46.000Z</time></trkpt>
      <trkpt lat="52.734608" lon="-1.346474"><ele>157.8</ele><time>2026-03-02T07:51:47.000Z</time></trkpt>
      <trkpt lat="52.734604" lon="-1.346461"><ele>157.8</ele><time>2026-03-02T07:51:48.000Z</time></trkpt>
      <trkpt lat="52.734600" lon="-1.346450"><ele>157.8</ele><time>2026-03-02T07:51:49.000Z</time></trkpt>
      <trkpt lat="52.734592" lon="-1.346438"><ele>157.8</ele><time>2026-03-02T07:51:50.000Z</time></trkpt>
      <trkpt lat="52.734590" lon="-1.346426"><ele>157.8</ele><time>2026-03-02T07:51:51.000Z</time></trkpt>
      <trkpt lat="52.734580" lon="-1.346415"><ele>157.8</ele><time>2026-03-02T07:51:52.000Z</time></trkpt>
      <trkpt lat="52.734573" lon="-1.346405"><ele>157.8</ele><time>2026-03-02T07:51:53.000Z</time></trkpt>
      <trkpt lat="52.734566" lon="-1.346395"><ele>157.8</ele><time>2026-03-02T07:51:54.000Z</time></trkpt>
      <trkpt lat="52.734560" lon="-1.346386"><ele>157.8</ele><time>2026-03-02T07:51:55.000Z</time></trkpt>
      <trkpt lat="52.734550" lon="-1.346375"><ele>157.8</ele><time>2026-03-02T07:51:56.000Z</time></trkpt>
      <trkpt lat="52.734547" lon="-1.346361"><ele>157.8</ele><time>2026-03-02T07:51:57.000Z</time></trkpt>
      <trkpt lat="52.734543" lon="-1.346347"><ele>157.8</ele><time>2026-03-02T07:51:58.000Z</time></trkpt>
      <trkpt lat="52.734540" lon="-1.346331"><ele>157.8</ele><time>2026-03-02T07:51:59.000Z</time></trkpt>
      <trkpt lat="52.734535" lon="-1.346314"><ele>157.8</ele><time>2026-03-02T07:52:00.000Z</time></trkpt>
      <trkpt lat="52.734528" lon="-1.346298"><ele>157.8</ele><time>2026-03-02T07:52:01.000Z</time></trkpt>
      <trkpt lat="52.734524" lon="-1.346282"><ele>157.8</ele><time>2026-03-02T07:52:02.000Z</time></trkpt>
      <trkpt lat="52.734516" lon="-1.346268"><ele>157.8</ele><time>2026-03-02T07:52:03.000Z</time></trkpt>
      <trkpt lat="52.734510" lon="-1.346254"><ele>157.8</ele><time>2026-03-02T07:52:04.000Z</time></trkpt>
      <trkpt lat="52.734497" lon="-1.346237"><ele>157.8</ele><time>2026-03-02T07:52:05.000Z</time></trkpt>
      <trkpt lat="52.734490" lon="-1.346221"><ele>157.8</ele><time>2026-03-02T07:52:06.000Z</time></trkpt>
      <trkpt lat="52.734480" lon="-1.346206"><ele>157.8</ele><time>2026-03-02T07:52:07.000Z</time></trkpt>
      <trkpt lat="52.734474" lon="-1.346193"><ele>158.0</ele><time>2026-03-02T07:52:08.000Z</time></trkpt>
      <trkpt lat="52.734470" lon="-1.346182"><ele>158.0</ele><time>2026-03-02T07:52:09.000Z</time></trkpt>
      <trkpt lat="52.734463" lon="-1.346173"><ele>158.0</ele><time>2026-03-02T07:52:10.000Z</time></trkpt>
      <trkpt lat="52.734460" lon="-1.346167"><ele>158.0</ele><time>2026-03-02T07:52:11.000Z</time></trkpt>
      <trkpt lat="52.734455" lon="-1.346164"><ele>158.0</ele><time>2026-03-02T07:52:12.000Z</time></trkpt>
      <trkpt lat="52.734450" lon="-1.346168"><ele>158.0</ele><time>2026-03-02T07:52:13.000Z</time></trkpt>
      <trkpt lat="52.734450" lon="-1.346177"><ele>158.0</ele><time>2026-03-02T07:52:14.000Z</time></trkpt>
      <trkpt lat="52.734450" lon="-1.346188"><ele>158.0</ele><time>2026-03-02T07:52:15.000Z</time></trkpt>
      <trkpt lat="52.734455" lon="-1.346201"><ele>158.0</ele><time>2026-03-02T07:52:16.000Z</time></trkpt>
      <trkpt lat="52.734455" lon="-1.346214"><ele>158.0</ele><time>2026-03-02T07:52:17.000Z</time></trkpt>
      <trkpt lat="52.734460" lon="-1.346229"><ele>158.0</ele><time>2026-03-02T07:52:18.000Z</time></trkpt>
      <trkpt lat="52.734467" lon="-1.346245"><ele>157.8</ele><time>2026-03-02T07:52:19.000Z</time></trkpt>
      <trkpt lat="52.734478" lon="-1.346261"><ele>157.8</ele><time>2026-03-02T07:52:20.000Z</time></trkpt>
      <trkpt lat="52.734486" lon="-1.346276"><ele>157.8</ele><time>2026-03-02T07:52:21.000Z</time></trkpt>
      <trkpt lat="52.734493" lon="-1.346290"><ele>157.8</ele><time>2026-03-02T07:52:22.000Z</time></trkpt>
      <trkpt lat="52.734500" lon="-1.346302"><ele>157.8</ele><time>2026-03-02T07:52:23.000Z</time></trkpt>
      <trkpt lat="52.734505" lon="-1.346314"><ele>157.8</ele><time>2026-03-02T07:52:24.000Z</time></trkpt>
      <trkpt lat="52.734512" lon="-1.346326"><ele>157.8</ele><time>2026-03-02T07:52:25.000Z</time></trkpt>
      <trkpt lat="52.734520" lon="-1.346338"><ele>157.8</ele><time>2026-03-02T07:52:26.000Z</time></trkpt>
      <trkpt lat="52.734530" lon="-1.346351"><ele>157.8</ele><time>2026-03-02T07:52:27.000Z</time></trkpt>
      <trkpt lat="52.734535" lon="-1.346363"><ele>157.8</ele><time>2026-03-02T07:52:28.000Z</time></trkpt>
      <trkpt lat="52.734543" lon="-1.346374"><ele>157.8</ele><time>2026-03-02T07:52:29.000Z</time></trkpt>
      <trkpt lat="52.734550" lon="-1.346384"><ele>157.8</ele><time>2026-03-02T07:52:30.000Z</time></trkpt>
      <trkpt lat="52.734560" lon="-1.346392"><ele>157.8</ele><time>2026-03-02T07:52:31.000Z</time></trkpt>
      <trkpt lat="52.734562" lon="-1.346396"><ele>157.8</ele><time>2026-03-02T07:52:32.000Z</time></trkpt>
      <trkpt lat="52.734566" lon="-1.346398"><ele>157.8</ele><time>2026-03-02T07:52:33.000Z</time></trkpt>
      <trkpt lat="52.734566" lon="-1.346399"><ele>157.8</ele><time>2026-03-02T07:52:34.000Z</time></trkpt>
      <trkpt lat="52.734566" lon="-1.346399"><ele>157.8</ele><time>2026-03-02T07:52:35.000Z</time></trkpt>
      <trkpt lat="52.734566" lon="-1.346399"><ele>157.8</ele><time>2026-03-02T07:52:36.000Z</time></trkpt>
      <trkpt lat="52.734570" lon="-1.346399"><ele>157.8</ele><time>2026-03-02T07:52:37.000Z</time></trkpt>
      <trkpt lat="52.734570" lon="-1.346399"><ele>157.8</ele><time>2026-03-02T07:52:38.000Z</time></trkpt>
      <trkpt lat="52.734570" lon="-1.346400"><ele>157.8</ele><time>2026-03-02T07:52:39.000Z</time></trkpt>
      <trkpt lat="52.734570" lon="-1.346400"><ele>157.8</ele><time>2026-03-02T07:52:40.000Z</time></trkpt>
      <trkpt lat="52.734570" lon="-1.346401"><ele>157.8</ele><time>2026-03-02T07:52:41.000Z</time></trkpt>
      <trkpt lat="52.734573" lon="-1.346402"><ele>157.8</ele><time>2026-03-02T07:52:42.000Z</time></trkpt>
      <trkpt lat="52.734573" lon="-1.346404"><ele>157.8</ele><time>2026-03-02T07:52:43.000Z</time></trkpt>
      <trkpt lat="52.734573" lon="-1.346404"><ele>157.8</ele><time>2026-03-02T07:52:44.000Z</time></trkpt>
      <trkpt lat="52.734577" lon="-1.346405"><ele>157.8</ele><time>2026-03-02T07:52:45.000Z</time></trkpt>
      <trkpt lat="52.734577" lon="-1.346406"><ele>157.8</ele><time>2026-03-02T07:52:46.000Z</time></trkpt>
      <trkpt lat="52.734577" lon="-1.346407"><ele>157.8</ele><time>2026-03-02T07:52:47.000Z</time></trkpt>
      <trkpt lat="52.734577" lon="-1.346409"><ele>157.8</ele><time>2026-03-02T07:52:48.000Z</time></trkpt>
      <trkpt lat="52.734577" lon="-1.346411"><ele>157.8</ele><time>2026-03-02T07:52:49.000Z</time></trkpt>
      <trkpt lat="52.734577" lon="-1.346414"><ele>157.8</ele><time>2026-03-02T07:52:50.000Z</time></trkpt>
      <trkpt lat="52.734577" lon="-1.346419"><ele>157.8</ele><time>2026-03-02T07:52:51.000Z</time></trkpt>
      <trkpt lat="52.734577" lon="-1.346426"><ele>157.8</ele><time>2026-03-02T07:52:52.000Z</time></trkpt>
      <trkpt lat="52.734580" lon="-1.346435"><ele>157.8</ele><time>2026-03-02T07:52:53.000Z</time></trkpt>
      <trkpt lat="52.734580" lon="-1.346446"><ele>157.6</ele><time>2026-03-02T07:52:54.000Z</time></trkpt>
      <trkpt lat="52.734590" lon="-1.346459"><ele>157.6</ele><time>2026-03-02T07:52:55.000Z</time></trkpt>
      <trkpt lat="52.734592" lon="-1.346473"><ele>157.6</ele><time>2026-03-02T07:52:56.000Z</time></trkpt>
      <trkpt lat="52.734596" lon="-1.346487"><ele>157.6</ele><time>2026-03-02T07:52:57.000Z</time></trkpt>
      <trkpt lat="52.734600" lon="-1.346500"><ele>157.6</ele><time>2026-03-02T07:52:58.000Z</time></trkpt>
      <trkpt lat="52.734604" lon="-1.346514"><ele>157.4</ele><time>2026-03-02T07:52:59.000Z</time></trkpt>
      <trkpt lat="52.734608" lon="-1.346527"><ele>157.4</ele><time>2026-03-02T07:53:00.000Z</time></trkpt>
      <trkpt lat="52.734615" lon="-1.346540"><ele>157.4</ele><time>2026-03-02T07:53:01.000Z</time></trkpt>
      <trkpt lat="52.734620" lon="-1.346552"><ele>157.4</ele><time>2026-03-02T07:53:02.000Z</time></trkpt>
      <trkpt lat="52.734627" lon="-1.346563"><ele>157.4</ele><time>2026-03-02T07:53:03.000Z</time></trkpt>
      <trkpt lat="52.734634" lon="-1.346574"><ele>157.2</ele><time>2026-03-02T07:53:04.000Z</time></trkpt>
      <trkpt lat="52.734646" lon="-1.346583"><ele>157.2</ele><time>2026-03-02T07:53:05.000Z</time></trkpt>
      <trkpt lat="52.734653" lon="-1.346590"><ele>157.2</ele><time>2026-03-02T07:53:06.000Z</time></trkpt>
      <trkpt lat="52.734660" lon="-1.346596"><ele>157.2</ele><time>2026-03-02T07:53:07.000Z</time></trkpt>
      <trkpt lat="52.734670" lon="-1.346602"><ele>157.2</ele><time>2026-03-02T07:53:08.000Z</time></trkpt>
      <trkpt lat="52.734676" lon="-1.346608"><ele>157.2</ele><time>2026-03-02T07:53:09.000Z</time></trkpt>
      <trkpt lat="52.734688" lon="-1.346616"><ele>157.2</ele><time>2026-03-02T07:53:10.000Z</time></trkpt>
      <trkpt lat="52.734695" lon="-1.346626"><ele>157.2</ele><time>2026-03-02T07:53:11.000Z</time></trkpt>
      <trkpt lat="52.734703" lon="-1.346638"><ele>157.2</ele><time>2026-03-02T07:53:12.000Z</time></trkpt>
      <trkpt lat="52.734715" lon="-1.346650"><ele>157.2</ele><time>2026-03-02T07:53:13.000Z</time></trkpt>
      <trkpt lat="52.734722" lon="-1.346661"><ele>157.2</ele><time>2026-03-02T07:53:14.000Z</time></trkpt>
      <trkpt lat="52.734730" lon="-1.346672"><ele>157.2</ele><time>2026-03-02T07:53:15.000Z</time></trkpt>
      <trkpt lat="52.734737" lon="-1.346682"><ele>157.2</ele><time>2026-03-02T07:53:16.000Z</time></trkpt>
      <trkpt lat="52.734745" lon="-1.346694"><ele>157.2</ele><time>2026-03-02T07:53:17.000Z</time></trkpt>
      <trkpt lat="52.734753" lon="-1.346706"><ele>157.2</ele><time>2026-03-02T07:53:18.000Z</time></trkpt>
      <trkpt lat="52.734760" lon="-1.346719"><ele>157.2</ele><time>2026-03-02T07:53:19.000Z</time></trkpt>
      <trkpt lat="52.734768" lon="-1.346732"><ele>157.2</ele><time>2026-03-02T07:53:20.000Z</time></trkpt>
      <trkpt lat="52.734770" lon="-1.346746"><ele>157.2</ele><time>2026-03-02T07:53:21.000Z</time></trkpt>
      <trkpt lat="52.734780" lon="-1.346760"><ele>157.2</ele><time>2026-03-02T07:53:22.000Z</time></trkpt>
      <trkpt lat="52.734783" lon="-1.346772"><ele>157.2</ele><time>2026-03-02T07:53:23.000Z</time></trkpt>
      <trkpt lat="52.734787" lon="-1.346783"><ele>157.2</ele><time>2026-03-02T07:53:24.000Z</time></trkpt>
      <trkpt lat="52.734795" lon="-1.346792"><ele>157.2</ele><time>2026-03-02T07:53:25.000Z</time></trkpt>
      <trkpt lat="52.734800" lon="-1.346801"><ele>157.2</ele><time>2026-03-02T07:53:26.000Z</time></trkpt>
      <trkpt lat="52.734810" lon="-1.346809"><ele>157.2</ele><time>2026-03-02T07:53:27.000Z</time></trkpt>
      <trkpt lat="52.734818" lon="-1.346817"><ele>157.2</ele><time>2026-03-02T07:53:28.000Z</time></trkpt>
      <trkpt lat="52.734830" lon="-1.346825"><ele>157.2</ele><time>2026-03-02T07:53:29.000Z</time></trkpt>
      <trkpt lat="52.734837" lon="-1.346833"><ele>157.2</ele><time>2026-03-02T07:53:30.000Z</time></trkpt>
      <trkpt lat="52.734844" lon="-1.346840"><ele>157.2</ele><time>2026-03-02T07:53:31.000Z</time></trkpt>
      <trkpt lat="52.734850" lon="-1.346848"><ele>157.2</ele><time>2026-03-02T07:53:32.000Z</time></trkpt>
      <trkpt lat="52.734860" lon="-1.346858"><ele>157.2</ele><time>2026-03-02T07:53:33.000Z</time></trkpt>
      <trkpt lat="52.734867" lon="-1.346869"><ele>157.2</ele><time>2026-03-02T07:53:34.000Z</time></trkpt>
      <trkpt lat="52.734880" lon="-1.346878"><ele>157.2</ele><time>2026-03-02T07:53:35.000Z</time></trkpt>
      <trkpt lat="52.734886" lon="-1.346886"><ele>157.4</ele><time>2026-03-02T07:53:36.000Z</time></trkpt>
      <trkpt lat="52.734894" lon="-1.346892"><ele>157.4</ele><time>2026-03-02T07:53:37.000Z</time></trkpt>
      <trkpt lat="52.734900" lon="-1.346896"><ele>157.4</ele><time>2026-03-02T07:53:38.000Z</time></trkpt>
      <trkpt lat="52.734910" lon="-1.346902"><ele>157.2</ele><time>2026-03-02T07:53:39.000Z</time></trkpt>
      <trkpt lat="52.734917" lon="-1.346908"><ele>157.2</ele><time>2026-03-02T07:53:40.000Z</time></trkpt>
      <trkpt lat="52.734924" lon="-1.346915"><ele>157.2</ele><time>2026-03-02T07:53:41.000Z</time></trkpt>
      <trkpt lat="52.734936" lon="-1.346923"><ele>157.2</ele><time>2026-03-02T07:53:42.000Z</time></trkpt>
      <trkpt lat="52.734943" lon="-1.346933"><ele>157.2</ele><time>2026-03-02T07:53:43.000Z</time></trkpt>
      <trkpt lat="52.734955" lon="-1.346944"><ele>157.2</ele><time>2026-03-02T07:53:44.000Z</time></trkpt>
      <trkpt lat="52.734962" lon="-1.346953"><ele>157.0</ele><time>2026-03-02T07:53:45.000Z</time></trkpt>
      <trkpt lat="52.734970" lon="-1.346962"><ele>157.0</ele><time>2026-03-02T07:53:46.000Z</time></trkpt>
      <trkpt lat="52.734978" lon="-1.346973"><ele>157.0</ele><time>2026-03-02T07:53:47.000Z</time></trkpt>
      <trkpt lat="52.734990" lon="-1.346987"><ele>156.8</ele><time>2026-03-02T07:53:48.000Z</time></trkpt>
      <trkpt lat="52.734997" lon="-1.347001"><ele>156.8</ele><time>2026-03-02T07:53:49.000Z</time></trkpt>
      <trkpt lat="52.735004" lon="-1.347015"><ele>156.6</ele><time>2026-03-02T07:53:50.000Z</time></trkpt>
      <trkpt lat="52.735012" lon="-1.347028"><ele>156.6</ele><time>2026-03-02T07:53:51.000Z</time></trkpt>
      <trkpt lat="52.735016" lon="-1.347037"><ele>156.6</ele><time>2026-03-02T07:53:52.000Z</time></trkpt>
      <trkpt lat="52.735023" lon="-1.347047"><ele>156.4</ele><time>2026-03-02T07:53:53.000Z</time></trkpt>
      <trkpt lat="52.735030" lon="-1.347057"><ele>156.4</ele><time>2026-03-02T07:53:54.000Z</time></trkpt>
      <trkpt lat="52.735043" lon="-1.347067"><ele>156.4</ele><time>2026-03-02T07:53:55.000Z</time></trkpt>
      <trkpt lat="52.735050" lon="-1.347074"><ele>156.2</ele><time>2026-03-02T07:53:56.000Z</time></trkpt>
      <trkpt lat="52.735058" lon="-1.347081"><ele>156.2</ele><time>2026-03-02T07:53:57.000Z</time></trkpt>
      <trkpt lat="52.735070" lon="-1.347088"><ele>156.2</ele><time>2026-03-02T07:53:58.000Z</time></trkpt>
      <trkpt lat="52.735077" lon="-1.347097"><ele>156.2</ele><time>2026-03-02T07:53:59.000Z</time></trkpt>
      <trkpt lat="52.735090" lon="-1.347106"><ele>156.2</ele><time>2026-03-02T07:54:00.000Z</time></trkpt>
      <trkpt lat="52.735100" lon="-1.347117"><ele>156.2</ele><time>2026-03-02T07:54:01.000Z</time></trkpt>
      <trkpt lat="52.735107" lon="-1.347128"><ele>156.2</ele><time>2026-03-02T07:54:02.000Z</time></trkpt>
      <trkpt lat="52.735110" lon="-1.347139"><ele>156.2</ele><time>2026-03-02T07:54:03.000Z</time></trkpt>
      <trkpt lat="52.735120" lon="-1.347152"><ele>156.4</ele><time>2026-03-02T07:54:04.000Z</time></trkpt>
      <trkpt lat="52.735126" lon="-1.347165"><ele>156.4</ele><time>2026-03-02T07:54:05.000Z</time></trkpt>
      <trkpt lat="52.735134" lon="-1.347180"><ele>156.4</ele><time>2026-03-02T07:54:06.000Z</time></trkpt>
      <trkpt lat="52.735146" lon="-1.347195"><ele>156.4</ele><time>2026-03-02T07:54:07.000Z</time></trkpt>
      <trkpt lat="52.735153" lon="-1.347209"><ele>156.4</ele><time>2026-03-02T07:54:08.000Z</time></trkpt>
      <trkpt lat="52.735160" lon="-1.347222"><ele>156.4</ele><time>2026-03-02T07:54:09.000Z</time></trkpt>
      <trkpt lat="52.735170" lon="-1.347233"><ele>156.4</ele><time>2026-03-02T07:54:10.000Z</time></trkpt>
      <trkpt lat="52.735176" lon="-1.347244"><ele>156.4</ele><time>2026-03-02T07:54:11.000Z</time></trkpt>
      <trkpt lat="52.735184" lon="-1.347256"><ele>156.4</ele><time>2026-03-02T07:54:12.000Z</time></trkpt>
      <trkpt lat="52.735188" lon="-1.347270"><ele>156.4</ele><time>2026-03-02T07:54:13.000Z</time></trkpt>
      <trkpt lat="52.735195" lon="-1.347285"><ele>156.6</ele><time>2026-03-02T07:54:14.000Z</time></trkpt>
      <trkpt lat="52.735203" lon="-1.347300"><ele>156.6</ele><time>2026-03-02T07:54:15.000Z</time></trkpt>
      <trkpt lat="52.735210" lon="-1.347315"><ele>156.6</ele><time>2026-03-02T07:54:16.000Z</time></trkpt>
      <trkpt lat="52.735214" lon="-1.347330"><ele>156.6</ele><time>2026-03-02T07:54:17.000Z</time></trkpt>
      <trkpt lat="52.735220" lon="-1.347347"><ele>156.6</ele><time>2026-03-02T07:54:18.000Z</time></trkpt>
      <trkpt lat="52.735230" lon="-1.347365"><ele>156.4</ele><time>2026-03-02T07:54:19.000Z</time></trkpt>
      <trkpt lat="52.735237" lon="-1.347381"><ele>156.4</ele><time>2026-03-02T07:54:20.000Z</time></trkpt>
      <trkpt lat="52.735245" lon="-1.347395"><ele>156.4</ele><time>2026-03-02T07:54:21.000Z</time></trkpt>
      <trkpt lat="52.735252" lon="-1.347408"><ele>156.4</ele><time>2026-03-02T07:54:22.000Z</time></trkpt>
      <trkpt lat="52.735256" lon="-1.347421"><ele>156.4</ele><time>2026-03-02T07:54:23.000Z</time></trkpt>
      <trkpt lat="52.735264" lon="-1.347433"><ele>156.4</ele><time>2026-03-02T07:54:24.000Z</time></trkpt>
      <trkpt lat="52.735270" lon="-1.347447"><ele>156.2</ele><time>2026-03-02T07:54:25.000Z</time></trkpt>
      <trkpt lat="52.735280" lon="-1.347463"><ele>156.2</ele><time>2026-03-02T07:54:26.000Z</time></trkpt>
      <trkpt lat="52.735283" lon="-1.347477"><ele>156.2</ele><time>2026-03-02T07:54:27.000Z</time></trkpt>
      <trkpt lat="52.735290" lon="-1.347491"><ele>156.0</ele><time>2026-03-02T07:54:28.000Z</time></trkpt>
      <trkpt lat="52.735300" lon="-1.347503"><ele>156.0</ele><time>2026-03-02T07:54:29.000Z</time></trkpt>
      <trkpt lat="52.735306" lon="-1.347515"><ele>156.0</ele><time>2026-03-02T07:54:30.000Z</time></trkpt>
      <trkpt lat="52.735313" lon="-1.347525"><ele>155.8</ele><time>2026-03-02T07:54:31.000Z</time></trkpt>
      <trkpt lat="52.735325" lon="-1.347533"><ele>155.8</ele><time>2026-03-02T07:54:32.000Z</time></trkpt>
      <trkpt lat="52.735332" lon="-1.347540"><ele>155.8</ele><time>2026-03-02T07:54:33.000Z</time></trkpt>
      <trkpt lat="52.735340" lon="-1.347550"><ele>155.6</ele><time>2026-03-02T07:54:34.000Z</time></trkpt>
      <trkpt lat="52.735350" lon="-1.347564"><ele>155.6</ele><time>2026-03-02T07:54:35.000Z</time></trkpt>
      <trkpt lat="52.735363" lon="-1.347580"><ele>155.6</ele><time>2026-03-02T07:54:36.000Z</time></trkpt>
      <trkpt lat="52.735367" lon="-1.347598"><ele>155.4</ele><time>2026-03-02T07:54:37.000Z</time></trkpt>
      <trkpt lat="52.735370" lon="-1.347613"><ele>155.4</ele><time>2026-03-02T07:54:38.000Z</time></trkpt>
      <trkpt lat="52.735374" lon="-1.347627"><ele>155.2</ele><time>2026-03-02T07:54:39.000Z</time></trkpt>
      <trkpt lat="52.735374" lon="-1.347643"><ele>155.2</ele><time>2026-03-02T07:54:40.000Z</time></trkpt>
      <trkpt lat="52.735374" lon="-1.347661"><ele>155.2</ele><time>2026-03-02T07:54:41.000Z</time></trkpt>
      <trkpt lat="52.735374" lon="-1.347680"><ele>155.0</ele><time>2026-03-02T07:54:42.000Z</time></trkpt>
      <trkpt lat="52.735374" lon="-1.347699"><ele>155.0</ele><time>2026-03-02T07:54:43.000Z</time></trkpt>
      <trkpt lat="52.735380" lon="-1.347718"><ele>154.8</ele><time>2026-03-02T07:54:44.000Z</time></trkpt>
      <trkpt lat="52.735380" lon="-1.347733"><ele>154.8</ele><time>2026-03-02T07:54:45.000Z</time></trkpt>
      <trkpt lat="52.735382" lon="-1.347745"><ele>154.8</ele><time>2026-03-02T07:54:46.000Z</time></trkpt>
      <trkpt lat="52.735382" lon="-1.347758"><ele>154.6</ele><time>2026-03-02T07:54:47.000Z</time></trkpt>
      <trkpt lat="52.735382" lon="-1.347772"><ele>154.6</ele><time>2026-03-02T07:54:48.000Z</time></trkpt>
      <trkpt lat="52.735382" lon="-1.347785"><ele>154.6</ele><time>2026-03-02T07:54:49.000Z</time></trkpt>
      <trkpt lat="52.735386" lon="-1.347799"><ele>154.6</ele><time>2026-03-02T07:54:50.000Z</time></trkpt>
      <trkpt lat="52.735386" lon="-1.347815"><ele>154.6</ele><time>2026-03-02T07:54:51.000Z</time></trkpt>
      <trkpt lat="52.735390" lon="-1.347833"><ele>154.6</ele><time>2026-03-02T07:54:52.000Z</time></trkpt>
      <trkpt lat="52.735394" lon="-1.347850"><ele>154.4</ele><time>2026-03-02T07:54:53.000Z</time></trkpt>
      <trkpt lat="52.735400" lon="-1.347864"><ele>154.4</ele><time>2026-03-02T07:54:54.000Z</time></trkpt>
      <trkpt lat="52.735410" lon="-1.347877"><ele>154.4</ele><time>2026-03-02T07:54:55.000Z</time></trkpt>
      <trkpt lat="52.735413" lon="-1.347889"><ele>154.4</ele><time>2026-03-02T07:54:56.000Z</time></trkpt>
      <trkpt lat="52.735420" lon="-1.347903"><ele>154.2</ele><time>2026-03-02T07:54:57.000Z</time></trkpt>
      <trkpt lat="52.735428" lon="-1.347917"><ele>154.2</ele><time>2026-03-02T07:54:58.000Z</time></trkpt>
      <trkpt lat="52.735430" lon="-1.347930"><ele>154.2</ele><time>2026-03-02T07:54:59.000Z</time></trkpt>
      <trkpt lat="52.735435" lon="-1.347940"><ele>154.2</ele><time>2026-03-02T07:55:00.000Z</time></trkpt>
      <trkpt lat="52.735440" lon="-1.347950"><ele>154.0</ele><time>2026-03-02T07:55:01.000Z</time></trkpt>
      <trkpt lat="52.735440" lon="-1.347962"><ele>154.0</ele><time>2026-03-02T07:55:02.000Z</time></trkpt>
      <trkpt lat="52.735443" lon="-1.347976"><ele>154.0</ele><time>2026-03-02T07:55:03.000Z</time></trkpt>
      <trkpt lat="52.735443" lon="-1.347990"><ele>153.8</ele><time>2026-03-02T07:55:04.000Z</time></trkpt>
      <trkpt lat="52.735447" lon="-1.348001"><ele>153.8</ele><time>2026-03-02T07:55:05.000Z</time></trkpt>
      <trkpt lat="52.735455" lon="-1.348014"><ele>153.8</ele><time>2026-03-02T07:55:06.000Z</time></trkpt>
      <trkpt lat="52.735462" lon="-1.348029"><ele>153.8</ele><time>2026-03-02T07:55:07.000Z</time></trkpt>
      <trkpt lat="52.735474" lon="-1.348042"><ele>153.8</ele><time>2026-03-02T07:55:08.000Z</time></trkpt>
      <trkpt lat="52.735480" lon="-1.348053"><ele>153.8</ele><time>2026-03-02T07:55:09.000Z</time></trkpt>
      <trkpt lat="52.735490" lon="-1.348064"><ele>153.8</ele><time>2026-03-02T07:55:10.000Z</time></trkpt>
      <trkpt lat="52.735497" lon="-1.348076"><ele>153.8</ele><time>2026-03-02T07:55:11.000Z</time></trkpt>
      <trkpt lat="52.735500" lon="-1.348091"><ele>153.8</ele><time>2026-03-02T07:55:12.000Z</time></trkpt>
      <trkpt lat="52.735508" lon="-1.348105"><ele>153.8</ele><time>2026-03-02T07:55:13.000Z</time></trkpt>
      <trkpt lat="52.735516" lon="-1.348117"><ele>153.8</ele><time>2026-03-02T07:55:14.000Z</time></trkpt>
      <trkpt lat="52.735523" lon="-1.348129"><ele>153.8</ele><time>2026-03-02T07:55:15.000Z</time></trkpt>
      <trkpt lat="52.735527" lon="-1.348140"><ele>154.0</ele><time>2026-03-02T07:55:16.000Z</time></trkpt>
      <trkpt lat="52.735535" lon="-1.348153"><ele>154.0</ele><time>2026-03-02T07:55:17.000Z</time></trkpt>
      <trkpt lat="52.735542" lon="-1.348163"><ele>154.0</ele><time>2026-03-02T07:55:18.000Z</time></trkpt>
      <trkpt lat="52.735546" lon="-1.348172"><ele>154.2</ele><time>2026-03-02T07:55:19.000Z</time></trkpt>
      <trkpt lat="52.735550" lon="-1.348180"><ele>154.2</ele><time>2026-03-02T07:55:20.000Z</time></trkpt>
      <trkpt lat="52.735554" lon="-1.348190"><ele>154.2</ele><time>2026-03-02T07:55:21.000Z</time></trkpt>
      <trkpt lat="52.735558" lon="-1.348202"><ele>154.4</ele><time>2026-03-02T07:55:22.000Z</time></trkpt>
      <trkpt lat="52.735560" lon="-1.348216"><ele>154.4</ele><time>2026-03-02T07:55:23.000Z</time></trkpt>
      <trkpt lat="52.735570" lon="-1.348232"><ele>154.4</ele><time>2026-03-02T07:55:24.000Z</time></trkpt>
      <trkpt lat="52.735573" lon="-1.348249"><ele>154.6</ele><time>2026-03-02T07:55:25.000Z</time></trkpt>
      <trkpt lat="52.735580" lon="-1.348265"><ele>154.6</ele><time>2026-03-02T07:55:26.000Z</time></trkpt>
      <trkpt lat="52.735584" lon="-1.348281"><ele>154.6</ele><time>2026-03-02T07:55:27.000Z</time></trkpt>
      <trkpt lat="52.735590" lon="-1.348299"><ele>154.6</ele><time>2026-03-02T07:55:28.000Z</time></trkpt>
      <trkpt lat="52.735596" lon="-1.348317"><ele>154.6</ele><time>2026-03-02T07:55:29.000Z</time></trkpt>
      <trkpt lat="52.735600" lon="-1.348336"><ele>154.6</ele><time>2026-03-02T07:55:30.000Z</time></trkpt>
      <trkpt lat="52.735603" lon="-1.348353"><ele>154.4</ele><time>2026-03-02T07:55:31.000Z</time></trkpt>
      <trkpt lat="52.735603" lon="-1.348369"><ele>154.4</ele><time>2026-03-02T07:55:32.000Z</time></trkpt>
      <trkpt lat="52.735607" lon="-1.348385"><ele>154.4</ele><time>2026-03-02T07:55:33.000Z</time></trkpt>
      <trkpt lat="52.735610" lon="-1.348401"><ele>154.4</ele><time>2026-03-02T07:55:34.000Z</time></trkpt>
      <trkpt lat="52.735615" lon="-1.348419"><ele>154.2</ele><time>2026-03-02T07:55:35.000Z</time></trkpt>
      <trkpt lat="52.735620" lon="-1.348435"><ele>154.2</ele><time>2026-03-02T07:55:36.000Z</time></trkpt>
      <trkpt lat="52.735626" lon="-1.348449"><ele>154.2</ele><time>2026-03-02T07:55:37.000Z</time></trkpt>
      <trkpt lat="52.735638" lon="-1.348460"><ele>154.0</ele><time>2026-03-02T07:55:38.000Z</time></trkpt>
      <trkpt lat="52.735645" lon="-1.348471"><ele>154.0</ele><time>2026-03-02T07:55:39.000Z</time></trkpt>
      <trkpt lat="52.735657" lon="-1.348483"><ele>154.0</ele><time>2026-03-02T07:55:40.000Z</time></trkpt>
      <trkpt lat="52.735670" lon="-1.348497"><ele>153.8</ele><time>2026-03-02T07:55:41.000Z</time></trkpt>
      <trkpt lat="52.735676" lon="-1.348513"><ele>153.8</ele><time>2026-03-02T07:55:42.000Z</time></trkpt>
      <trkpt lat="52.735683" lon="-1.348528"><ele>153.8</ele><time>2026-03-02T07:55:43.000Z</time></trkpt>
      <trkpt lat="52.735690" lon="-1.348543"><ele>153.8</ele><time>2026-03-02T07:55:44.000Z</time></trkpt>
      <trkpt lat="52.735700" lon="-1.348555"><ele>153.6</ele><time>2026-03-02T07:55:45.000Z</time></trkpt>
      <trkpt lat="52.735703" lon="-1.348568"><ele>153.6</ele><time>2026-03-02T07:55:46.000Z</time></trkpt>
      <trkpt lat="52.735710" lon="-1.348582"><ele>153.6</ele><time>2026-03-02T07:55:47.000Z</time></trkpt>
      <trkpt lat="52.735720" lon="-1.348595"><ele>153.6</ele><time>2026-03-02T07:55:48.000Z</time></trkpt>
      <trkpt lat="52.735730" lon="-1.348608"><ele>153.4</ele><time>2026-03-02T07:55:49.000Z</time></trkpt>
      <trkpt lat="52.735733" lon="-1.348623"><ele>153.4</ele><time>2026-03-02T07:55:50.000Z</time></trkpt>
      <trkpt lat="52.735744" lon="-1.348640"><ele>153.2</ele><time>2026-03-02T07:55:51.000Z</time></trkpt>
      <trkpt lat="52.735752" lon="-1.348657"><ele>153.2</ele><time>2026-03-02T07:55:52.000Z</time></trkpt>
      <trkpt lat="52.735760" lon="-1.348674"><ele>153.2</ele><time>2026-03-02T07:55:53.000Z</time></trkpt>
      <trkpt lat="52.735767" lon="-1.348691"><ele>153.0</ele><time>2026-03-02T07:55:54.000Z</time></trkpt>
      <trkpt lat="52.735775" lon="-1.348709"><ele>153.0</ele><time>2026-03-02T07:55:55.000Z</time></trkpt>
      <trkpt lat="52.735783" lon="-1.348726"><ele>152.8</ele><time>2026-03-02T07:55:56.000Z</time></trkpt>
      <trkpt lat="52.735786" lon="-1.348746"><ele>152.8</ele><time>2026-03-02T07:55:57.000Z</time></trkpt>
      <trkpt lat="52.735794" lon="-1.348766"><ele>152.6</ele><time>2026-03-02T07:55:58.000Z</time></trkpt>
      <trkpt lat="52.735800" lon="-1.348785"><ele>152.6</ele><time>2026-03-02T07:55:59.000Z</time></trkpt>
      <trkpt lat="52.735806" lon="-1.348802"><ele>152.4</ele><time>2026-03-02T07:56:00.000Z</time></trkpt>
      <trkpt lat="52.735813" lon="-1.348817"><ele>152.4</ele><time>2026-03-02T07:56:01.000Z</time></trkpt>
      <trkpt lat="52.735820" lon="-1.348828"><ele>152.4</ele><time>2026-03-02T07:56:02.000Z</time></trkpt>
      <trkpt lat="52.735830" lon="-1.348838"><ele>152.2</ele><time>2026-03-02T07:56:03.000Z</time></trkpt>
      <trkpt lat="52.735836" lon="-1.348849"><ele>152.2</ele><time>2026-03-02T07:56:04.000Z</time></trkpt>
      <trkpt lat="52.735847" lon="-1.348861"><ele>152.2</ele><time>2026-03-02T07:56:05.000Z</time></trkpt>
      <trkpt lat="52.735855" lon="-1.348874"><ele>152.0</ele><time>2026-03-02T07:56:06.000Z</time></trkpt>
      <trkpt lat="52.735863" lon="-1.348885"><ele>152.0</ele><time>2026-03-02T07:56:07.000Z</time></trkpt>
      <trkpt lat="52.735870" lon="-1.348895"><ele>151.8</ele><time>2026-03-02T07:56:08.000Z</time></trkpt>
      <trkpt lat="52.735878" lon="-1.348905"><ele>151.8</ele><time>2026-03-02T07:56:09.000Z</time></trkpt>
      <trkpt lat="52.735886" lon="-1.348917"><ele>151.8</ele><time>2026-03-02T07:56:10.000Z</time></trkpt>
      <trkpt lat="52.735893" lon="-1.348931"><ele>151.6</ele><time>2026-03-02T07:56:11.000Z</time></trkpt>
      <trkpt lat="52.735900" lon="-1.348946"><ele>151.6</ele><time>2026-03-02T07:56:12.000Z</time></trkpt>
      <trkpt lat="52.735910" lon="-1.348965"><ele>151.6</ele><time>2026-03-02T07:56:13.000Z</time></trkpt>
      <trkpt lat="52.735916" lon="-1.348983"><ele>151.6</ele><time>2026-03-02T07:56:14.000Z</time></trkpt>
      <trkpt lat="52.735924" lon="-1.349002"><ele>151.4</ele><time>2026-03-02T07:56:15.000Z</time></trkpt>
      <trkpt lat="52.735928" lon="-1.349019"><ele>151.4</ele><time>2026-03-02T07:56:16.000Z</time></trkpt>
      <trkpt lat="52.735930" lon="-1.349035"><ele>151.4</ele><time>2026-03-02T07:56:17.000Z</time></trkpt>
      <trkpt lat="52.735935" lon="-1.349052"><ele>151.4</ele><time>2026-03-02T07:56:18.000Z</time></trkpt>
      <trkpt lat="52.735940" lon="-1.349072"><ele>151.4</ele><time>2026-03-02T07:56:19.000Z</time></trkpt>
      <trkpt lat="52.735943" lon="-1.349093"><ele>151.4</ele><time>2026-03-02T07:56:20.000Z</time></trkpt>
      <trkpt lat="52.735947" lon="-1.349114"><ele>151.2</ele><time>2026-03-02T07:56:21.000Z</time></trkpt>
      <trkpt lat="52.735954" lon="-1.349131"><ele>151.2</ele><time>2026-03-02T07:56:22.000Z</time></trkpt>
      <trkpt lat="52.735962" lon="-1.349146"><ele>151.2</ele><time>2026-03-02T07:56:23.000Z</time></trkpt>
      <trkpt lat="52.735970" lon="-1.349160"><ele>151.2</ele><time>2026-03-02T07:56:24.000Z</time></trkpt>
      <trkpt lat="52.735977" lon="-1.349177"><ele>151.2</ele><time>2026-03-02T07:56:25.000Z</time></trkpt>
      <trkpt lat="52.735985" lon="-1.349195"><ele>151.2</ele><time>2026-03-02T07:56:26.000Z</time></trkpt>
      <trkpt lat="52.735992" lon="-1.349215"><ele>151.2</ele><time>2026-03-02T07:56:27.000Z</time></trkpt>
      <trkpt lat="52.735996" lon="-1.349233"><ele>151.2</ele><time>2026-03-02T07:56:28.000Z</time></trkpt>
      <trkpt lat="52.736000" lon="-1.349251"><ele>151.4</ele><time>2026-03-02T07:56:29.000Z</time></trkpt>
      <trkpt lat="52.736004" lon="-1.349266"><ele>151.4</ele><time>2026-03-02T07:56:30.000Z</time></trkpt>
      <trkpt lat="52.736008" lon="-1.349281"><ele>151.4</ele><time>2026-03-02T07:56:31.000Z</time></trkpt>
      <trkpt lat="52.736010" lon="-1.349295"><ele>151.4</ele><time>2026-03-02T07:56:32.000Z</time></trkpt>
      <trkpt lat="52.736015" lon="-1.349308"><ele>151.6</ele><time>2026-03-02T07:56:33.000Z</time></trkpt>
      <trkpt lat="52.736020" lon="-1.349323"><ele>151.6</ele><time>2026-03-02T07:56:34.000Z</time></trkpt>
      <trkpt lat="52.736023" lon="-1.349336"><ele>151.6</ele><time>2026-03-02T07:56:35.000Z</time></trkpt>
      <trkpt lat="52.736030" lon="-1.349346"><ele>151.6</ele><time>2026-03-02T07:56:36.000Z</time></trkpt>
      <trkpt lat="52.736034" lon="-1.349352"><ele>151.6</ele><time>2026-03-02T07:56:37.000Z</time></trkpt>
      <trkpt lat="52.736040" lon="-1.349355"><ele>151.8</ele><time>2026-03-02T07:56:38.000Z</time></trkpt>
      <trkpt lat="52.736040" lon="-1.349357"><ele>151.8</ele><time>2026-03-02T07:56:39.000Z</time></trkpt>
      <trkpt lat="52.736040" lon="-1.349359"><ele>151.8</ele><time>2026-03-02T07:56:40.000Z</time></trkpt>
      <trkpt lat="52.736040" lon="-1.349361"><ele>151.8</ele><time>2026-03-02T07:56:41.000Z</time></trkpt>
      <trkpt lat="52.736040" lon="-1.349365"><ele>151.8</ele><time>2026-03-02T07:56:42.000Z</time></trkpt>
      <trkpt lat="52.736042" lon="-1.349372"><ele>151.8</ele><time>2026-03-02T07:56:43.000Z</time></trkpt>
      <trkpt lat="52.736042" lon="-1.349383"><ele>151.6</ele><time>2026-03-02T07:56:44.000Z</time></trkpt>
      <trkpt lat="52.736046" lon="-1.349398"><ele>151.6</ele><time>2026-03-02T07:56:45.000Z</time></trkpt>
      <trkpt lat="52.736046" lon="-1.349416"><ele>151.6</ele><time>2026-03-02T07:56:46.000Z</time></trkpt>
      <trkpt lat="52.736050" lon="-1.349433"><ele>151.6</ele><time>2026-03-02T07:56:47.000Z</time></trkpt>
      <trkpt lat="52.736050" lon="-1.349448"><ele>151.6</ele><time>2026-03-02T07:56:48.000Z</time></trkpt>
      <trkpt lat="52.736053" lon="-1.349462"><ele>151.6</ele><time>2026-03-02T07:56:49.000Z</time></trkpt>
      <trkpt lat="52.736053" lon="-1.349474"><ele>151.6</ele><time>2026-03-02T07:56:50.000Z</time></trkpt>
      <trkpt lat="52.736060" lon="-1.349486"><ele>151.6</ele><time>2026-03-02T07:56:51.000Z</time></trkpt>
      <trkpt lat="52.736065" lon="-1.349500"><ele>151.4</ele><time>2026-03-02T07:56:52.000Z</time></trkpt>
      <trkpt lat="52.736076" lon="-1.349517"><ele>151.4</ele><time>2026-03-02T07:56:53.000Z</time></trkpt>
      <trkpt lat="52.736084" lon="-1.349536"><ele>151.4</ele><time>2026-03-02T07:56:54.000Z</time></trkpt>
      <trkpt lat="52.736090" lon="-1.349554"><ele>151.4</ele><time>2026-03-02T07:56:55.000Z</time></trkpt>
      <trkpt lat="52.736100" lon="-1.349568"><ele>151.4</ele><time>2026-03-02T07:56:56.000Z</time></trkpt>
      <trkpt lat="52.736107" lon="-1.349578"><ele>151.4</ele><time>2026-03-02T07:56:57.000Z</time></trkpt>
      <trkpt lat="52.736115" lon="-1.349587"><ele>151.4</ele><time>2026-03-02T07:56:58.000Z</time></trkpt>
      <trkpt lat="52.736122" lon="-1.349597"><ele>151.4</ele><time>2026-03-02T07:56:59.000Z</time></trkpt>
      <trkpt lat="52.736130" lon="-1.349609"><ele>151.4</ele><time>2026-03-02T07:57:00.000Z</time></trkpt>
      <trkpt lat="52.736140" lon="-1.349622"><ele>151.4</ele><time>2026-03-02T07:57:01.000Z</time></trkpt>
      <trkpt lat="52.736150" lon="-1.349634"><ele>151.4</ele><time>2026-03-02T07:57:02.000Z</time></trkpt>
      <trkpt lat="52.736160" lon="-1.349643"><ele>151.4</ele><time>2026-03-02T07:57:03.000Z</time></trkpt>
      <trkpt lat="52.736170" lon="-1.349648"><ele>151.4</ele><time>2026-03-02T07:57:04.000Z</time></trkpt>
      <trkpt lat="52.736183" lon="-1.349649"><ele>151.4</ele><time>2026-03-02T07:57:05.000Z</time></trkpt>
      <trkpt lat="52.736200" lon="-1.349647"><ele>151.4</ele><time>2026-03-02T07:57:06.000Z</time></trkpt>
      <trkpt lat="52.736210" lon="-1.349643"><ele>151.6</ele><time>2026-03-02T07:57:07.000Z</time></trkpt>
      <trkpt lat="52.736220" lon="-1.349638"><ele>151.6</ele><time>2026-03-02T07:57:08.000Z</time></trkpt>
      <trkpt lat="52.736233" lon="-1.349632"><ele>151.6</ele><time>2026-03-02T07:57:09.000Z</time></trkpt>
      <trkpt lat="52.736244" lon="-1.349627"><ele>151.6</ele><time>2026-03-02T07:57:10.000Z</time></trkpt>
      <trkpt lat="52.736256" lon="-1.349622"><ele>151.6</ele><time>2026-03-02T07:57:11.000Z</time></trkpt>
      <trkpt lat="52.736267" lon="-1.349618"><ele>151.8</ele><time>2026-03-02T07:57:12.000Z</time></trkpt>
      <trkpt lat="52.736280" lon="-1.349617"><ele>151.8</ele><time>2026-03-02T07:57:13.000Z</time></trkpt>
      <trkpt lat="52.736290" lon="-1.349618"><ele>151.8</ele><time>2026-03-02T07:57:14.000Z</time></trkpt>
      <trkpt lat="52.736298" lon="-1.349621"><ele>151.8</ele><time>2026-03-02T07:57:15.000Z</time></trkpt>
      <trkpt lat="52.736310" lon="-1.349624"><ele>151.8</ele><time>2026-03-02T07:57:16.000Z</time></trkpt>
      <trkpt lat="52.736320" lon="-1.349629"><ele>151.8</ele><time>2026-03-02T07:57:17.000Z</time></trkpt>
      <trkpt lat="52.736336" lon="-1.349633"><ele>151.8</ele><time>2026-03-02T07:57:18.000Z</time></trkpt>
      <trkpt lat="52.736347" lon="-1.349639"><ele>151.8</ele><time>2026-03-02T07:57:19.000Z</time></trkpt>
      <trkpt lat="52.736362" lon="-1.349645"><ele>151.8</ele><time>2026-03-02T07:57:20.000Z</time></trkpt>
      <trkpt lat="52.736374" lon="-1.349651"><ele>151.8</ele><time>2026-03-02T07:57:21.000Z</time></trkpt>
      <trkpt lat="52.736385" lon="-1.349658"><ele>151.8</ele><time>2026-03-02T07:57:22.000Z</time></trkpt>
      <trkpt lat="52.736397" lon="-1.349665"><ele>151.8</ele><time>2026-03-02T07:57:23.000Z</time></trkpt>
      <trkpt lat="52.736404" lon="-1.349674"><ele>151.8</ele><time>2026-03-02T07:57:24.000Z</time></trkpt>
      <trkpt lat="52.736416" lon="-1.349683"><ele>151.6</ele><time>2026-03-02T07:57:25.000Z</time></trkpt>
      <trkpt lat="52.736427" lon="-1.349694"><ele>151.6</ele><time>2026-03-02T07:57:26.000Z</time></trkpt>
      <trkpt lat="52.736435" lon="-1.349708"><ele>151.6</ele><time>2026-03-02T07:57:27.000Z</time></trkpt>
      <trkpt lat="52.736446" lon="-1.349722"><ele>151.6</ele><time>2026-03-02T07:57:28.000Z</time></trkpt>
      <trkpt lat="52.736458" lon="-1.349738"><ele>151.6</ele><time>2026-03-02T07:57:29.000Z</time></trkpt>
      <trkpt lat="52.736470" lon="-1.349752"><ele>151.6</ele><time>2026-03-02T07:57:30.000Z</time></trkpt>
      <trkpt lat="52.736480" lon="-1.349766"><ele>151.4</ele><time>2026-03-02T07:57:31.000Z</time></trkpt>
      <trkpt lat="52.736490" lon="-1.349779"><ele>151.4</ele><time>2026-03-02T07:57:32.000Z</time></trkpt>
      <trkpt lat="52.736496" lon="-1.349793"><ele>151.4</ele><time>2026-03-02T07:57:33.000Z</time></trkpt>
      <trkpt lat="52.736507" lon="-1.349805"><ele>151.4</ele><time>2026-03-02T07:57:34.000Z</time></trkpt>
      <trkpt lat="52.736520" lon="-1.349816"><ele>151.4</ele><time>2026-03-02T07:57:35.000Z</time></trkpt>
      <trkpt lat="52.736534" lon="-1.349825"><ele>151.4</ele><time>2026-03-02T07:57:36.000Z</time></trkpt>
      <trkpt lat="52.736546" lon="-1.349835"><ele>151.2</ele><time>2026-03-02T07:57:37.000Z</time></trkpt>
      <trkpt lat="52.736557" lon="-1.349847"><ele>151.2</ele><time>2026-03-02T07:57:38.000Z</time></trkpt>
      <trkpt lat="52.736570" lon="-1.349860"><ele>151.2</ele><time>2026-03-02T07:57:39.000Z</time></trkpt>
      <trkpt lat="52.736580" lon="-1.349871"><ele>151.2</ele><time>2026-03-02T07:57:40.000Z</time></trkpt>
      <trkpt lat="52.736588" lon="-1.349881"><ele>151.2</ele><time>2026-03-02T07:57:41.000Z</time></trkpt>
      <trkpt lat="52.736600" lon="-1.349889"><ele>151.2</ele><time>2026-03-02T07:57:42.000Z</time></trkpt>
      <trkpt lat="52.736610" lon="-1.349898"><ele>151.2</ele><time>2026-03-02T07:57:43.000Z</time></trkpt>
      <trkpt lat="52.736626" lon="-1.349905"><ele>151.2</ele><time>2026-03-02T07:57:44.000Z</time></trkpt>
      <trkpt lat="52.736637" lon="-1.349909"><ele>151.2</ele><time>2026-03-02T07:57:45.000Z</time></trkpt>
      <trkpt lat="52.736652" lon="-1.349912"><ele>151.2</ele><time>2026-03-02T07:57:46.000Z</time></trkpt>
      <trkpt lat="52.736664" lon="-1.349913"><ele>151.2</ele><time>2026-03-02T07:57:47.000Z</time></trkpt>
      <trkpt lat="52.736680" lon="-1.349913"><ele>151.2</ele><time>2026-03-02T07:57:48.000Z</time></trkpt>
      <trkpt lat="52.736690" lon="-1.349914"><ele>151.0</ele><time>2026-03-02T07:57:49.000Z</time></trkpt>
      <trkpt lat="52.736702" lon="-1.349915"><ele>151.0</ele><time>2026-03-02T07:57:50.000Z</time></trkpt>
      <trkpt lat="52.736713" lon="-1.349916"><ele>151.0</ele><time>2026-03-02T07:57:51.000Z</time></trkpt>
      <trkpt lat="52.736725" lon="-1.349917"><ele>150.8</ele><time>2026-03-02T07:57:52.000Z</time></trkpt>
      <trkpt lat="52.736736" lon="-1.349917"><ele>150.6</ele><time>2026-03-02T07:57:53.000Z</time></trkpt>
      <trkpt lat="52.736748" lon="-1.349917"><ele>150.4</ele><time>2026-03-02T07:57:54.000Z</time></trkpt>
      <trkpt lat="52.736760" lon="-1.349919"><ele>150.2</ele><time>2026-03-02T07:57:55.000Z</time></trkpt>
      <trkpt lat="52.736763" lon="-1.349920"><ele>149.8</ele><time>2026-03-02T07:57:56.000Z</time></trkpt>
      <trkpt lat="52.736767" lon="-1.349919"><ele>149.6</ele><time>2026-03-02T07:57:57.000Z</time></trkpt>
      <trkpt lat="52.736770" lon="-1.349917"><ele>149.4</ele><time>2026-03-02T07:57:58.000Z</time></trkpt>
      <trkpt lat="52.736780" lon="-1.349914"><ele>149.2</ele><time>2026-03-02T07:57:59.000Z</time></trkpt>
      <trkpt lat="52.736786" lon="-1.349911"><ele>149.0</ele><time>2026-03-02T07:58:00.000Z</time></trkpt>
      <trkpt lat="52.736797" lon="-1.349910"><ele>148.8</ele><time>2026-03-02T07:58:01.000Z</time></trkpt>
      <trkpt lat="52.736805" lon="-1.349909"><ele>148.8</ele><time>2026-03-02T07:58:02.000Z</time></trkpt>
      <trkpt lat="52.736820" lon="-1.349909"><ele>148.6</ele><time>2026-03-02T07:58:03.000Z</time></trkpt>
      <trkpt lat="52.736830" lon="-1.349908"><ele>148.6</ele><time>2026-03-02T07:58:04.000Z</time></trkpt>
      <trkpt lat="52.736847" lon="-1.349908"><ele>148.4</ele><time>2026-03-02T07:58:05.000Z</time></trkpt>
      <trkpt lat="52.736860" lon="-1.349907"><ele>148.4</ele><time>2026-03-02T07:58:06.000Z</time></trkpt>
      <trkpt lat="52.736870" lon="-1.349907"><ele>148.2</ele><time>2026-03-02T07:58:07.000Z</time></trkpt>
      <trkpt lat="52.736880" lon="-1.349906"><ele>148.2</ele><time>2026-03-02T07:58:08.000Z</time></trkpt>
      <trkpt lat="52.736893" lon="-1.349905"><ele>148.0</ele><time>2026-03-02T07:58:09.000Z</time></trkpt>
      <trkpt lat="52.736904" lon="-1.349901"><ele>148.0</ele><time>2026-03-02T07:58:10.000Z</time></trkpt>
      <trkpt lat="52.736916" lon="-1.349898"><ele>148.0</ele><time>2026-03-02T07:58:11.000Z</time></trkpt>
      <trkpt lat="52.736927" lon="-1.349895"><ele>147.8</ele><time>2026-03-02T07:58:12.000Z</time></trkpt>
      <trkpt lat="52.736940" lon="-1.349891"><ele>147.8</ele><time>2026-03-02T07:58:13.000Z</time></trkpt>
      <trkpt lat="52.736950" lon="-1.349884"><ele>147.6</ele><time>2026-03-02T07:58:14.000Z</time></trkpt>
      <trkpt lat="52.736960" lon="-1.349874"><ele>147.6</ele><time>2026-03-02T07:58:15.000Z</time></trkpt>
      <trkpt lat="52.736973" lon="-1.349862"><ele>147.4</ele><time>2026-03-02T07:58:16.000Z</time></trkpt>
      <trkpt lat="52.736980" lon="-1.349849"><ele>147.2</ele><time>2026-03-02T07:58:17.000Z</time></trkpt>
      <trkpt lat="52.736988" lon="-1.349840"><ele>147.0</ele><time>2026-03-02T07:58:18.000Z</time></trkpt>
      <trkpt lat="52.736990" lon="-1.349837"><ele>146.8</ele><time>2026-03-02T07:58:19.000Z</time></trkpt>
      <trkpt lat="52.736996" lon="-1.349837"><ele>146.4</ele><time>2026-03-02T07:58:20.000Z</time></trkpt>
      <trkpt lat="52.736996" lon="-1.349838"><ele>146.0</ele><time>2026-03-02T07:58:21.000Z</time></trkpt>
      <trkpt lat="52.737000" lon="-1.349839"><ele>145.4</ele><time>2026-03-02T07:58:22.000Z</time></trkpt>
      <trkpt lat="52.737000" lon="-1.349840"><ele>145.0</ele><time>2026-03-02T07:58:23.000Z</time></trkpt>
    </trkseg>
  </trk>
</gpx>
